owner_ssn,business_fed_tax_id,owner_drivers_license,business_phone_number,owner_phone_number,email,address_line1,city,state,zip_code,country,website,fraud_reason
829-48-6150,90-6154187,DL94879277,411-517-5833,201-629-4583,global.systems.inc@gmail.com,5318 Oak St,Chicago,IL,26026,US,www.globalsystemsinc.com,Multiple applications from same phone
886-44-5480,91-5154776,DL75703902,254-348-2497,738-564-1299,american.services.corp@aol.com,2213 Maple St,Houston,TX,14593,US,www.americanservicescorp.com,Multiple applications from same phone
829-48-6150,53-7099744,DL16946169,279-424-4431,564-836-8194,international.tech.corp@hotmail.com,8260 Cedar St,New York,NY,97167,US,www.internationaltechcorp.com,Duplicate SSN
688-48-8224,24-3057577,DL26201695,254-348-2497,775-671-3382,united.services.corp@hotmail.com,1930 Jefferson St,Houston,TX,86033,US,www.unitedservicescorp.com,Suspicious address pattern
688-48-8224,90-6154187,DL27054925,411-517-5833,845-366-7714,united.systems.corp@gmail.com,8508 Jefferson St,New York,NY,33641,US,www.unitedsystemscorp.com,Suspicious tax ID pattern
886-44-5480,53-7099744,DL58398839,279-424-4431,524-342-4838,national.systems.llc@gmail.com,4208 Lincoln St,New York,NY,71311,US,www.nationalsystemsllc.com,Multiple applications from same phone
688-48-8224,91-5154776,DL63602811,474-810-2713,889-936-2650,global.enterprises.corp@gmail.com,8468 Oak St,New York,NY,50433,US,www.globalenterprisescorp.com,Multiple applications from same phone
829-48-6150,24-3057577,DL20142873,474-810-2713,556-298-7822,united.tech.llc@hotmail.com,1592 Oak St,Houston,TX,41535,US,www.unitedtechllc.com,Known fraudulent email domain
531-26-6014,24-3057577,DL75372502,411-517-5833,774-713-8192,american.services.corp@gmail.com,263 Washington St,New York,NY,21266,US,www.americanservicescorp.com,Suspicious address pattern
688-48-8224,96-7549768,DL36382962,254-348-2497,465-711-1034,united.enterprises.inc@aol.com,5031 Main St,Phoenix,AZ,16139,US,www.unitedenterprisesinc.com,Duplicate SSN
531-26-6014,90-6154187,DL53938293,474-810-2713,903-698-1861,national.systems.inc@aol.com,8313 Oak St,Houston,TX,52012,US,www.nationalsystemsinc.com,Duplicate SSN
886-44-5480,53-7099744,DL58709600,279-424-4431,506-598-3358,american.tech.inc@aol.com,6233 Cedar St,Los Angeles,CA,22633,US,www.americantechinc.com,Suspicious tax ID pattern
688-48-8224,96-7549768,DL85261286,254-348-2497,732-103-3747,international.tech.llc@yahoo.com,2452 Main St,New York,NY,11470,US,www.internationaltechllc.com,Known fraudulent email domain
829-48-6150,53-7099744,DL14677657,411-517-5833,301-862-2891,national.tech.ltd@outlook.com,905 Washington St,Los Angeles,CA,81532,US,www.nationaltechltd.com,Duplicate SSN
531-26-6014,90-6154187,DL65286468,411-517-5833,538-842-3127,national.systems.inc@yahoo.com,4941 Cedar St,Phoenix,AZ,78508,US,www.nationalsystemsinc.com,Duplicate SSN
688-48-8224,53-7099744,DL17333700,521-446-2663,273-361-9654,united.services.inc@yahoo.com,5843 Washington St,Phoenix,AZ,49034,US,www.unitedservicesinc.com,Known fraudulent email domain
688-48-8224,24-3057577,DL95553115,474-810-2713,412-758-9805,united.services.ltd@aol.com,8375 Jefferson St,Houston,TX,23510,US,www.unitedservicesltd.com,Multiple applications from same phone
886-44-5480,90-6154187,DL22445330,254-348-2497,908-336-7559,global.systems.ltd@outlook.com,1265 Washington St,Chicago,IL,57397,US,www.globalsystemsltd.com,Multiple applications from same phone
829-48-6150,53-7099744,DL84296772,474-810-2713,275-213-1769,national.enterprises.ltd@yahoo.com,7457 Maple St,Phoenix,AZ,11916,US,www.nationalenterprisesltd.com,Suspicious address pattern
688-48-8224,53-7099744,DL63452560,474-810-2713,286-479-7854,american.tech.corp@outlook.com,3930 Pine St,Houston,TX,67885,US,www.americantechcorp.com,Suspicious tax ID pattern
371-86-4475,53-7099744,DL12975573,279-424-4431,276-666-6312,global.systems.inc@yahoo.com,820 Cedar St,Chicago,IL,74196,US,www.globalsystemsinc.com,Suspicious tax ID pattern
371-86-4475,91-5154776,DL41409435,254-348-2497,555-547-3295,american.enterprises.llc@yahoo.com,3691 Maple St,Chicago,IL,47818,US,www.americanenterprisesllc.com,Multiple applications from same phone
688-48-8224,90-6154187,DL66543320,254-348-2497,277-684-6133,global.services.inc@aol.com,680 Maple St,Houston,TX,74030,US,www.globalservicesinc.com,Multiple applications from same phone
886-44-5480,24-3057577,DL84725795,254-348-2497,524-527-6822,united.solutions.ltd@gmail.com,1330 Oak St,Phoenix,AZ,30752,US,www.unitedsolutionsltd.com,Suspicious tax ID pattern
531-26-6014,24-3057577,DL48837264,474-810-2713,227-538-2103,american.tech.llc@yahoo.com,6438 Washington St,New York,NY,59489,US,www.americantechllc.com,Duplicate SSN
531-26-6014,96-7549768,DL70928887,521-446-2663,822-651-8130,american.services.corp@gmail.com,2556 Elm St,Houston,TX,41649,US,www.americanservicescorp.com,Known fraudulent email domain
531-26-6014,96-7549768,DL77161646,411-517-5833,568-734-3034,international.services.inc@gmail.com,6593 Lincoln St,Houston,TX,97940,US,www.internationalservicesinc.com,Suspicious address pattern
886-44-5480,96-7549768,DL99504349,521-446-2663,345-170-6910,international.tech.corp@gmail.com,5794 Pine St,Los Angeles,CA,52394,US,www.internationaltechcorp.com,Known fraudulent email domain
531-26-6014,53-7099744,DL88314830,411-517-5833,511-156-9868,united.tech.corp@yahoo.com,5869 Maple St,Chicago,IL,87881,US,www.unitedtechcorp.com,Suspicious tax ID pattern
531-26-6014,53-7099744,DL37442457,474-810-2713,340-107-2240,global.enterprises.inc@outlook.com,8799 Pine St,Phoenix,AZ,86824,US,www.globalenterprisesinc.com,Multiple applications from same phone
531-26-6014,91-5154776,DL91257813,411-517-5833,893-231-9516,united.services.corp@aol.com,9545 Elm St,Phoenix,AZ,90853,US,www.unitedservicescorp.com,Suspicious address pattern
829-48-6150,91-5154776,DL92192195,521-446-2663,727-350-4371,national.solutions.ltd@aol.com,947 Maple St,Chicago,IL,26412,US,www.nationalsolutionsltd.com,Suspicious address pattern
829-48-6150,53-7099744,DL29735933,474-810-2713,447-286-9878,international.services.inc@aol.com,847 Pine St,Chicago,IL,66627,US,www.internationalservicesinc.com,Suspicious tax ID pattern
371-86-4475,90-6154187,DL27420711,411-517-5833,943-269-9868,american.systems.llc@yahoo.com,6000 Maple St,Chicago,IL,26502,US,www.americansystemsllc.com,Suspicious address pattern
688-48-8224,96-7549768,DL97113016,411-517-5833,283-367-3012,global.systems.llc@hotmail.com,9914 Maple St,Phoenix,AZ,56147,US,www.globalsystemsllc.com,Known fraudulent email domain
688-48-8224,96-7549768,DL76208785,474-810-2713,467-538-2237,global.tech.inc@aol.com,7837 Lincoln St,Houston,TX,23469,US,www.globaltechinc.com,Duplicate SSN
688-48-8224,24-3057577,DL21613284,411-517-5833,551-302-4868,american.systems.ltd@gmail.com,3793 Cedar St,Los Angeles,CA,69507,US,www.americansystemsltd.com,Multiple applications from same phone
531-26-6014,96-7549768,DL90642622,279-424-4431,879-710-4050,american.solutions.llc@gmail.com,5869 Jefferson St,Houston,TX,43360,US,www.americansolutionsllc.com,Duplicate SSN
886-44-5480,53-7099744,DL78434226,521-446-2663,666-975-1194,national.systems.corp@hotmail.com,9473 Main St,Chicago,IL,83141,US,www.nationalsystemscorp.com,Suspicious tax ID pattern
829-48-6150,53-7099744,DL13678597,411-517-5833,249-549-9452,national.enterprises.llc@gmail.com,9020 Elm St,Los Angeles,CA,76627,US,www.nationalenterprisesllc.com,Known fraudulent email domain
829-48-6150,90-6154187,DL69383471,521-446-2663,854-625-4387,american.solutions.inc@hotmail.com,8150 Pine St,New York,NY,24101,US,www.americansolutionsinc.com,Duplicate SSN
886-44-5480,24-3057577,DL99828583,521-446-2663,831-199-6811,american.services.corp@yahoo.com,663 Oak St,Houston,TX,36442,US,www.americanservicescorp.com,Multiple applications from same phone
688-48-8224,90-6154187,DL58207101,279-424-4431,579-867-7668,american.services.llc@outlook.com,9980 Elm St,New York,NY,90752,US,www.americanservicesllc.com,Known fraudulent email domain
688-48-8224,91-5154776,DL19948612,254-348-2497,786-483-8149,global.systems.corp@outlook.com,4841 Maple St,Phoenix,AZ,47387,US,www.globalsystemscorp.com,Suspicious tax ID pattern
531-26-6014,96-7549768,DL86238647,411-517-5833,209-535-1833,national.services.ltd@yahoo.com,496 Maple St,New York,NY,79170,US,www.nationalservicesltd.com,Duplicate SSN
531-26-6014,53-7099744,DL94139099,279-424-4431,275-413-6227,american.enterprises.inc@outlook.com,1386 Maple St,Chicago,IL,20962,US,www.americanenterprisesinc.com,Known fraudulent email domain
688-48-8224,96-7549768,DL96191683,521-446-2663,972-409-8874,global.services.ltd@yahoo.com,5190 Pine St,Los Angeles,CA,67710,US,www.globalservicesltd.com,Suspicious tax ID pattern
371-86-4475,90-6154187,DL13539008,279-424-4431,776-707-5579,national.tech.ltd@outlook.com,9141 Cedar St,New York,NY,63743,US,www.nationaltechltd.com,Suspicious address pattern
886-44-5480,96-7549768,DL15487142,474-810-2713,219-105-3547,international.systems.corp@hotmail.com,3933 Main St,New York,NY,78958,US,www.internationalsystemscorp.com,Multiple applications from same phone
531-26-6014,90-6154187,DL13843835,254-348-2497,264-211-3558,american.enterprises.llc@outlook.com,7722 Main St,Phoenix,AZ,48931,US,www.americanenterprisesllc.com,Multiple applications from same phone
371-86-4475,96-7549768,DL98083652,411-517-5833,306-951-4188,international.systems.inc@hotmail.com,5205 Main St,Phoenix,AZ,76387,US,www.internationalsystemsinc.com,Multiple applications from same phone
886-44-5480,53-7099744,DL47043288,254-348-2497,514-815-3686,global.solutions.inc@aol.com,327 Jefferson St,Los Angeles,CA,13027,US,www.globalsolutionsinc.com,Multiple applications from same phone
886-44-5480,90-6154187,DL12194017,474-810-2713,789-405-2478,united.enterprises.ltd@outlook.com,3286 Elm St,Los Angeles,CA,51465,US,www.unitedenterprisesltd.com,Multiple applications from same phone
688-48-8224,96-7549768,DL91762878,521-446-2663,509-133-6174,united.enterprises.llc@gmail.com,6368 Pine St,Phoenix,AZ,37673,US,www.unitedenterprisesllc.com,Known fraudulent email domain
531-26-6014,90-6154187,DL86053128,474-810-2713,990-440-1688,global.services.llc@yahoo.com,1721 Maple St,Houston,TX,92520,US,www.globalservicesllc.com,Multiple applications from same phone
829-48-6150,90-6154187,DL86543260,521-446-2663,552-106-9656,national.systems.llc@outlook.com,7179 Main St,Phoenix,AZ,72117,US,www.nationalsystemsllc.com,Suspicious address pattern
886-44-5480,91-5154776,DL83525931,474-810-2713,795-234-5246,american.enterprises.llc@gmail.com,7845 Pine St,Phoenix,AZ,60774,US,www.americanenterprisesllc.com,Known fraudulent email domain
886-44-5480,90-6154187,DL85168231,474-810-2713,743-726-7935,american.services.llc@hotmail.com,7041 Pine St,Chicago,IL,27816,US,www.americanservicesllc.com,Suspicious tax ID pattern
688-48-8224,90-6154187,DL20189002,474-810-2713,205-615-8569,american.systems.inc@yahoo.com,7641 Washington St,New York,NY,60591,US,www.americansystemsinc.com,Duplicate SSN
531-26-6014,90-6154187,DL94161402,254-348-2497,816-698-9377,american.solutions.inc@aol.com,9091 Washington St,Houston,TX,81439,US,www.americansolutionsinc.com,Suspicious address pattern
371-86-4475,53-7099744,DL29186903,254-348-2497,717-551-9671,international.tech.corp@hotmail.com,5539 Main St,Houston,TX,94483,US,www.internationaltechcorp.com,Suspicious tax ID pattern
531-26-6014,24-3057577,DL69599549,474-810-2713,614-115-7241,united.enterprises.ltd@gmail.com,7905 Main St,Los Angeles,CA,88775,US,www.unitedenterprisesltd.com,Suspicious address pattern
829-48-6150,91-5154776,DL41061949,411-517-5833,346-854-4487,national.services.ltd@aol.com,9539 Oak St,New York,NY,31438,US,www.nationalservicesltd.com,Known fraudulent email domain
886-44-5480,53-7099744,DL99052179,279-424-4431,882-210-5368,american.solutions.inc@aol.com,5474 Elm St,New York,NY,36785,US,www.americansolutionsinc.com,Suspicious tax ID pattern
531-26-6014,91-5154776,DL47021439,474-810-2713,602-680-1879,american.services.ltd@yahoo.com,3410 Elm St,Chicago,IL,32651,US,www.americanservicesltd.com,Suspicious tax ID pattern
371-86-4475,53-7099744,DL47389223,521-446-2663,885-952-1665,international.tech.ltd@aol.com,7754 Elm St,New York,NY,62401,US,www.internationaltechltd.com,Duplicate SSN
886-44-5480,53-7099744,DL22751100,474-810-2713,782-223-2413,united.tech.llc@yahoo.com,5429 Maple St,New York,NY,78888,US,www.unitedtechllc.com,Suspicious tax ID pattern
886-44-5480,53-7099744,DL10294231,521-446-2663,418-481-5618,national.systems.inc@gmail.com,4064 Elm St,New York,NY,56423,US,www.nationalsystemsinc.com,Known fraudulent email domain
371-86-4475,53-7099744,DL63098104,254-348-2497,845-394-9769,united.solutions.corp@aol.com,7456 Washington St,Chicago,IL,32861,US,www.unitedsolutionscorp.com,Duplicate SSN
371-86-4475,53-7099744,DL64434034,474-810-2713,699-475-6571,united.systems.ltd@yahoo.com,9903 Main St,Phoenix,AZ,47967,US,www.unitedsystemsltd.com,Suspicious tax ID pattern
886-44-5480,96-7549768,DL11165448,521-446-2663,621-949-6270,american.systems.inc@hotmail.com,6369 Pine St,Los Angeles,CA,46541,US,www.americansystemsinc.com,Suspicious tax ID pattern
688-48-8224,96-7549768,DL69309081,474-810-2713,325-671-5560,international.solutions.corp@yahoo.com,5404 Elm St,New York,NY,95287,US,www.internationalsolutionscorp.com,Duplicate SSN
688-48-8224,91-5154776,DL53534947,254-348-2497,582-857-4130,international.systems.corp@aol.com,4566 Lincoln St,Los Angeles,CA,25963,US,www.internationalsystemscorp.com,Known fraudulent email domain
688-48-8224,24-3057577,DL76110953,254-348-2497,270-892-8590,united.systems.inc@aol.com,4795 Cedar St,Chicago,IL,24657,US,www.unitedsystemsinc.com,Multiple applications from same phone
829-48-6150,53-7099744,DL75147720,279-424-4431,970-643-2865,united.enterprises.corp@yahoo.com,849 Main St,New York,NY,61402,US,www.unitedenterprisescorp.com,Suspicious address pattern
829-48-6150,53-7099744,DL97988890,411-517-5833,341-331-7033,global.systems.ltd@yahoo.com,6112 Oak St,Los Angeles,CA,55657,US,www.globalsystemsltd.com,Duplicate SSN
371-86-4475,24-3057577,DL77142035,254-348-2497,905-240-5424,national.services.corp@gmail.com,2859 Cedar St,Chicago,IL,76828,US,www.nationalservicescorp.com,Known fraudulent email domain
371-86-4475,90-6154187,DL51246306,521-446-2663,517-488-2669,american.services.inc@aol.com,6545 Elm St,New York,NY,58112,US,www.americanservicesinc.com,Suspicious tax ID pattern
371-86-4475,53-7099744,DL50967986,411-517-5833,800-237-2520,united.enterprises.llc@aol.com,7878 Maple St,Los Angeles,CA,29733,US,www.unitedenterprisesllc.com,Duplicate SSN
371-86-4475,53-7099744,DL88090923,254-348-2497,998-457-3162,national.enterprises.corp@yahoo.com,3936 Elm St,Los Angeles,CA,55898,US,www.nationalenterprisescorp.com,Known fraudulent email domain
688-48-8224,91-5154776,DL17000426,521-446-2663,426-664-7811,american.systems.llc@outlook.com,400 Cedar St,Los Angeles,CA,66863,US,www.americansystemsllc.com,Duplicate SSN
688-48-8224,90-6154187,DL31238395,474-810-2713,232-337-7051,national.services.llc@outlook.com,8186 Maple St,Los Angeles,CA,63131,US,www.nationalservicesllc.com,Suspicious address pattern
829-48-6150,91-5154776,DL68597868,279-424-4431,906-183-1638,united.tech.llc@gmail.com,2397 Lincoln St,Phoenix,AZ,13144,US,www.unitedtechllc.com,Duplicate SSN
688-48-8224,53-7099744,DL87546321,474-810-2713,749-596-7727,national.solutions.inc@hotmail.com,6394 Pine St,Chicago,IL,45831,US,www.nationalsolutionsinc.com,Multiple applications from same phone
371-86-4475,90-6154187,DL87967257,521-446-2663,804-493-9788,national.tech.corp@yahoo.com,3338 Oak St,Chicago,IL,74203,US,www.nationaltechcorp.com,Suspicious tax ID pattern
371-86-4475,24-3057577,DL61366763,411-517-5833,870-912-1638,national.enterprises.llc@gmail.com,1795 Maple St,New York,NY,64144,US,www.nationalenterprisesllc.com,Known fraudulent email domain
531-26-6014,91-5154776,DL12047250,521-446-2663,322-273-6391,national.solutions.llc@yahoo.com,4747 Jefferson St,Houston,TX,31842,US,www.nationalsolutionsllc.com,Multiple applications from same phone
531-26-6014,24-3057577,DL53831949,521-446-2663,349-589-5742,global.systems.corp@outlook.com,8810 Cedar St,Houston,TX,88552,US,www.globalsystemscorp.com,Duplicate SSN
829-48-6150,24-3057577,DL57882457,411-517-5833,714-363-4812,united.systems.llc@outlook.com,4184 Oak St,Phoenix,AZ,73210,US,www.unitedsystemsllc.com,Suspicious address pattern
886-44-5480,24-3057577,DL75384169,521-446-2663,760-349-3638,national.enterprises.inc@aol.com,2929 Lincoln St,Los Angeles,CA,17174,US,www.nationalenterprisesinc.com,Suspicious tax ID pattern
688-48-8224,53-7099744,DL90654328,474-810-2713,469-661-7059,global.enterprises.corp@hotmail.com,3218 Lincoln St,Los Angeles,CA,60261,US,www.globalenterprisescorp.com,Suspicious address pattern
886-44-5480,53-7099744,DL56863835,279-424-4431,880-982-5450,united.services.llc@yahoo.com,6232 Lincoln St,Los Angeles,CA,55736,US,www.unitedservicesllc.com,Multiple applications from same phone
688-48-8224,91-5154776,DL62310951,521-446-2663,460-897-7049,united.services.corp@aol.com,6692 Pine St,Chicago,IL,73096,US,www.unitedservicescorp.com,Multiple applications from same phone
688-48-8224,91-5154776,DL11898982,474-810-2713,456-446-1588,international.enterprises.llc@yahoo.com,4798 Jefferson St,New York,NY,31891,US,www.internationalenterprisesllc.com,Known fraudulent email domain
688-48-8224,91-5154776,DL27104534,474-810-2713,536-259-7126,united.solutions.corp@yahoo.com,4377 Cedar St,Houston,TX,22816,US,www.unitedsolutionscorp.com,Suspicious address pattern
688-48-8224,91-5154776,DL18168167,474-810-2713,871-331-7947,global.services.inc@outlook.com,8010 Cedar St,Los Angeles,CA,21655,US,www.globalservicesinc.com,Multiple applications from same phone
886-44-5480,24-3057577,DL84246575,279-424-4431,899-610-9498,american.tech.inc@hotmail.com,6418 Washington St,Phoenix,AZ,82958,US,www.americantechinc.com,Suspicious tax ID pattern
371-86-4475,53-7099744,DL60374487,279-424-4431,910-904-8402,united.enterprises.corp@outlook.com,406 Cedar St,Chicago,IL,62717,US,www.unitedenterprisescorp.com,Duplicate SSN
371-86-4475,90-6154187,DL15725505,279-424-4431,210-255-9696,global.systems.corp@aol.com,7207 Cedar St,Phoenix,AZ,67254,US,www.globalsystemscorp.com,Suspicious address pattern
886-44-5480,91-5154776,DL46978664,411-517-5833,481-626-3688,american.systems.llc@yahoo.com,9367 Jefferson St,Los Angeles,CA,56616,US,www.americansystemsllc.com,Suspicious address pattern
455-92-2423,80-3638013,DL61296522,729-279-5960,490-790-8192,international.enterprises.corp@gmail.com,1097 Lincoln St,Phoenix,AZ,57076,US,www.internationalenterprisescorp.com,
819-89-6300,49-4660356,DL72427938,729-296-7151,212-673-3730,international.systems.inc@hotmail.com,2560 Elm St,Houston,TX,18534,US,www.internationalsystemsinc.com,
293-11-9002,63-7965671,DL71016376,355-687-5850,614-876-2621,united.enterprises.ltd@yahoo.com,8326 Lincoln St,Houston,TX,14647,US,www.unitedenterprisesltd.com,
912-36-6650,66-7542536,DL38287913,675-500-4713,698-574-2327,international.systems.llc@hotmail.com,4855 Pine St,Phoenix,AZ,98290,US,www.internationalsystemsllc.com,
390-78-5497,61-7978758,DL44677870,276-463-5472,576-179-9401,united.tech.llc@hotmail.com,2590 Jefferson St,Houston,TX,45102,US,www.unitedtechllc.com,
518-80-5078,65-8774629,DL67147498,653-483-1428,510-124-5834,global.tech.corp@yahoo.com,2990 Elm St,Los Angeles,CA,51769,US,www.globaltechcorp.com,
527-41-2024,21-2472961,DL26292899,609-163-9438,706-655-4803,global.systems.ltd@gmail.com,4463 Oak St,Chicago,IL,15584,US,www.globalsystemsltd.com,
490-89-6025,38-2290513,DL36981562,292-134-6655,529-203-3314,international.systems.ltd@outlook.com,2264 Lincoln St,Houston,TX,62264,US,www.internationalsystemsltd.com,
810-26-5095,86-8844228,DL20721070,714-185-2813,494-713-2625,global.systems.ltd@yahoo.com,1959 Oak St,Houston,TX,36628,US,www.globalsystemsltd.com,
321-14-9711,23-2934880,DL94558861,272-668-4606,880-557-7213,global.solutions.inc@hotmail.com,7124 Lincoln St,Houston,TX,46612,US,www.globalsolutionsinc.com,
131-66-8873,91-1208144,DL76325742,621-664-2691,900-227-5589,national.services.ltd@aol.com,4184 Elm St,Los Angeles,CA,66845,US,www.nationalservicesltd.com,
757-64-4085,11-6549461,DL63318982,310-919-2137,251-655-6237,international.enterprises.inc@gmail.com,5377 Maple St,Phoenix,AZ,78815,US,www.internationalenterprisesinc.com,
948-52-7194,50-9639268,DL77750711,524-437-5371,450-534-3718,global.tech.llc@yahoo.com,5294 Pine St,Chicago,IL,40349,US,www.globaltechllc.com,
207-65-3135,42-2966492,DL68942641,933-226-8952,678-290-4317,american.enterprises.corp@aol.com,6376 Jefferson St,Los Angeles,CA,34380,US,www.americanenterprisescorp.com,
953-63-5479,15-4198936,DL56805363,594-209-5226,741-169-7042,national.systems.llc@aol.com,9085 Main St,New York,NY,46888,US,www.nationalsystemsllc.com,
345-21-9494,61-1539793,DL22268847,766-989-8967,555-474-4822,global.tech.inc@aol.com,3809 Main St,Chicago,IL,56543,US,www.globaltechinc.com,
155-78-9309,92-5123018,DL42562567,686-447-8083,778-737-7342,national.enterprises.ltd@yahoo.com,1951 Washington St,Los Angeles,CA,16683,US,www.nationalenterprisesltd.com,
859-83-6025,22-4241639,DL88422138,244-758-1420,856-404-7328,global.tech.inc@outlook.com,6792 Jefferson St,New York,NY,16639,US,www.globaltechinc.com,
619-70-9369,52-9905292,DL23360690,550-387-2799,908-277-7292,united.services.inc@aol.com,2745 Elm St,Los Angeles,CA,23400,US,www.unitedservicesinc.com,
849-38-1619,59-2399854,DL48022173,569-350-6909,614-703-8326,national.tech.llc@gmail.com,3579 Oak St,Chicago,IL,89342,US,www.nationaltechllc.com,
990-19-2960,66-5817384,DL74941959,788-321-5577,363-204-6062,global.systems.llc@aol.com,107 Washington St,New York,NY,94692,US,www.globalsystemsllc.com,
661-83-7050,59-1726661,DL97792422,613-495-3453,657-243-9815,international.systems.corp@outlook.com,4980 Main St,New York,NY,89912,US,www.internationalsystemscorp.com,
714-48-5765,46-1475310,DL75609421,525-910-7136,970-852-7996,international.systems.ltd@aol.com,9671 Oak St,Los Angeles,CA,81289,US,www.internationalsystemsltd.com,
942-87-6776,13-1705050,DL27446324,531-102-5876,212-341-7190,national.services.llc@gmail.com,4624 Lincoln St,Chicago,IL,89462,US,www.nationalservicesllc.com,
861-64-8689,23-4232996,DL95919568,653-397-7977,343-743-9427,national.tech.llc@outlook.com,4912 Maple St,Houston,TX,63815,US,www.nationaltechllc.com,
581-62-3681,77-5521641,DL37538433,947-938-5570,341-633-2518,global.services.corp@yahoo.com,1787 Jefferson St,Phoenix,AZ,27813,US,www.globalservicescorp.com,
673-89-9130,48-1624424,DL97913366,235-427-8269,367-699-2508,international.services.corp@yahoo.com,7091 Maple St,Los Angeles,CA,40118,US,www.internationalservicescorp.com,
277-61-8167,60-9783824,DL53852724,907-282-6404,651-327-8189,international.solutions.inc@gmail.com,1951 Cedar St,Houston,TX,66008,US,www.internationalsolutionsinc.com,
287-67-6942,17-7233918,DL85211287,420-630-5420,495-341-2973,united.services.ltd@gmail.com,5356 Oak St,Chicago,IL,33941,US,www.unitedservicesltd.com,
673-69-3983,75-7569788,DL79752875,819-571-3753,877-978-8102,united.solutions.corp@yahoo.com,6746 Main St,Los Angeles,CA,52886,US,www.unitedsolutionscorp.com,
582-19-9468,77-4359066,DL97087102,503-454-3525,498-568-6300,american.solutions.inc@outlook.com,6721 Pine St,Los Angeles,CA,48970,US,www.americansolutionsinc.com,
437-11-2635,22-7786885,DL46729758,699-124-3542,527-195-2514,united.services.ltd@aol.com,9140 Elm St,Chicago,IL,81973,US,www.unitedservicesltd.com,
652-13-8668,15-9798085,DL30333123,468-135-9506,295-647-1755,national.systems.llc@hotmail.com,884 Elm St,Houston,TX,99979,US,www.nationalsystemsllc.com,
984-13-5645,88-5239797,DL69627571,629-190-7049,540-253-7968,american.tech.ltd@aol.com,6491 Oak St,Los Angeles,CA,27836,US,www.americantechltd.com,
900-47-5457,77-1061605,DL99535802,699-481-1268,454-138-4106,international.tech.inc@aol.com,1053 Pine St,Los Angeles,CA,21295,US,www.internationaltechinc.com,
232-22-1477,24-8892783,DL54121599,599-534-9839,778-654-3385,international.solutions.corp@outlook.com,6339 Elm St,Los Angeles,CA,74343,US,www.internationalsolutionscorp.com,
918-24-5802,38-6488449,DL16566380,681-903-1797,383-739-5344,international.solutions.llc@aol.com,5910 Main St,Houston,TX,18222,US,www.internationalsolutionsllc.com,
966-77-2416,52-9947027,DL99426045,527-351-9075,889-473-6289,united.enterprises.inc@hotmail.com,2202 Main St,New York,NY,13021,US,www.unitedenterprisesinc.com,
115-11-9531,80-4670146,DL47956992,246-713-8575,627-241-2451,global.tech.ltd@yahoo.com,9930 Cedar St,Los Angeles,CA,93876,US,www.globaltechltd.com,
885-83-9504,72-6265511,DL43686609,938-812-8391,859-263-5680,united.solutions.corp@gmail.com,9516 Washington St,Los Angeles,CA,70374,US,www.unitedsolutionscorp.com,
950-24-8450,18-7367375,DL73687549,257-272-5001,418-341-8285,international.services.llc@outlook.com,4060 Elm St,Los Angeles,CA,75458,US,www.internationalservicesllc.com,
128-74-2157,64-7451796,DL85323441,944-986-5917,754-725-1044,international.services.ltd@gmail.com,2993 Lincoln St,Chicago,IL,83172,US,www.internationalservicesltd.com,
811-48-4751,59-3336962,DL37862989,847-402-4013,296-897-4999,united.tech.ltd@yahoo.com,7314 Elm St,Los Angeles,CA,27625,US,www.unitedtechltd.com,
219-76-8958,92-3967580,DL81951983,532-471-2355,462-783-7710,international.services.inc@aol.com,7550 Pine St,Houston,TX,53568,US,www.internationalservicesinc.com,
873-89-6456,45-6694728,DL44991271,721-558-1009,791-812-3769,american.systems.corp@outlook.com,3562 Elm St,Chicago,IL,25748,US,www.americansystemscorp.com,
437-20-4326,46-8924567,DL82429777,751-200-9023,540-316-3643,american.systems.corp@yahoo.com,2723 Pine St,Los Angeles,CA,94795,US,www.americansystemscorp.com,
558-31-3833,45-2351237,DL82294444,452-363-1097,225-695-1423,national.enterprises.ltd@yahoo.com,4563 Lincoln St,New York,NY,31346,US,www.nationalenterprisesltd.com,
524-36-6349,41-3912283,DL30447269,693-725-2310,800-891-7528,global.solutions.inc@aol.com,3362 Elm St,Los Angeles,CA,78651,US,www.globalsolutionsinc.com,
821-22-7524,29-9462524,DL36717378,598-355-8595,413-194-6418,global.enterprises.inc@aol.com,2559 Lincoln St,New York,NY,41433,US,www.globalenterprisesinc.com,
283-97-4941,94-3010375,DL92468853,773-246-6676,401-408-1170,national.systems.ltd@hotmail.com,8930 Pine St,Chicago,IL,56314,US,www.nationalsystemsltd.com,
691-60-2569,85-1326380,DL29997320,778-572-4848,669-311-1027,united.enterprises.llc@gmail.com,5523 Elm St,New York,NY,60558,US,www.unitedenterprisesllc.com,
194-33-3828,45-7326701,DL78899522,259-490-8049,544-340-9031,american.solutions.llc@gmail.com,1341 Oak St,Houston,TX,43303,US,www.americansolutionsllc.com,
358-78-7153,55-4285242,DL33904885,416-350-2360,391-599-2918,global.services.corp@outlook.com,4684 Main St,Houston,TX,64831,US,www.globalservicescorp.com,
866-61-1434,21-8155049,DL83601233,836-677-6372,311-143-1274,american.solutions.inc@yahoo.com,7849 Main St,Chicago,IL,33719,US,www.americansolutionsinc.com,
285-88-3468,95-9937561,DL84203822,664-739-6817,380-974-5963,global.services.corp@aol.com,5229 Cedar St,Los Angeles,CA,74009,US,www.globalservicescorp.com,
386-32-8475,90-4269449,DL27840163,281-386-4830,620-317-9247,national.systems.ltd@yahoo.com,7744 Maple St,New York,NY,22451,US,www.nationalsystemsltd.com,
793-75-1686,13-8683832,DL30934980,625-652-7119,535-355-8403,american.services.corp@hotmail.com,9319 Jefferson St,Houston,TX,96006,US,www.americanservicescorp.com,
434-14-8595,20-7177702,DL33177497,565-539-1322,750-655-4671,global.tech.corp@outlook.com,7332 Lincoln St,Houston,TX,74516,US,www.globaltechcorp.com,
555-44-6546,74-9313073,DL56708494,437-844-4126,494-551-8393,global.systems.ltd@outlook.com,4043 Jefferson St,Phoenix,AZ,97756,US,www.globalsystemsltd.com,
819-81-8883,69-5903341,DL24124205,236-628-1293,206-252-1834,global.solutions.corp@outlook.com,3707 Maple St,New York,NY,18307,US,www.globalsolutionscorp.com,
681-89-6562,49-1147455,DL21734651,868-469-2764,652-254-5228,national.services.ltd@yahoo.com,7725 Maple St,Chicago,IL,12405,US,www.nationalservicesltd.com,
849-55-7611,48-7867153,DL73540025,405-973-9548,801-458-7061,national.enterprises.llc@aol.com,4499 Elm St,Chicago,IL,79032,US,www.nationalenterprisesllc.com,
453-48-9831,81-6264671,DL13533661,361-360-5365,452-204-4492,american.services.ltd@hotmail.com,6182 Elm St,Houston,TX,86986,US,www.americanservicesltd.com,
580-44-9120,23-8328422,DL74326932,356-335-2634,739-520-1254,international.systems.corp@aol.com,4802 Elm St,Houston,TX,48392,US,www.internationalsystemscorp.com,
781-14-6425,14-8157551,DL16556013,912-336-4865,294-891-4430,international.enterprises.llc@gmail.com,8283 Jefferson St,Phoenix,AZ,56345,US,www.internationalenterprisesllc.com,
741-67-2206,86-3729623,DL64140850,991-506-8324,217-798-5176,united.systems.ltd@yahoo.com,9903 Lincoln St,Phoenix,AZ,43749,US,www.unitedsystemsltd.com,
400-26-9450,26-9870567,DL90735670,812-879-2797,455-116-9804,united.solutions.corp@gmail.com,9697 Washington St,Houston,TX,37252,US,www.unitedsolutionscorp.com,
928-43-6003,67-2444565,DL95590144,220-254-7927,803-125-2124,international.solutions.ltd@aol.com,3639 Maple St,Houston,TX,99099,US,www.internationalsolutionsltd.com,
247-14-5332,52-3719905,DL89509080,308-291-5496,645-145-2978,american.services.llc@outlook.com,2437 Lincoln St,Chicago,IL,26785,US,www.americanservicesllc.com,
892-96-7683,26-8211370,DL95089367,351-185-6385,684-179-5388,global.services.inc@hotmail.com,3671 Lincoln St,Houston,TX,31878,US,www.globalservicesinc.com,
390-39-8517,46-4299303,DL37046949,371-712-7218,345-395-5078,american.enterprises.corp@outlook.com,8525 Pine St,Phoenix,AZ,75783,US,www.americanenterprisescorp.com,
944-19-5022,11-1861033,DL90155376,283-515-6381,513-588-9409,global.solutions.corp@hotmail.com,2453 Cedar St,Los Angeles,CA,99720,US,www.globalsolutionscorp.com,
897-92-2279,27-3845076,DL76501901,242-138-9858,250-760-6713,american.systems.inc@yahoo.com,3978 Elm St,Los Angeles,CA,28686,US,www.americansystemsinc.com,
405-17-5896,28-2443498,DL45265168,274-311-9001,652-206-2979,international.tech.corp@outlook.com,5426 Maple St,Houston,TX,74829,US,www.internationaltechcorp.com,
374-83-8203,59-3499133,DL45719383,636-687-1149,521-746-3031,united.services.llc@outlook.com,1223 Oak St,Chicago,IL,46948,US,www.unitedservicesllc.com,
105-95-3655,60-4993863,DL80541062,558-431-5790,527-429-7016,international.tech.corp@hotmail.com,3892 Cedar St,Los Angeles,CA,71301,US,www.internationaltechcorp.com,
179-47-8260,61-1671843,DL73569873,217-211-6748,419-845-1942,united.solutions.ltd@aol.com,1277 Cedar St,Los Angeles,CA,21710,US,www.unitedsolutionsltd.com,
562-51-6912,34-3117318,DL60605448,359-137-6156,675-915-7139,national.systems.inc@yahoo.com,8133 Washington St,Phoenix,AZ,15771,US,www.nationalsystemsinc.com,
187-13-4687,78-5109237,DL58103280,702-390-7636,209-874-1385,global.enterprises.ltd@hotmail.com,3561 Maple St,Phoenix,AZ,40545,US,www.globalenterprisesltd.com,
659-43-3860,30-4662803,DL30001926,460-490-2627,369-480-2264,national.tech.ltd@yahoo.com,9375 Cedar St,Houston,TX,86002,US,www.nationaltechltd.com,
187-59-7567,31-2006075,DL37953695,216-377-9604,582-638-4432,national.enterprises.inc@gmail.com,4849 Maple St,Chicago,IL,27150,US,www.nationalenterprisesinc.com,
742-61-8559,71-6783911,DL42656570,882-166-3711,836-729-4874,american.tech.corp@aol.com,2753 Washington St,Los Angeles,CA,37890,US,www.americantechcorp.com,
875-70-4729,52-8297360,DL29057127,325-978-5436,745-331-3541,national.systems.llc@aol.com,7391 Maple St,Los Angeles,CA,48491,US,www.nationalsystemsllc.com,
848-65-5753,85-4922772,DL43984211,496-998-3549,483-191-7604,national.enterprises.llc@outlook.com,3462 Maple St,Phoenix,AZ,11872,US,www.nationalenterprisesllc.com,
815-23-4200,63-2858156,DL53249156,597-223-7973,769-739-8704,global.tech.inc@yahoo.com,51 Elm St,Phoenix,AZ,40356,US,www.globaltechinc.com,
404-88-2946,71-6193507,DL63743378,609-377-7810,596-867-3329,american.systems.ltd@aol.com,389 Lincoln St,Chicago,IL,84377,US,www.americansystemsltd.com,
705-65-8073,53-6926208,DL74220991,503-832-2679,419-500-4709,national.systems.corp@outlook.com,9756 Jefferson St,Houston,TX,92298,US,www.nationalsystemscorp.com,
349-30-7541,49-2837477,DL22845187,257-399-6297,645-519-9653,american.services.ltd@aol.com,8827 Elm St,Houston,TX,33119,US,www.americanservicesltd.com,
786-30-8816,78-1171289,DL64050750,592-735-5711,798-839-8224,united.systems.corp@yahoo.com,439 Cedar St,Houston,TX,95604,US,www.unitedsystemscorp.com,
662-55-8769,21-5741115,DL64892150,856-782-1242,224-957-3868,american.enterprises.corp@hotmail.com,2742 Jefferson St,Los Angeles,CA,33108,US,www.americanenterprisescorp.com,
670-19-6035,20-3656754,DL14527634,272-697-9107,934-350-3134,international.services.llc@gmail.com,1671 Lincoln St,New York,NY,49905,US,www.internationalservicesllc.com,
937-33-3847,80-6600902,DL39487828,748-784-1063,817-190-2050,national.services.inc@yahoo.com,1248 Jefferson St,Chicago,IL,44410,US,www.nationalservicesinc.com,
649-50-9735,99-5344140,DL22893310,895-279-9483,567-304-4512,united.systems.corp@gmail.com,5648 Pine St,Phoenix,AZ,65982,US,www.unitedsystemscorp.com,
973-28-5114,72-9397998,DL98664885,857-652-1929,213-349-1360,international.tech.ltd@gmail.com,3961 Cedar St,Phoenix,AZ,95829,US,www.internationaltechltd.com,
290-83-4948,65-1584791,DL39545542,844-346-3982,535-810-4795,national.tech.corp@aol.com,7619 Pine St,Chicago,IL,47842,US,www.nationaltechcorp.com,
660-68-8548,46-7348956,DL49939017,647-665-1862,341-181-4405,american.enterprises.corp@hotmail.com,2313 Oak St,Los Angeles,CA,92633,US,www.americanenterprisescorp.com,
809-89-7741,41-3985815,DL87570500,474-623-5002,409-684-3854,international.enterprises.corp@gmail.com,8223 Pine St,Chicago,IL,84938,US,www.internationalenterprisescorp.com,
762-75-3315,18-9553235,DL77093613,241-104-6787,205-525-4775,international.solutions.corp@hotmail.com,4498 Maple St,Los Angeles,CA,79225,US,www.internationalsolutionscorp.com,
320-83-4265,70-8269095,DL29549854,793-948-4269,828-974-8758,american.enterprises.corp@yahoo.com,1459 Maple St,Houston,TX,80120,US,www.americanenterprisescorp.com,
274-96-6027,78-2958385,DL42246229,851-249-8733,603-798-3209,national.solutions.llc@yahoo.com,8108 Pine St,New York,NY,76670,US,www.nationalsolutionsllc.com,
399-59-4710,71-8733799,DL11393000,539-455-3987,846-884-6748,international.systems.llc@gmail.com,4290 Lincoln St,Phoenix,AZ,70805,US,www.internationalsystemsllc.com,
515-97-5594,11-9617571,DL81722080,908-920-3907,530-602-9080,national.solutions.corp@outlook.com,3829 Cedar St,Phoenix,AZ,32982,US,www.nationalsolutionscorp.com,
849-82-4244,64-2453361,DL50767283,217-579-5875,232-994-8401,global.tech.inc@yahoo.com,1084 Cedar St,Houston,TX,63337,US,www.globaltechinc.com,
698-22-8048,82-2263006,DL52000541,721-345-7953,831-370-2905,national.solutions.corp@hotmail.com,6279 Cedar St,Los Angeles,CA,40795,US,www.nationalsolutionscorp.com,
521-85-3645,74-2723159,DL92164322,731-549-7196,291-416-9605,united.enterprises.corp@outlook.com,5706 Main St,Phoenix,AZ,79723,US,www.unitedenterprisescorp.com,
190-52-2922,30-9311583,DL50382653,691-264-1216,592-663-4476,american.solutions.ltd@hotmail.com,2206 Maple St,Chicago,IL,49028,US,www.americansolutionsltd.com,
611-16-9333,54-7060162,DL17745786,779-761-1747,221-672-6250,american.enterprises.corp@yahoo.com,1822 Lincoln St,Phoenix,AZ,66646,US,www.americanenterprisescorp.com,
442-93-8977,88-9402330,DL61564667,292-505-3560,480-940-9190,international.systems.inc@hotmail.com,7304 Washington St,Phoenix,AZ,69264,US,www.internationalsystemsinc.com,
202-39-1008,65-6932788,DL65569808,981-448-9993,631-750-6642,national.systems.llc@outlook.com,146 Jefferson St,Phoenix,AZ,94862,US,www.nationalsystemsllc.com,
131-16-8082,55-1793303,DL36060906,238-351-3510,381-308-8324,global.solutions.inc@outlook.com,1187 Pine St,Phoenix,AZ,74637,US,www.globalsolutionsinc.com,
245-83-7193,95-6988295,DL92183362,601-694-9125,923-593-3673,united.solutions.corp@yahoo.com,3539 Main St,Chicago,IL,28795,US,www.unitedsolutionscorp.com,
473-37-7266,91-7927841,DL63675419,810-119-3764,367-748-5093,national.solutions.llc@gmail.com,3907 Washington St,Houston,TX,56184,US,www.nationalsolutionsllc.com,
337-58-6592,64-6343819,DL60155640,793-890-8092,923-546-9943,american.systems.ltd@outlook.com,6121 Cedar St,New York,NY,10559,US,www.americansystemsltd.com,
461-85-7803,64-2669192,DL32823650,468-922-3314,585-159-8341,global.systems.llc@yahoo.com,9192 Elm St,Chicago,IL,99952,US,www.globalsystemsllc.com,
796-47-4891,32-1805003,DL63640263,898-870-6879,861-371-9125,american.tech.inc@hotmail.com,3809 Lincoln St,Los Angeles,CA,32661,US,www.americantechinc.com,
116-50-9512,35-4291101,DL11493524,565-900-3542,745-610-4366,global.systems.corp@hotmail.com,8801 Maple St,Phoenix,AZ,29491,US,www.globalsystemscorp.com,
391-77-7806,71-7524522,DL65268211,976-400-6918,736-108-7751,american.enterprises.corp@outlook.com,6757 Washington St,Phoenix,AZ,67888,US,www.americanenterprisescorp.com,
846-61-3076,41-1190591,DL84162900,846-631-5989,892-962-3884,national.solutions.inc@yahoo.com,5603 Lincoln St,Chicago,IL,27287,US,www.nationalsolutionsinc.com,
363-99-9886,57-7571865,DL53612844,565-696-2299,460-924-2090,united.services.inc@yahoo.com,8988 Pine St,Chicago,IL,46569,US,www.unitedservicesinc.com,
160-15-4505,91-5481813,DL79173821,462-785-3389,917-162-4294,national.solutions.llc@aol.com,1095 Elm St,Chicago,IL,11638,US,www.nationalsolutionsllc.com,
610-54-8628,42-2376015,DL64394540,697-756-9721,905-384-6576,american.solutions.inc@yahoo.com,146 Maple St,Chicago,IL,41972,US,www.americansolutionsinc.com,
252-41-5314,39-7986637,DL67804086,283-537-5479,613-812-4820,global.enterprises.corp@aol.com,1408 Pine St,Los Angeles,CA,44838,US,www.globalenterprisescorp.com,
880-30-2603,90-1837148,DL39722118,321-667-1159,775-484-9247,american.systems.inc@gmail.com,3409 Jefferson St,Chicago,IL,18336,US,www.americansystemsinc.com,
556-14-2397,13-5531322,DL42983370,245-300-1788,236-472-3816,national.services.inc@gmail.com,4569 Maple St,New York,NY,96557,US,www.nationalservicesinc.com,
370-10-8744,44-1793599,DL46362798,420-614-8391,576-650-1257,united.systems.llc@gmail.com,442 Main St,Phoenix,AZ,64895,US,www.unitedsystemsllc.com,
961-82-6058,70-4960502,DL17001823,495-387-6521,346-194-9607,american.tech.corp@gmail.com,6728 Washington St,Phoenix,AZ,69132,US,www.americantechcorp.com,
944-12-4137,49-2795197,DL90411196,337-776-4005,507-837-9360,global.tech.corp@yahoo.com,7747 Pine St,Houston,TX,83255,US,www.globaltechcorp.com,
811-67-1740,38-9331836,DL51255608,445-149-7855,515-140-6144,global.systems.ltd@yahoo.com,1452 Jefferson St,Phoenix,AZ,26541,US,www.globalsystemsltd.com,
939-41-8500,28-9844832,DL28664457,899-700-2194,218-854-7767,united.solutions.ltd@outlook.com,7865 Maple St,Los Angeles,CA,94107,US,www.unitedsolutionsltd.com,
902-71-3784,23-3662378,DL45349285,335-649-6796,861-280-6362,global.services.ltd@yahoo.com,2463 Lincoln St,New York,NY,78849,US,www.globalservicesltd.com,
837-90-9261,74-9642590,DL12679723,276-293-1266,274-270-3736,national.tech.inc@outlook.com,7389 Jefferson St,Chicago,IL,68463,US,www.nationaltechinc.com,
874-23-6846,26-8734968,DL46031901,336-753-1026,784-636-7692,global.systems.corp@gmail.com,6248 Washington St,New York,NY,53029,US,www.globalsystemscorp.com,
141-31-1730,77-2404872,DL89786069,982-948-5936,731-114-7698,united.solutions.corp@hotmail.com,3358 Oak St,Los Angeles,CA,37114,US,www.unitedsolutionscorp.com,
329-31-4154,73-5222183,DL41321448,844-541-3186,927-131-5486,united.tech.corp@outlook.com,4153 Pine St,Los Angeles,CA,74085,US,www.unitedtechcorp.com,
112-12-5912,68-2726885,DL24689974,983-384-7923,355-420-4473,global.solutions.inc@outlook.com,5140 Maple St,Houston,TX,89231,US,www.globalsolutionsinc.com,
493-77-6052,58-4816976,DL24137241,773-968-6915,267-781-6860,american.solutions.ltd@yahoo.com,9534 Jefferson St,Houston,TX,62868,US,www.americansolutionsltd.com,
168-17-4123,44-4382740,DL12573887,291-954-3963,889-537-9442,american.tech.llc@aol.com,1507 Oak St,Los Angeles,CA,33430,US,www.americantechllc.com,
781-49-4877,43-6760795,DL58371610,752-790-3049,374-807-2924,global.enterprises.corp@gmail.com,9404 Pine St,Houston,TX,10245,US,www.globalenterprisescorp.com,
466-12-3021,73-2331402,DL58845928,571-774-7250,521-233-6670,global.solutions.inc@aol.com,6151 Oak St,Houston,TX,37138,US,www.globalsolutionsinc.com,
615-31-6420,37-1416318,DL73965754,627-225-4980,928-752-2398,global.tech.llc@hotmail.com,9020 Jefferson St,Los Angeles,CA,68189,US,www.globaltechllc.com,
455-54-4239,78-9370108,DL82954854,999-701-2720,250-178-1340,international.enterprises.llc@hotmail.com,9832 Elm St,Chicago,IL,54792,US,www.internationalenterprisesllc.com,
130-45-2109,28-4857593,DL82225994,468-765-3884,642-233-6692,united.systems.inc@aol.com,1014 Pine St,Chicago,IL,29992,US,www.unitedsystemsinc.com,
341-47-5235,33-9813839,DL60546792,625-772-2522,601-405-1344,global.services.llc@gmail.com,105 Cedar St,Phoenix,AZ,53215,US,www.globalservicesllc.com,
507-12-1287,63-1614186,DL70155202,512-868-8996,433-141-3020,united.enterprises.ltd@gmail.com,800 Washington St,Houston,TX,14029,US,www.unitedenterprisesltd.com,
646-21-6311,54-1693295,DL18054361,951-712-4098,984-314-4164,united.systems.ltd@outlook.com,7770 Washington St,Houston,TX,70669,US,www.unitedsystemsltd.com,
459-76-5196,39-4633378,DL70242205,310-702-9132,767-835-2080,national.enterprises.corp@yahoo.com,3176 Washington St,New York,NY,31686,US,www.nationalenterprisescorp.com,
691-90-5963,95-7263456,DL23151187,605-854-3306,339-324-2251,international.systems.ltd@hotmail.com,5892 Cedar St,Chicago,IL,99899,US,www.internationalsystemsltd.com,
216-13-1115,34-7341337,DL96055419,208-777-1377,728-987-3990,national.solutions.inc@yahoo.com,6901 Main St,Los Angeles,CA,50241,US,www.nationalsolutionsinc.com,
510-83-3066,76-1728023,DL87275268,507-973-7266,757-785-4545,american.solutions.corp@hotmail.com,9911 Pine St,Los Angeles,CA,90931,US,www.americansolutionscorp.com,
276-13-2056,17-8068222,DL73253012,759-364-5323,225-793-4153,united.enterprises.ltd@gmail.com,5848 Maple St,Chicago,IL,94999,US,www.unitedenterprisesltd.com,
975-71-7765,53-2585201,DL91830642,458-614-7641,223-560-8130,national.enterprises.inc@gmail.com,6326 Elm St,Phoenix,AZ,57083,US,www.nationalenterprisesinc.com,
616-20-2576,20-2756980,DL61803043,590-153-7076,892-669-4371,national.enterprises.inc@gmail.com,4403 Jefferson St,New York,NY,28440,US,www.nationalenterprisesinc.com,
268-96-8740,55-3205523,DL67234602,775-401-3800,913-567-6139,international.enterprises.corp@yahoo.com,6338 Lincoln St,Houston,TX,11464,US,www.internationalenterprisescorp.com,
263-43-6402,61-8021779,DL12943906,932-445-8854,892-293-5370,international.services.inc@gmail.com,5736 Oak St,New York,NY,16770,US,www.internationalservicesinc.com,
634-78-6091,28-6808568,DL32604939,366-118-7153,458-161-4676,global.solutions.llc@aol.com,9334 Lincoln St,Houston,TX,70465,US,www.globalsolutionsllc.com,
680-11-1969,79-2248265,DL29339424,908-474-7546,928-903-2554,american.tech.corp@gmail.com,7293 Main St,Los Angeles,CA,53260,US,www.americantechcorp.com,
891-62-3549,38-4330381,DL38209499,576-484-4007,750-490-1528,global.enterprises.corp@aol.com,8535 Main St,New York,NY,95953,US,www.globalenterprisescorp.com,
507-10-3427,83-9258104,DL76348038,317-456-2610,224-778-1491,global.services.ltd@aol.com,6525 Elm St,Houston,TX,59096,US,www.globalservicesltd.com,
159-81-5425,45-8387930,DL22138328,487-441-8622,670-755-8988,international.enterprises.ltd@outlook.com,6789 Cedar St,New York,NY,67177,US,www.internationalenterprisesltd.com,
551-40-5640,79-9751581,DL43197989,424-214-8666,943-679-4198,global.tech.corp@yahoo.com,6786 Elm St,Houston,TX,45817,US,www.globaltechcorp.com,
639-92-4336,60-4779113,DL99870252,895-626-3501,333-369-2073,american.solutions.ltd@hotmail.com,5578 Oak St,Houston,TX,86664,US,www.americansolutionsltd.com,
899-73-2611,74-5474749,DL98086848,738-249-4132,496-382-4020,national.systems.ltd@outlook.com,4995 Cedar St,Phoenix,AZ,86629,US,www.nationalsystemsltd.com,
980-68-6367,45-1737836,DL98294438,907-975-3549,956-755-9699,national.solutions.inc@gmail.com,7938 Washington St,Houston,TX,20879,US,www.nationalsolutionsinc.com,
617-82-3416,92-7428488,DL40516362,488-782-5892,980-309-8950,national.solutions.ltd@outlook.com,8437 Main St,Houston,TX,46253,US,www.nationalsolutionsltd.com,
531-92-7964,95-6531358,DL81480928,880-278-9575,841-815-5598,united.systems.llc@gmail.com,1088 Oak St,Houston,TX,43152,US,www.unitedsystemsllc.com,
479-82-9017,83-4719055,DL12423396,373-319-5267,996-147-2329,american.enterprises.inc@gmail.com,3140 Cedar St,New York,NY,84555,US,www.americanenterprisesinc.com,
757-50-6098,77-4449885,DL33507219,569-531-5570,449-822-8454,united.tech.corp@gmail.com,459 Maple St,Phoenix,AZ,50115,US,www.unitedtechcorp.com,
367-74-9742,13-7168301,DL80355438,213-883-4206,899-551-5735,united.systems.inc@outlook.com,2444 Pine St,Phoenix,AZ,26513,US,www.unitedsystemsinc.com,
117-71-7555,19-8405409,DL68661880,985-561-9846,459-244-8968,international.tech.ltd@aol.com,1106 Jefferson St,Chicago,IL,41267,US,www.internationaltechltd.com,
858-19-8213,71-8976352,DL72294627,474-612-1644,783-399-2013,united.solutions.inc@yahoo.com,5592 Oak St,Phoenix,AZ,35466,US,www.unitedsolutionsinc.com,
479-15-3248,97-8719371,DL82979480,325-927-8852,898-263-6097,american.services.corp@aol.com,4204 Pine St,Los Angeles,CA,89940,US,www.americanservicescorp.com,
955-74-8577,34-2773970,DL44564234,928-429-8871,363-723-4946,global.services.ltd@aol.com,6730 Cedar St,Chicago,IL,98135,US,www.globalservicesltd.com,
200-34-9583,63-6812078,DL20466516,583-512-7966,989-336-1164,global.enterprises.ltd@outlook.com,6889 Cedar St,Houston,TX,99356,US,www.globalenterprisesltd.com,
785-61-1288,55-2433993,DL48042795,354-947-3476,807-404-1872,united.services.inc@outlook.com,9 Cedar St,Los Angeles,CA,22057,US,www.unitedservicesinc.com,
834-64-4583,23-3642644,DL46953459,439-922-5404,467-354-5526,international.solutions.inc@yahoo.com,5056 Oak St,New York,NY,25264,US,www.internationalsolutionsinc.com,
604-50-2581,44-4889580,DL61968939,250-870-8834,566-281-3054,national.tech.inc@yahoo.com,6729 Jefferson St,Phoenix,AZ,21310,US,www.nationaltechinc.com,
294-14-1450,56-5655848,DL16746478,995-725-6169,394-637-8639,international.systems.corp@hotmail.com,5605 Pine St,New York,NY,61853,US,www.internationalsystemscorp.com,
639-44-5943,94-9822332,DL19969282,702-721-7713,462-659-8895,united.enterprises.corp@aol.com,8494 Pine St,Houston,TX,71438,US,www.unitedenterprisescorp.com,
157-19-8596,44-7134401,DL19809678,692-710-9910,629-169-6776,national.enterprises.inc@aol.com,4170 Elm St,New York,NY,12056,US,www.nationalenterprisesinc.com,
957-75-1599,72-2337639,DL53176219,565-773-6075,758-846-7162,international.enterprises.llc@aol.com,5140 Oak St,Phoenix,AZ,87415,US,www.internationalenterprisesllc.com,
616-98-8007,93-9074653,DL71088810,611-971-2956,565-349-4479,american.tech.inc@outlook.com,4110 Jefferson St,Los Angeles,CA,82353,US,www.americantechinc.com,
242-82-1361,63-4153005,DL25713140,314-215-2194,766-843-4594,united.tech.corp@hotmail.com,8505 Oak St,Chicago,IL,58050,US,www.unitedtechcorp.com,
418-30-9588,29-4607924,DL21435840,647-860-1210,617-156-6190,international.enterprises.ltd@yahoo.com,7478 Cedar St,Chicago,IL,70510,US,www.internationalenterprisesltd.com,
771-67-4218,35-5023429,DL85215494,522-119-3120,735-591-9508,national.tech.llc@gmail.com,7608 Jefferson St,New York,NY,42910,US,www.nationaltechllc.com,
431-93-4982,26-2216814,DL26831281,881-152-4332,760-448-7694,international.services.inc@hotmail.com,5908 Jefferson St,Los Angeles,CA,79148,US,www.internationalservicesinc.com,
287-12-9454,40-3917999,DL87606965,555-631-1668,639-454-9292,united.solutions.llc@gmail.com,41 Maple St,New York,NY,10570,US,www.unitedsolutionsllc.com,
269-27-4237,64-9216308,DL86485764,850-662-2127,253-269-7854,international.enterprises.llc@outlook.com,5556 Jefferson St,New York,NY,16406,US,www.internationalenterprisesllc.com,
911-28-1918,23-4930895,DL56980960,524-760-7268,642-947-5116,american.systems.ltd@yahoo.com,7903 Elm St,Phoenix,AZ,42120,US,www.americansystemsltd.com,
172-50-8632,78-6172667,DL25894096,355-472-8583,311-923-2800,global.services.llc@hotmail.com,480 Jefferson St,Los Angeles,CA,44993,US,www.globalservicesllc.com,
933-75-8557,18-2472413,DL46909265,869-106-3240,885-870-8810,global.tech.llc@aol.com,1610 Washington St,Chicago,IL,42950,US,www.globaltechllc.com,
243-34-4619,89-2411687,DL89721565,391-253-2114,379-227-1149,american.systems.corp@gmail.com,5669 Cedar St,New York,NY,20609,US,www.americansystemscorp.com,
301-94-1384,19-9217084,DL20130742,222-231-8252,538-419-9780,international.tech.ltd@gmail.com,465 Main St,Los Angeles,CA,46120,US,www.internationaltechltd.com,
340-64-2319,42-2933182,DL74516948,959-706-4499,218-129-5080,united.tech.corp@aol.com,4341 Oak St,Los Angeles,CA,35903,US,www.unitedtechcorp.com,
573-94-6809,80-4095436,DL83199483,448-799-6366,848-961-7678,global.systems.ltd@yahoo.com,5437 Washington St,Phoenix,AZ,52306,US,www.globalsystemsltd.com,
596-79-8002,76-7294511,DL72648720,739-496-2556,581-168-5269,global.services.ltd@gmail.com,4889 Cedar St,Phoenix,AZ,38856,US,www.globalservicesltd.com,
662-37-9575,76-5041179,DL35194110,335-606-5043,410-792-4071,national.tech.ltd@outlook.com,5429 Oak St,New York,NY,22060,US,www.nationaltechltd.com,
502-94-9690,85-4710210,DL72938024,366-526-8866,337-312-7247,united.solutions.inc@yahoo.com,5703 Jefferson St,Los Angeles,CA,26160,US,www.unitedsolutionsinc.com,
302-70-5539,14-3638437,DL84233477,872-339-9054,535-305-1036,american.services.inc@outlook.com,3644 Lincoln St,Phoenix,AZ,43305,US,www.americanservicesinc.com,
583-18-3635,98-5970450,DL10181379,394-277-8822,371-838-5083,american.tech.llc@gmail.com,1514 Lincoln St,Houston,TX,10579,US,www.americantechllc.com,
811-37-9530,66-4728620,DL15332394,298-112-6979,834-266-7104,national.enterprises.corp@aol.com,6296 Cedar St,Phoenix,AZ,22348,US,www.nationalenterprisescorp.com,
737-53-6596,32-2285558,DL76597844,459-211-6643,813-213-9821,american.services.corp@gmail.com,3465 Elm St,New York,NY,70069,US,www.americanservicescorp.com,
516-59-3079,16-3187248,DL13588384,641-626-9371,837-906-5919,american.services.ltd@yahoo.com,3947 Main St,Los Angeles,CA,58250,US,www.americanservicesltd.com,
227-37-2077,82-7666086,DL17933352,919-727-6547,726-312-7045,national.tech.ltd@hotmail.com,3397 Main St,New York,NY,94938,US,www.nationaltechltd.com,
568-38-2137,95-8974183,DL11455032,674-657-8597,391-364-5993,global.solutions.inc@hotmail.com,8121 Cedar St,New York,NY,38932,US,www.globalsolutionsinc.com,
453-74-6863,59-3889144,DL37357906,431-181-1941,761-642-3933,united.enterprises.inc@outlook.com,766 Oak St,New York,NY,62468,US,www.unitedenterprisesinc.com,
220-42-6151,70-6032009,DL76491393,411-308-3357,200-896-5117,american.solutions.ltd@hotmail.com,3468 Main St,Chicago,IL,11189,US,www.americansolutionsltd.com,
641-89-6876,59-2061616,DL42700860,835-818-8691,351-443-7744,international.solutions.inc@gmail.com,7672 Lincoln St,Phoenix,AZ,46663,US,www.internationalsolutionsinc.com,
558-17-2516,59-6856979,DL52697934,352-740-6032,222-437-9744,united.systems.inc@aol.com,980 Washington St,Houston,TX,33174,US,www.unitedsystemsinc.com,
281-29-4871,83-9821493,DL49783859,283-426-8525,818-421-1048,united.solutions.llc@outlook.com,2420 Lincoln St,Los Angeles,CA,83391,US,www.unitedsolutionsllc.com,
877-44-9292,17-9456695,DL57177413,600-803-4023,833-366-1716,american.solutions.ltd@gmail.com,3582 Washington St,New York,NY,93773,US,www.americansolutionsltd.com,
315-49-4135,18-5034825,DL11223611,398-785-7319,957-946-9662,global.services.corp@yahoo.com,9618 Oak St,Houston,TX,16261,US,www.globalservicescorp.com,
394-39-7260,25-2399932,DL24403801,321-444-1538,226-840-2430,international.services.corp@gmail.com,427 Main St,Houston,TX,86312,US,www.internationalservicescorp.com,
184-21-9323,92-8460509,DL25746637,918-691-5294,317-772-1555,american.services.inc@aol.com,7833 Pine St,Houston,TX,59283,US,www.americanservicesinc.com,
290-55-9435,39-7742471,DL77150859,385-816-3592,938-581-3177,global.solutions.ltd@aol.com,672 Main St,Chicago,IL,43113,US,www.globalsolutionsltd.com,
152-37-9669,92-5837358,DL68171143,906-774-2244,664-651-5916,united.services.inc@hotmail.com,4315 Oak St,Chicago,IL,26819,US,www.unitedservicesinc.com,
105-34-9890,19-8337082,DL73401683,710-580-1269,760-365-1467,international.services.llc@gmail.com,9989 Elm St,Los Angeles,CA,83401,US,www.internationalservicesllc.com,
900-64-3688,18-3308682,DL97375164,948-180-8514,843-562-6697,national.enterprises.corp@hotmail.com,2726 Jefferson St,Chicago,IL,50165,US,www.nationalenterprisescorp.com,
141-11-2481,45-9439590,DL20773997,295-241-5902,933-306-3725,global.systems.inc@aol.com,2578 Pine St,Chicago,IL,75568,US,www.globalsystemsinc.com,
273-85-6783,75-9270358,DL60980347,251-508-6040,341-719-9430,national.enterprises.inc@hotmail.com,2346 Main St,New York,NY,59365,US,www.nationalenterprisesinc.com,
474-78-9452,58-4311356,DL91251355,943-249-6870,635-591-6104,american.systems.inc@aol.com,6914 Cedar St,Phoenix,AZ,35529,US,www.americansystemsinc.com,
656-12-2551,34-5611527,DL15236331,937-381-6626,716-198-6661,international.enterprises.ltd@aol.com,7142 Lincoln St,New York,NY,92543,US,www.internationalenterprisesltd.com,
917-11-1140,30-8679141,DL32940829,466-319-3229,628-874-5406,international.solutions.inc@yahoo.com,4273 Main St,Los Angeles,CA,48626,US,www.internationalsolutionsinc.com,
806-90-7252,30-7792847,DL29143691,439-128-2400,478-479-7709,united.tech.llc@aol.com,7468 Lincoln St,Phoenix,AZ,78873,US,www.unitedtechllc.com,
833-77-4655,94-9472314,DL85155209,498-196-4028,722-893-4782,united.enterprises.inc@outlook.com,398 Cedar St,New York,NY,39173,US,www.unitedenterprisesinc.com,
630-44-2222,31-4936622,DL89131887,980-270-8597,449-707-2144,united.enterprises.llc@hotmail.com,7685 Lincoln St,Los Angeles,CA,73018,US,www.unitedenterprisesllc.com,
530-79-9562,30-4444058,DL50408393,851-557-7274,843-699-3144,united.enterprises.inc@hotmail.com,8783 Pine St,Los Angeles,CA,59629,US,www.unitedenterprisesinc.com,
607-64-6712,84-5330585,DL19362300,416-179-9435,409-265-1908,american.services.corp@gmail.com,3380 Cedar St,Chicago,IL,71436,US,www.americanservicescorp.com,
900-41-4655,84-1282532,DL49712908,617-822-9525,873-804-1883,international.services.inc@hotmail.com,572 Jefferson St,New York,NY,60408,US,www.internationalservicesinc.com,
346-89-4315,91-8239003,DL85966092,673-631-5465,436-150-6496,american.solutions.inc@hotmail.com,8286 Jefferson St,New York,NY,51007,US,www.americansolutionsinc.com,
154-94-2928,84-4413499,DL58933860,517-341-4842,791-856-6599,american.systems.inc@hotmail.com,9023 Elm St,Houston,TX,84144,US,www.americansystemsinc.com,
713-70-5813,75-8472988,DL89883478,475-298-7716,234-140-5096,national.systems.llc@hotmail.com,8944 Lincoln St,New York,NY,67362,US,www.nationalsystemsllc.com,
103-59-5657,32-6721869,DL70349378,934-142-1968,765-319-9630,global.tech.corp@aol.com,2092 Cedar St,Houston,TX,87603,US,www.globaltechcorp.com,
987-43-8664,17-7641693,DL76242149,236-180-9034,684-372-4282,united.services.corp@gmail.com,4479 Maple St,Phoenix,AZ,25141,US,www.unitedservicescorp.com,
760-16-4973,97-3486663,DL94901154,351-263-8379,914-478-7788,american.tech.inc@gmail.com,9524 Cedar St,Chicago,IL,53411,US,www.americantechinc.com,
954-64-1914,78-2876106,DL45913818,226-302-6677,578-384-3379,united.tech.corp@yahoo.com,3501 Cedar St,Houston,TX,42014,US,www.unitedtechcorp.com,
501-90-1884,11-1925323,DL82874596,751-473-2174,482-336-4302,united.solutions.llc@gmail.com,6468 Lincoln St,New York,NY,60329,US,www.unitedsolutionsllc.com,
132-51-7628,22-7083066,DL19026413,203-666-1432,410-157-9574,american.enterprises.llc@aol.com,1040 Lincoln St,Los Angeles,CA,55265,US,www.americanenterprisesllc.com,
934-83-4096,87-7589640,DL31229764,776-977-6866,985-974-8093,international.enterprises.llc@gmail.com,8842 Elm St,Phoenix,AZ,17415,US,www.internationalenterprisesllc.com,
269-68-2683,27-1446147,DL94030004,801-189-7327,464-549-2736,global.services.llc@hotmail.com,5065 Pine St,Houston,TX,83116,US,www.globalservicesllc.com,
987-14-4756,18-7647613,DL80272269,888-675-3482,950-662-1744,international.systems.corp@hotmail.com,6253 Lincoln St,Phoenix,AZ,21427,US,www.internationalsystemscorp.com,
462-37-4408,32-6007628,DL79783838,246-560-6275,723-564-8414,international.systems.ltd@gmail.com,6161 Cedar St,Houston,TX,99341,US,www.internationalsystemsltd.com,
837-93-9020,77-9073756,DL79483154,501-616-1606,229-871-4406,global.solutions.corp@aol.com,870 Maple St,Chicago,IL,35913,US,www.globalsolutionscorp.com,
393-18-2634,87-8921932,DL17635992,373-485-4443,372-333-8180,national.tech.llc@aol.com,9151 Main St,New York,NY,76949,US,www.nationaltechllc.com,
151-13-1758,38-7260430,DL41224085,208-679-4972,541-954-1419,global.services.ltd@gmail.com,2635 Lincoln St,Chicago,IL,40749,US,www.globalservicesltd.com,
487-32-5738,12-7423819,DL83309311,448-973-5785,671-428-7355,global.tech.inc@gmail.com,7422 Cedar St,New York,NY,38246,US,www.globaltechinc.com,
470-15-8685,93-7144397,DL58246264,361-259-9472,443-813-2443,international.enterprises.corp@yahoo.com,490 Maple St,Phoenix,AZ,74533,US,www.internationalenterprisescorp.com,
146-33-5109,81-7802786,DL85284445,240-608-8097,492-550-8327,international.solutions.llc@outlook.com,9978 Main St,New York,NY,78145,US,www.internationalsolutionsllc.com,
917-70-9259,72-7332287,DL49946176,943-633-7726,951-179-5897,american.systems.llc@aol.com,4093 Elm St,Los Angeles,CA,17071,US,www.americansystemsllc.com,
432-59-8182,93-6086743,DL89096629,861-451-8497,880-272-6988,united.tech.llc@aol.com,9972 Pine St,Chicago,IL,39642,US,www.unitedtechllc.com,
591-72-2660,43-7279517,DL60490312,210-823-5239,875-720-1238,international.enterprises.inc@outlook.com,1044 Elm St,Chicago,IL,49228,US,www.internationalenterprisesinc.com,
358-80-7878,69-6303868,DL31312202,921-375-3061,830-405-1222,united.tech.inc@gmail.com,9736 Main St,Chicago,IL,40453,US,www.unitedtechinc.com,
853-21-1512,27-4692056,DL18968118,998-490-1672,521-648-5081,global.enterprises.inc@outlook.com,3122 Elm St,Phoenix,AZ,86465,US,www.globalenterprisesinc.com,
565-52-8561,76-8715693,DL13408122,736-714-7496,911-522-6995,american.tech.inc@gmail.com,3880 Pine St,Phoenix,AZ,22935,US,www.americantechinc.com,
516-62-4473,95-7226806,DL41516737,648-591-2501,245-398-4856,global.systems.inc@gmail.com,9412 Elm St,Chicago,IL,75852,US,www.globalsystemsinc.com,
782-52-7433,96-9721081,DL84813959,943-325-8447,576-219-2995,global.systems.inc@yahoo.com,4048 Elm St,New York,NY,73719,US,www.globalsystemsinc.com,
798-18-5238,35-2048865,DL47896262,796-309-3595,230-303-8251,united.systems.inc@aol.com,3171 Washington St,Houston,TX,87922,US,www.unitedsystemsinc.com,
300-38-2461,96-5954565,DL54294141,795-647-9341,828-377-2394,american.solutions.corp@yahoo.com,6727 Main St,Houston,TX,99980,US,www.americansolutionscorp.com,
859-10-2282,94-8353569,DL61885327,604-395-1736,273-375-8883,national.services.ltd@gmail.com,7196 Jefferson St,Phoenix,AZ,83674,US,www.nationalservicesltd.com,
212-85-8086,15-2817704,DL30094551,269-618-1386,901-828-4110,international.enterprises.ltd@hotmail.com,2885 Oak St,Chicago,IL,23163,US,www.internationalenterprisesltd.com,
213-34-2682,45-9368345,DL90951990,568-785-6401,576-578-4897,american.solutions.llc@outlook.com,6940 Maple St,Chicago,IL,29239,US,www.americansolutionsllc.com,
282-65-4464,52-7833886,DL65485370,936-234-5046,358-940-9445,global.tech.inc@yahoo.com,8030 Maple St,Los Angeles,CA,34915,US,www.globaltechinc.com,
856-14-1396,56-1592196,DL33779479,698-607-3570,997-755-5778,united.enterprises.corp@gmail.com,7552 Washington St,Phoenix,AZ,75330,US,www.unitedenterprisescorp.com,
730-93-5905,47-5749121,DL60468063,341-704-9112,227-307-7900,global.enterprises.llc@hotmail.com,9445 Main St,Phoenix,AZ,91419,US,www.globalenterprisesllc.com,
461-51-2537,18-6904045,DL24522489,747-261-1717,554-211-7457,national.services.corp@outlook.com,4939 Main St,Houston,TX,32102,US,www.nationalservicescorp.com,
627-33-6505,17-6787840,DL49140068,488-136-8472,711-294-8562,american.tech.corp@hotmail.com,1607 Oak St,Chicago,IL,77587,US,www.americantechcorp.com,
273-42-1935,41-2294548,DL44904407,258-796-8732,200-684-8862,international.services.inc@aol.com,4605 Elm St,Houston,TX,19938,US,www.internationalservicesinc.com,
791-22-3035,59-3852099,DL36257829,713-192-8960,539-976-9040,national.services.ltd@yahoo.com,4393 Maple St,Houston,TX,54394,US,www.nationalservicesltd.com,
679-52-3448,71-7769000,DL69436372,281-996-1432,923-214-6767,international.solutions.ltd@outlook.com,4184 Oak St,Phoenix,AZ,74740,US,www.internationalsolutionsltd.com,
267-68-3512,54-6833133,DL27469326,428-556-9697,559-404-8891,global.services.llc@yahoo.com,8401 Washington St,New York,NY,92424,US,www.globalservicesllc.com,
449-27-6716,69-6113074,DL99406086,407-690-6610,587-847-9322,national.enterprises.ltd@yahoo.com,9902 Elm St,Los Angeles,CA,33112,US,www.nationalenterprisesltd.com,
712-68-8227,86-1726210,DL29583152,235-468-1564,684-347-4601,national.solutions.corp@aol.com,622 Oak St,Phoenix,AZ,15846,US,www.nationalsolutionscorp.com,
370-53-7825,68-6321355,DL55563009,721-818-2466,569-100-8269,american.tech.inc@hotmail.com,5201 Oak St,Los Angeles,CA,86945,US,www.americantechinc.com,
669-36-6829,56-9806828,DL69704332,883-252-1201,564-825-8903,global.tech.corp@hotmail.com,6121 Oak St,Houston,TX,32381,US,www.globaltechcorp.com,
989-27-8649,74-2920949,DL95200420,620-461-1717,445-524-9848,united.tech.ltd@hotmail.com,9825 Elm St,Phoenix,AZ,53342,US,www.unitedtechltd.com,
740-21-9389,32-5469656,DL66657841,303-165-2368,899-662-5987,global.tech.corp@aol.com,7971 Pine St,New York,NY,89438,US,www.globaltechcorp.com,
689-50-5129,73-3713964,DL98726064,967-339-9857,845-431-1163,united.enterprises.llc@gmail.com,2545 Elm St,Chicago,IL,46346,US,www.unitedenterprisesllc.com,
369-27-1514,73-3213713,DL83971034,484-531-1311,820-365-4417,united.services.inc@aol.com,2733 Jefferson St,Los Angeles,CA,94616,US,www.unitedservicesinc.com,
792-65-9305,28-7204988,DL78148862,435-380-1549,504-460-4966,global.services.ltd@outlook.com,3767 Oak St,Chicago,IL,40354,US,www.globalservicesltd.com,
549-64-7373,10-9356868,DL66867324,912-612-1257,286-726-3963,national.services.ltd@aol.com,1782 Jefferson St,Los Angeles,CA,24442,US,www.nationalservicesltd.com,
816-89-5525,90-6134461,DL47512383,597-382-4502,725-560-7319,american.solutions.llc@aol.com,5533 Pine St,Chicago,IL,88609,US,www.americansolutionsllc.com,
747-72-1278,37-8842197,DL41391100,761-505-6694,797-885-8028,national.tech.inc@aol.com,4322 Main St,Chicago,IL,85462,US,www.nationaltechinc.com,
663-19-8022,98-9803623,DL61128538,438-140-7584,659-224-9214,international.systems.llc@aol.com,2866 Elm St,New York,NY,17564,US,www.internationalsystemsllc.com,
473-95-7902,94-1981386,DL55930617,219-648-7188,796-779-1403,american.enterprises.corp@outlook.com,7927 Cedar St,Houston,TX,20464,US,www.americanenterprisescorp.com,
182-12-9185,17-3180847,DL10882056,926-304-2288,960-914-8559,global.tech.llc@gmail.com,884 Main St,Phoenix,AZ,32740,US,www.globaltechllc.com,
741-74-3165,69-6004647,DL48166906,392-406-4263,415-902-9475,global.solutions.llc@gmail.com,2167 Elm St,New York,NY,55085,US,www.globalsolutionsllc.com,
260-16-1469,62-7833951,DL11905970,561-559-5244,633-294-6515,american.tech.llc@gmail.com,9269 Elm St,Los Angeles,CA,42517,US,www.americantechllc.com,
761-68-2746,82-7657549,DL76957146,749-788-4197,311-566-1217,united.enterprises.corp@hotmail.com,7573 Washington St,Chicago,IL,81160,US,www.unitedenterprisescorp.com,
531-37-6445,58-4696247,DL50045272,510-276-1507,813-854-1012,national.enterprises.ltd@yahoo.com,3656 Pine St,Phoenix,AZ,86389,US,www.nationalenterprisesltd.com,
156-62-7645,64-5148378,DL90293522,807-271-1723,744-536-5748,international.solutions.corp@yahoo.com,533 Pine St,New York,NY,80781,US,www.internationalsolutionscorp.com,
481-45-7801,51-8352323,DL10952451,640-184-2810,663-506-5593,united.services.inc@gmail.com,6661 Lincoln St,New York,NY,61562,US,www.unitedservicesinc.com,
853-15-3744,84-7028277,DL94416140,511-849-9076,282-162-3746,american.systems.llc@hotmail.com,8414 Lincoln St,New York,NY,41773,US,www.americansystemsllc.com,
893-52-3309,14-7007756,DL50338166,555-716-9159,693-229-4668,american.solutions.inc@hotmail.com,3419 Lincoln St,New York,NY,20066,US,www.americansolutionsinc.com,
815-96-7468,28-9619955,DL42745238,405-260-7683,481-232-8040,national.solutions.ltd@aol.com,7371 Jefferson St,Los Angeles,CA,71533,US,www.nationalsolutionsltd.com,
589-90-2497,86-5081771,DL47854706,266-369-7647,993-113-1178,global.solutions.ltd@aol.com,6282 Cedar St,Phoenix,AZ,16324,US,www.globalsolutionsltd.com,
275-97-6952,40-8757651,DL18022482,429-661-7079,551-643-2350,global.enterprises.llc@aol.com,4136 Pine St,New York,NY,24677,US,www.globalenterprisesllc.com,
186-48-3059,27-8247296,DL46219573,450-172-2849,885-145-3407,american.tech.inc@hotmail.com,5324 Pine St,Houston,TX,43242,US,www.americantechinc.com,
767-46-1682,95-8337397,DL48775807,370-640-1274,855-354-2975,global.enterprises.inc@outlook.com,766 Cedar St,Phoenix,AZ,93175,US,www.globalenterprisesinc.com,
175-54-4410,51-8292623,DL77247876,296-225-8740,733-286-9214,international.solutions.inc@aol.com,3511 Maple St,New York,NY,75947,US,www.internationalsolutionsinc.com,
889-59-9177,71-9308195,DL39345966,720-803-4708,444-991-6233,global.tech.inc@yahoo.com,4701 Washington St,Los Angeles,CA,20731,US,www.globaltechinc.com,
690-39-7300,31-7356137,DL47711463,991-913-3278,890-889-7182,united.solutions.inc@hotmail.com,5310 Elm St,Los Angeles,CA,37806,US,www.unitedsolutionsinc.com,
187-72-9439,79-8026627,DL72148969,536-253-1759,977-685-1268,united.systems.ltd@outlook.com,8314 Washington St,Houston,TX,92385,US,www.unitedsystemsltd.com,
823-56-7003,49-2426184,DL81777854,512-740-8056,780-949-8294,national.services.inc@yahoo.com,7711 Elm St,Los Angeles,CA,38246,US,www.nationalservicesinc.com,
362-51-1139,42-1372179,DL71912644,252-952-7251,268-571-2547,united.systems.corp@yahoo.com,7305 Cedar St,Chicago,IL,61489,US,www.unitedsystemscorp.com,
332-21-4628,51-1167713,DL70702449,406-126-6499,559-333-3858,american.solutions.corp@gmail.com,9582 Pine St,Houston,TX,88063,US,www.americansolutionscorp.com,
443-53-3866,65-7209711,DL36052233,938-123-7022,251-239-9766,american.services.ltd@gmail.com,6634 Pine St,New York,NY,35517,US,www.americanservicesltd.com,
128-44-5860,53-6615826,DL97397764,552-984-3751,279-639-3328,united.enterprises.llc@aol.com,9292 Pine St,Chicago,IL,89408,US,www.unitedenterprisesllc.com,
106-97-2920,67-7589853,DL91816712,381-306-1395,408-323-8800,international.systems.ltd@yahoo.com,3010 Main St,Los Angeles,CA,91673,US,www.internationalsystemsltd.com,
574-25-4009,54-4281590,DL38788371,997-487-1030,964-178-6607,national.solutions.ltd@gmail.com,1707 Cedar St,Houston,TX,64623,US,www.nationalsolutionsltd.com,
760-20-6955,55-5064378,DL89025368,803-289-8783,541-444-1266,national.enterprises.corp@gmail.com,9076 Cedar St,New York,NY,93030,US,www.nationalenterprisescorp.com,
415-16-4704,60-8498495,DL33148102,933-707-4351,349-896-3370,global.tech.inc@gmail.com,5264 Washington St,Chicago,IL,85072,US,www.globaltechinc.com,
884-76-3690,82-6796376,DL12700719,632-246-9526,657-849-6055,american.solutions.ltd@hotmail.com,4316 Washington St,Houston,TX,60074,US,www.americansolutionsltd.com,
748-31-1121,35-8090558,DL83755811,561-589-8596,539-334-3491,global.solutions.ltd@hotmail.com,1846 Maple St,Houston,TX,32067,US,www.globalsolutionsltd.com,
860-39-5250,78-5626513,DL31265572,314-164-7681,334-739-2120,national.systems.ltd@yahoo.com,9003 Cedar St,New York,NY,61991,US,www.nationalsystemsltd.com,
600-45-6221,26-6483433,DL81988962,488-221-7566,238-208-1224,international.services.inc@aol.com,9173 Pine St,Houston,TX,29010,US,www.internationalservicesinc.com,
804-60-8307,31-7807089,DL57138107,848-891-6549,737-648-7079,united.tech.inc@hotmail.com,8712 Lincoln St,Houston,TX,71413,US,www.unitedtechinc.com,
609-18-1796,58-1090455,DL25858586,705-519-9413,773-122-2664,global.solutions.llc@aol.com,7408 Jefferson St,Houston,TX,25846,US,www.globalsolutionsllc.com,
446-98-5441,87-4023433,DL91768478,401-549-7137,555-163-2680,united.tech.llc@outlook.com,6687 Main St,Phoenix,AZ,19217,US,www.unitedtechllc.com,
103-95-4088,74-6280713,DL38494420,439-374-5456,423-837-3737,united.enterprises.llc@hotmail.com,9768 Main St,New York,NY,16558,US,www.unitedenterprisesllc.com,
724-92-1071,75-6024790,DL64550818,533-737-1948,493-738-9974,american.tech.inc@gmail.com,3272 Pine St,Los Angeles,CA,35186,US,www.americantechinc.com,
914-33-7755,46-1241648,DL93626895,458-120-7775,463-921-5133,national.tech.corp@outlook.com,2081 Oak St,Phoenix,AZ,13775,US,www.nationaltechcorp.com,
797-19-9830,85-6114002,DL70872940,671-582-8181,641-801-9862,united.systems.llc@gmail.com,6824 Cedar St,New York,NY,78855,US,www.unitedsystemsllc.com,
643-66-5715,67-4748390,DL27982937,527-838-6385,554-744-3140,international.solutions.llc@gmail.com,9405 Jefferson St,Houston,TX,19786,US,www.internationalsolutionsllc.com,
723-33-5340,38-5114648,DL20141975,615-327-3479,702-505-6511,international.systems.ltd@aol.com,5628 Jefferson St,Chicago,IL,44016,US,www.internationalsystemsltd.com,
990-61-8277,27-5445563,DL49365446,299-300-1284,846-252-2859,national.tech.ltd@yahoo.com,9170 Cedar St,Los Angeles,CA,96140,US,www.nationaltechltd.com,
835-88-1926,66-3688525,DL45087243,468-519-5895,826-883-2437,united.services.ltd@yahoo.com,8565 Main St,Chicago,IL,80980,US,www.unitedservicesltd.com,
292-40-4039,93-5739072,DL78990903,219-806-6367,868-832-6474,national.services.corp@gmail.com,9323 Pine St,New York,NY,27366,US,www.nationalservicescorp.com,
185-14-6120,90-2295795,DL83206427,611-800-6492,708-400-5034,international.solutions.llc@gmail.com,5891 Lincoln St,Phoenix,AZ,84408,US,www.internationalsolutionsllc.com,
108-89-2802,10-5994868,DL90339081,532-323-4745,901-902-4468,global.solutions.corp@gmail.com,8805 Jefferson St,Chicago,IL,89992,US,www.globalsolutionscorp.com,
738-48-4421,61-7235349,DL42877286,770-415-8745,905-140-1626,united.services.ltd@outlook.com,2 Pine St,Los Angeles,CA,23525,US,www.unitedservicesltd.com,
689-13-8012,82-6331169,DL38140481,910-748-2319,755-998-2265,united.services.inc@outlook.com,4909 Jefferson St,Houston,TX,90925,US,www.unitedservicesinc.com,
152-56-8673,42-3293303,DL24707802,792-220-6706,515-177-6329,national.systems.ltd@outlook.com,910 Jefferson St,New York,NY,45457,US,www.nationalsystemsltd.com,
993-91-9215,74-7036672,DL72848491,495-343-3174,743-702-6466,united.solutions.corp@outlook.com,4830 Jefferson St,Houston,TX,48660,US,www.unitedsolutionscorp.com,
734-65-8172,93-9097591,DL82972509,971-388-9631,952-917-7127,global.solutions.inc@aol.com,7471 Elm St,Phoenix,AZ,95218,US,www.globalsolutionsinc.com,
873-74-8600,93-9112438,DL88050512,921-577-2840,709-913-4036,global.solutions.llc@yahoo.com,49 Elm St,Los Angeles,CA,54383,US,www.globalsolutionsllc.com,
103-65-3554,98-7718930,DL67481927,703-294-1635,588-114-1082,national.systems.llc@yahoo.com,422 Elm St,Phoenix,AZ,36760,US,www.nationalsystemsllc.com,
329-74-1143,95-8061621,DL30583014,355-557-3042,378-483-4335,global.systems.inc@gmail.com,3772 Maple St,Los Angeles,CA,53240,US,www.globalsystemsinc.com,
898-80-6716,32-4252393,DL69550905,469-925-3871,264-474-9360,international.solutions.ltd@gmail.com,1050 Jefferson St,New York,NY,51129,US,www.internationalsolutionsltd.com,
117-40-1132,80-7562579,DL87001971,615-950-2226,552-522-5525,american.enterprises.corp@yahoo.com,233 Elm St,Phoenix,AZ,46000,US,www.americanenterprisescorp.com,
897-19-5819,53-9517414,DL68765451,571-396-3304,328-885-7924,international.tech.ltd@yahoo.com,4178 Maple St,Phoenix,AZ,43945,US,www.internationaltechltd.com,
999-83-3735,32-2999271,DL60260640,839-136-9917,884-744-3830,united.enterprises.ltd@yahoo.com,3759 Maple St,Phoenix,AZ,84600,US,www.unitedenterprisesltd.com,
558-54-8108,66-7786054,DL81209193,863-198-5930,771-885-4886,global.solutions.llc@hotmail.com,1779 Oak St,Phoenix,AZ,98381,US,www.globalsolutionsllc.com,
843-74-6720,99-4214823,DL11451902,321-579-4629,317-906-2622,national.services.inc@hotmail.com,4761 Washington St,New York,NY,25611,US,www.nationalservicesinc.com,
892-50-5299,81-8766398,DL62175367,586-380-6359,639-580-2517,national.services.corp@hotmail.com,6842 Jefferson St,Los Angeles,CA,65215,US,www.nationalservicescorp.com,
855-67-2192,81-7967781,DL53257585,994-769-4525,975-116-7261,international.solutions.llc@outlook.com,7663 Jefferson St,Chicago,IL,63380,US,www.internationalsolutionsllc.com,
610-14-9975,72-3063935,DL57381918,850-449-4779,930-763-4370,international.solutions.ltd@outlook.com,4622 Oak St,Chicago,IL,89538,US,www.internationalsolutionsltd.com,
430-58-3970,70-4785089,DL95275417,932-975-9005,798-220-7227,united.enterprises.inc@outlook.com,2684 Pine St,Chicago,IL,86833,US,www.unitedenterprisesinc.com,
898-82-9816,49-3639136,DL46929288,533-155-7594,417-196-2344,american.tech.inc@yahoo.com,6981 Washington St,Phoenix,AZ,89724,US,www.americantechinc.com,
865-77-7124,18-2840557,DL25174489,330-498-5363,239-160-4055,united.services.inc@outlook.com,6969 Main St,Phoenix,AZ,24204,US,www.unitedservicesinc.com,
805-96-3842,10-1480394,DL76478075,503-440-6616,292-152-8766,national.systems.llc@hotmail.com,1642 Oak St,New York,NY,80514,US,www.nationalsystemsllc.com,
737-76-2656,17-6121307,DL21035979,956-461-8213,444-971-5385,national.solutions.ltd@yahoo.com,1135 Main St,Los Angeles,CA,18216,US,www.nationalsolutionsltd.com,
830-50-5758,24-4785844,DL30322015,613-184-2859,816-584-4539,international.solutions.inc@gmail.com,7887 Lincoln St,New York,NY,59803,US,www.internationalsolutionsinc.com,
719-73-1241,52-9026793,DL41240341,389-189-2712,778-451-2957,national.solutions.inc@gmail.com,5685 Jefferson St,Phoenix,AZ,72333,US,www.nationalsolutionsinc.com,
199-72-8362,61-2558540,DL14626665,428-325-2843,246-123-5986,united.services.llc@outlook.com,7169 Lincoln St,Chicago,IL,28260,US,www.unitedservicesllc.com,
791-52-7538,32-3677442,DL88685827,563-867-9215,849-143-6836,global.tech.ltd@yahoo.com,7748 Elm St,Phoenix,AZ,54349,US,www.globaltechltd.com,
349-32-8624,85-2729138,DL41467636,443-176-5145,837-250-9591,american.solutions.llc@yahoo.com,6417 Jefferson St,Los Angeles,CA,34841,US,www.americansolutionsllc.com,
535-13-2684,47-5774185,DL83155039,614-321-6129,393-188-9748,united.services.ltd@yahoo.com,507 Maple St,Los Angeles,CA,19728,US,www.unitedservicesltd.com,
305-24-3949,67-7263652,DL66886566,456-857-4187,256-535-7945,american.solutions.llc@yahoo.com,6598 Washington St,Los Angeles,CA,22739,US,www.americansolutionsllc.com,
208-97-3822,92-1565672,DL28229780,361-365-3132,388-839-3592,national.services.ltd@yahoo.com,6743 Pine St,New York,NY,70276,US,www.nationalservicesltd.com,
921-89-8204,43-7974122,DL56219467,760-781-1561,466-836-3777,global.systems.llc@aol.com,7639 Lincoln St,Los Angeles,CA,11000,US,www.globalsystemsllc.com,
601-35-5316,65-6418574,DL20599270,308-109-7899,877-644-9559,national.enterprises.corp@hotmail.com,3680 Jefferson St,Phoenix,AZ,58604,US,www.nationalenterprisescorp.com,
473-12-7474,42-9890254,DL48997588,672-649-1064,568-915-8383,united.enterprises.inc@aol.com,807 Elm St,Phoenix,AZ,80506,US,www.unitedenterprisesinc.com,
608-59-9016,67-9236801,DL11218248,905-587-9112,208-875-9169,international.solutions.llc@yahoo.com,8385 Elm St,Los Angeles,CA,36984,US,www.internationalsolutionsllc.com,
999-38-7241,38-3814671,DL95409056,842-107-4765,252-482-6426,american.systems.llc@gmail.com,8815 Main St,Houston,TX,61898,US,www.americansystemsllc.com,
275-17-7886,63-4181674,DL24131287,972-417-9344,705-534-5189,american.systems.inc@hotmail.com,9310 Lincoln St,Los Angeles,CA,94428,US,www.americansystemsinc.com,
901-10-1181,27-4874814,DL42792997,273-412-7373,923-219-6773,united.services.ltd@outlook.com,345 Elm St,Houston,TX,76609,US,www.unitedservicesltd.com,
614-83-3487,74-8198278,DL99105492,594-944-5475,862-228-2900,international.solutions.llc@gmail.com,2719 Pine St,New York,NY,11495,US,www.internationalsolutionsllc.com,
874-41-2288,36-4747602,DL26201830,734-441-2139,258-782-3260,international.systems.corp@hotmail.com,7989 Main St,New York,NY,42209,US,www.internationalsystemscorp.com,
895-34-7170,94-9451600,DL38179390,903-725-6074,808-625-3126,national.services.inc@outlook.com,6144 Main St,Chicago,IL,54539,US,www.nationalservicesinc.com,
293-72-6716,79-4189717,DL44317909,710-966-4260,774-841-5401,united.enterprises.llc@aol.com,1313 Washington St,Phoenix,AZ,71476,US,www.unitedenterprisesllc.com,
465-38-3511,90-8931380,DL44874578,894-648-1244,998-743-9882,american.enterprises.inc@yahoo.com,7316 Maple St,Los Angeles,CA,33920,US,www.americanenterprisesinc.com,
185-21-5257,65-4966235,DL64409410,467-790-7343,890-995-8601,united.enterprises.ltd@aol.com,2148 Main St,New York,NY,42558,US,www.unitedenterprisesltd.com,
175-56-2256,58-9709963,DL75129533,399-121-3647,516-192-4970,american.tech.corp@hotmail.com,7145 Cedar St,Houston,TX,13722,US,www.americantechcorp.com,
159-36-9747,82-4862317,DL23209941,477-940-2349,592-390-7366,american.solutions.ltd@gmail.com,1919 Maple St,Houston,TX,21693,US,www.americansolutionsltd.com,
206-89-8728,49-5433725,DL16363097,613-742-4118,833-631-1720,global.services.llc@hotmail.com,7100 Elm St,New York,NY,24618,US,www.globalservicesllc.com,
351-54-1121,50-8341919,DL36268651,484-232-1052,696-479-5325,american.solutions.inc@aol.com,6639 Elm St,New York,NY,35648,US,www.americansolutionsinc.com,
755-28-6410,97-6110048,DL63679215,984-742-5697,361-296-6676,united.tech.inc@aol.com,441 Lincoln St,Phoenix,AZ,16229,US,www.unitedtechinc.com,
209-36-5435,41-1210094,DL19538680,866-776-3497,230-371-5992,global.services.ltd@gmail.com,3355 Oak St,Houston,TX,10281,US,www.globalservicesltd.com,
799-15-8607,82-2208729,DL96220193,263-241-9511,454-992-8242,global.solutions.inc@yahoo.com,4627 Main St,Los Angeles,CA,57625,US,www.globalsolutionsinc.com,
931-12-2215,57-7958488,DL40347229,480-398-4159,917-961-9553,united.enterprises.llc@outlook.com,3214 Lincoln St,New York,NY,17406,US,www.unitedenterprisesllc.com,
466-21-8558,58-8690555,DL96306924,535-950-1681,644-587-2985,international.enterprises.ltd@outlook.com,1579 Oak St,Houston,TX,67497,US,www.internationalenterprisesltd.com,
249-29-5852,61-3681262,DL13518822,472-468-4519,776-824-1394,national.enterprises.corp@outlook.com,5109 Elm St,Los Angeles,CA,17086,US,www.nationalenterprisescorp.com,
448-83-2148,77-1305543,DL51629359,849-659-1132,910-283-7757,national.systems.llc@hotmail.com,2335 Oak St,Houston,TX,46918,US,www.nationalsystemsllc.com,
607-31-7445,31-4834528,DL62610727,612-423-5794,911-952-3024,international.solutions.corp@gmail.com,6556 Cedar St,Phoenix,AZ,84089,US,www.internationalsolutionscorp.com,
958-22-7750,56-5567677,DL18160062,998-605-1863,373-431-5431,national.enterprises.ltd@aol.com,8961 Pine St,Phoenix,AZ,86869,US,www.nationalenterprisesltd.com,
270-21-7271,41-4801000,DL24511193,668-271-2042,944-664-4631,american.services.ltd@yahoo.com,2817 Jefferson St,Chicago,IL,98574,US,www.americanservicesltd.com,
352-41-2034,73-8831177,DL59845927,963-164-3988,962-743-2971,global.tech.ltd@outlook.com,5219 Main St,Chicago,IL,10149,US,www.globaltechltd.com,
190-89-4522,32-4134768,DL94504863,306-532-5336,859-378-6688,international.systems.inc@outlook.com,1445 Elm St,Houston,TX,32132,US,www.internationalsystemsinc.com,
325-76-1349,70-6268442,DL51891596,906-775-7694,220-101-2763,national.tech.ltd@gmail.com,3585 Maple St,Phoenix,AZ,89489,US,www.nationaltechltd.com,
248-57-4363,12-8706736,DL37995578,502-981-6116,899-276-3202,global.systems.llc@gmail.com,5587 Main St,Phoenix,AZ,65039,US,www.globalsystemsllc.com,
657-33-3786,52-9067268,DL63452767,559-589-8700,370-620-1384,united.solutions.inc@outlook.com,7778 Lincoln St,Houston,TX,14708,US,www.unitedsolutionsinc.com,
523-30-8744,20-8684087,DL69853009,672-714-7947,853-726-7320,united.tech.inc@outlook.com,1087 Lincoln St,Los Angeles,CA,39902,US,www.unitedtechinc.com,
206-53-5221,85-2881854,DL79991610,544-906-3662,795-355-6816,international.systems.ltd@yahoo.com,6429 Washington St,New York,NY,58575,US,www.internationalsystemsltd.com,
295-70-9966,85-8578383,DL10845920,843-623-1515,397-147-8553,international.systems.corp@gmail.com,8407 Main St,New York,NY,11153,US,www.internationalsystemscorp.com,
467-81-9929,11-7069002,DL21177398,528-561-7342,478-806-8790,national.tech.corp@aol.com,4408 Cedar St,Houston,TX,53908,US,www.nationaltechcorp.com,
476-74-7101,84-7742187,DL91143306,777-712-9629,884-719-1430,international.solutions.corp@aol.com,6502 Oak St,Chicago,IL,68990,US,www.internationalsolutionscorp.com,
152-29-2042,24-4123876,DL24013048,425-331-6715,332-902-3135,american.tech.ltd@yahoo.com,7790 Pine St,Houston,TX,85851,US,www.americantechltd.com,
333-31-4972,69-9981594,DL91278958,242-374-6258,565-674-3051,american.solutions.inc@yahoo.com,9909 Main St,Houston,TX,44295,US,www.americansolutionsinc.com,
152-27-2922,36-1169426,DL35759648,707-166-7865,753-575-2037,global.tech.llc@gmail.com,7068 Jefferson St,Phoenix,AZ,45519,US,www.globaltechllc.com,
282-22-8114,50-3213157,DL55290610,345-958-7253,463-444-1085,international.tech.corp@hotmail.com,1104 Washington St,Houston,TX,51620,US,www.internationaltechcorp.com,
818-12-3607,92-9307805,DL40022737,576-807-3886,937-438-5187,global.systems.ltd@hotmail.com,5360 Maple St,Phoenix,AZ,61708,US,www.globalsystemsltd.com,
257-23-1423,57-8730008,DL36078797,977-157-2749,251-641-8689,american.tech.inc@hotmail.com,2170 Lincoln St,Houston,TX,20688,US,www.americantechinc.com,
612-78-6809,59-7894398,DL16737751,943-272-1271,320-372-1214,american.solutions.llc@yahoo.com,5781 Elm St,Los Angeles,CA,62610,US,www.americansolutionsllc.com,
551-88-8193,17-4466453,DL63489260,663-567-8926,848-863-2871,international.tech.ltd@aol.com,9559 Cedar St,Phoenix,AZ,54008,US,www.internationaltechltd.com,
513-47-2053,72-8572805,DL30077394,663-766-7199,983-331-2389,united.solutions.llc@gmail.com,7921 Lincoln St,Phoenix,AZ,64234,US,www.unitedsolutionsllc.com,
725-30-8083,78-3774238,DL24963128,890-990-2297,979-570-4922,american.services.ltd@aol.com,4616 Jefferson St,Chicago,IL,60285,US,www.americanservicesltd.com,
192-76-1402,72-5805619,DL20943741,459-913-9567,848-612-8138,national.tech.ltd@yahoo.com,2757 Jefferson St,Houston,TX,55807,US,www.nationaltechltd.com,
566-16-4540,48-1843055,DL42440786,275-621-3052,615-232-7902,global.solutions.corp@aol.com,7324 Lincoln St,Houston,TX,46965,US,www.globalsolutionscorp.com,
251-57-3297,38-1291871,DL29974987,664-885-3885,785-346-9193,international.services.llc@gmail.com,8364 Maple St,Los Angeles,CA,21934,US,www.internationalservicesllc.com,
388-19-5075,71-9226691,DL41823719,838-567-8337,942-674-2451,american.services.inc@aol.com,3322 Cedar St,Houston,TX,83784,US,www.americanservicesinc.com,
470-66-7249,63-6306597,DL99397747,703-216-2342,784-869-5226,national.enterprises.inc@aol.com,3031 Washington St,Los Angeles,CA,67953,US,www.nationalenterprisesinc.com,
508-77-9248,90-9309600,DL30526789,246-806-6635,246-538-2183,international.services.corp@aol.com,8380 Elm St,New York,NY,45053,US,www.internationalservicescorp.com,
908-46-6898,64-8624771,DL75012743,633-760-7257,632-405-8895,international.enterprises.llc@hotmail.com,6530 Elm St,Houston,TX,70985,US,www.internationalenterprisesllc.com,
533-98-6367,51-4610096,DL34194783,843-945-3781,675-330-1189,american.systems.corp@aol.com,5537 Maple St,Phoenix,AZ,98258,US,www.americansystemscorp.com,
961-27-9986,86-5691095,DL84826239,574-543-3585,521-601-5874,national.tech.llc@hotmail.com,758 Lincoln St,Houston,TX,80428,US,www.nationaltechllc.com,
801-10-9673,68-6410302,DL98897092,953-700-7099,511-355-4980,american.tech.inc@gmail.com,4428 Oak St,Houston,TX,64652,US,www.americantechinc.com,
529-80-5080,76-9520642,DL24230052,347-837-6021,357-962-8868,global.services.inc@yahoo.com,7870 Pine St,Houston,TX,20181,US,www.globalservicesinc.com,
784-24-8723,88-7666687,DL51743316,990-642-5474,896-454-5178,united.tech.inc@outlook.com,6474 Jefferson St,Chicago,IL,83037,US,www.unitedtechinc.com,
557-76-7814,17-9816823,DL70237162,324-890-1425,561-654-7911,american.tech.ltd@hotmail.com,7751 Main St,Los Angeles,CA,97843,US,www.americantechltd.com,
572-65-2380,94-9775388,DL91701661,201-739-3730,718-769-8040,national.solutions.inc@hotmail.com,6158 Pine St,Phoenix,AZ,46822,US,www.nationalsolutionsinc.com,
307-40-1352,13-6712380,DL22580527,516-245-9058,265-607-4036,global.tech.ltd@gmail.com,9109 Washington St,Phoenix,AZ,30759,US,www.globaltechltd.com,
966-18-2482,95-4341892,DL98397346,563-560-5125,666-410-3513,international.systems.ltd@yahoo.com,5220 Elm St,Los Angeles,CA,13690,US,www.internationalsystemsltd.com,
318-33-8748,81-5216075,DL75005772,942-460-1992,279-682-7475,national.tech.ltd@hotmail.com,7375 Maple St,Phoenix,AZ,64628,US,www.nationaltechltd.com,
738-58-3702,58-1135805,DL19499678,207-590-9804,587-969-3592,international.solutions.inc@gmail.com,8450 Jefferson St,Houston,TX,23800,US,www.internationalsolutionsinc.com,
503-33-9140,91-7993796,DL68337991,493-965-7398,483-408-9066,national.solutions.llc@hotmail.com,2065 Main St,Chicago,IL,51889,US,www.nationalsolutionsllc.com,
490-56-1131,24-3411398,DL83890738,737-464-9086,322-846-9321,american.enterprises.ltd@outlook.com,4044 Jefferson St,Phoenix,AZ,76619,US,www.americanenterprisesltd.com,
870-30-7540,46-5338509,DL45925314,227-656-7557,327-481-9221,national.enterprises.inc@yahoo.com,8966 Oak St,New York,NY,86389,US,www.nationalenterprisesinc.com,
126-35-5208,52-1780438,DL25596597,455-222-5962,828-730-3322,united.enterprises.inc@yahoo.com,2145 Elm St,Phoenix,AZ,34427,US,www.unitedenterprisesinc.com,
346-87-3354,66-4497955,DL35434196,592-731-1892,506-198-7532,national.systems.corp@hotmail.com,1672 Cedar St,New York,NY,60773,US,www.nationalsystemscorp.com,
662-71-1053,73-5834574,DL46247252,476-272-8489,282-211-7452,united.solutions.corp@gmail.com,4798 Maple St,Phoenix,AZ,77495,US,www.unitedsolutionscorp.com,
694-39-3898,90-2115423,DL25724297,664-435-4769,518-905-4301,united.services.llc@aol.com,9984 Oak St,Chicago,IL,38765,US,www.unitedservicesllc.com,
187-11-3363,41-9770915,DL72080250,248-940-2645,466-725-3589,american.tech.ltd@yahoo.com,7062 Pine St,Phoenix,AZ,74490,US,www.americantechltd.com,
980-38-4941,14-5754941,DL38061705,398-705-5650,539-302-2573,international.enterprises.inc@aol.com,9958 Oak St,Houston,TX,18306,US,www.internationalenterprisesinc.com,
649-79-2441,58-2092799,DL41761003,995-918-9290,728-606-6955,global.enterprises.inc@outlook.com,713 Lincoln St,New York,NY,30829,US,www.globalenterprisesinc.com,
254-59-4504,81-9959129,DL78700264,414-456-9206,715-501-7627,american.tech.inc@outlook.com,8807 Jefferson St,Houston,TX,89880,US,www.americantechinc.com,
848-70-4862,42-9798477,DL75432881,397-493-9444,914-238-9795,american.tech.corp@hotmail.com,3320 Lincoln St,New York,NY,75897,US,www.americantechcorp.com,
829-18-9767,44-2343687,DL29221713,399-205-1670,849-359-8118,national.tech.corp@yahoo.com,8154 Jefferson St,Chicago,IL,95467,US,www.nationaltechcorp.com,
637-21-6878,39-1096505,DL23748770,348-707-4906,805-377-7330,international.solutions.corp@hotmail.com,95 Jefferson St,New York,NY,68275,US,www.internationalsolutionscorp.com,
765-36-1988,73-2830858,DL66117121,798-739-7972,657-823-8922,international.solutions.llc@outlook.com,9424 Elm St,Los Angeles,CA,27439,US,www.internationalsolutionsllc.com,
749-20-2735,24-3206416,DL18790826,449-977-6877,399-976-7809,united.solutions.ltd@aol.com,1462 Maple St,New York,NY,26923,US,www.unitedsolutionsltd.com,
472-54-8687,22-1652730,DL82534257,649-703-4324,521-482-4855,global.tech.inc@aol.com,267 Jefferson St,Chicago,IL,73303,US,www.globaltechinc.com,
643-36-1940,12-6789117,DL92078724,326-350-2740,454-229-3118,global.services.corp@gmail.com,9440 Main St,Chicago,IL,37146,US,www.globalservicescorp.com,
560-20-7304,48-1868240,DL73730636,787-155-4857,942-494-1409,united.services.llc@yahoo.com,9455 Maple St,Houston,TX,22427,US,www.unitedservicesllc.com,
491-24-5735,54-5889610,DL20750077,594-918-2124,430-417-9809,united.enterprises.inc@yahoo.com,178 Elm St,Houston,TX,67758,US,www.unitedenterprisesinc.com,
171-62-9986,81-6392904,DL38187957,276-430-4297,883-113-6624,international.tech.inc@yahoo.com,8996 Washington St,Los Angeles,CA,73459,US,www.internationaltechinc.com,
681-79-4034,20-5298650,DL94084578,665-350-5717,396-122-8903,global.tech.corp@outlook.com,5836 Cedar St,Los Angeles,CA,56634,US,www.globaltechcorp.com,
391-88-6251,35-8180907,DL14288155,396-704-4990,338-523-8594,national.enterprises.ltd@hotmail.com,9839 Lincoln St,Chicago,IL,77671,US,www.nationalenterprisesltd.com,
547-39-2304,15-8397452,DL77575923,734-208-1380,668-833-2726,international.services.ltd@hotmail.com,2956 Washington St,Chicago,IL,45020,US,www.internationalservicesltd.com,
646-64-9006,99-6056554,DL43704316,318-863-2225,921-234-4952,global.enterprises.inc@yahoo.com,7592 Pine St,New York,NY,80199,US,www.globalenterprisesinc.com,
789-40-3128,66-2000646,DL78024968,827-952-9302,837-358-6026,american.systems.ltd@gmail.com,2764 Main St,Houston,TX,47936,US,www.americansystemsltd.com,
203-98-7473,93-8346799,DL68068969,855-269-7888,508-222-1133,american.tech.inc@yahoo.com,8325 Oak St,Houston,TX,35799,US,www.americantechinc.com,
224-62-5972,77-3292575,DL89893632,919-300-5028,956-879-8880,international.systems.ltd@aol.com,4731 Oak St,Los Angeles,CA,51847,US,www.internationalsystemsltd.com,
796-55-3844,42-9105529,DL47340328,293-855-5187,522-409-8962,national.tech.llc@hotmail.com,7774 Cedar St,Houston,TX,67177,US,www.nationaltechllc.com,
398-43-4420,95-4239875,DL19619623,442-608-8229,281-166-3021,international.systems.ltd@gmail.com,2886 Jefferson St,Los Angeles,CA,29253,US,www.internationalsystemsltd.com,
436-83-1603,26-9743177,DL57769048,542-213-5617,919-367-8799,american.systems.inc@yahoo.com,7868 Oak St,Los Angeles,CA,75430,US,www.americansystemsinc.com,
113-96-9848,29-6517888,DL13660559,395-115-4809,242-826-1500,american.tech.corp@gmail.com,806 Lincoln St,Los Angeles,CA,54677,US,www.americantechcorp.com,
621-36-1359,71-5604902,DL85996362,711-383-1140,205-820-8820,national.tech.llc@aol.com,5753 Lincoln St,New York,NY,49147,US,www.nationaltechllc.com,
402-46-8539,32-8590121,DL42223546,442-900-8687,649-124-3099,international.services.ltd@hotmail.com,2854 Elm St,Houston,TX,24021,US,www.internationalservicesltd.com,
654-50-2658,10-8241931,DL36837442,785-432-1989,586-582-2779,united.enterprises.ltd@aol.com,1431 Oak St,New York,NY,14632,US,www.unitedenterprisesltd.com,
355-41-1839,33-2513110,DL73220455,950-103-6241,608-626-6982,american.services.ltd@gmail.com,5502 Washington St,Los Angeles,CA,25525,US,www.americanservicesltd.com,
565-72-7387,98-1620264,DL27660670,319-541-9610,615-141-6796,international.enterprises.corp@hotmail.com,3990 Pine St,Los Angeles,CA,40870,US,www.internationalenterprisescorp.com,
260-35-7760,93-1412887,DL63347553,798-189-8935,211-263-9315,international.services.llc@yahoo.com,9967 Main St,Los Angeles,CA,85567,US,www.internationalservicesllc.com,
671-81-9179,28-4659666,DL59822462,464-607-4284,343-119-4885,global.tech.corp@yahoo.com,7908 Maple St,Phoenix,AZ,86556,US,www.globaltechcorp.com,
447-18-5749,76-6922409,DL93461980,401-543-9932,616-669-2264,international.enterprises.inc@outlook.com,4732 Elm St,Houston,TX,39347,US,www.internationalenterprisesinc.com,
705-82-5550,91-1630561,DL26066972,770-927-4679,298-465-1465,american.tech.corp@outlook.com,2835 Elm St,Houston,TX,24428,US,www.americantechcorp.com,
191-78-2487,81-8617922,DL80350973,539-692-2776,306-525-6502,global.tech.corp@yahoo.com,6361 Pine St,Los Angeles,CA,15372,US,www.globaltechcorp.com,
626-56-1431,34-9264041,DL31937484,818-178-3308,449-590-5246,united.tech.corp@gmail.com,2537 Maple St,Phoenix,AZ,16035,US,www.unitedtechcorp.com,
896-86-3002,41-5878881,DL34613051,933-725-8012,753-430-7753,united.solutions.ltd@hotmail.com,9347 Cedar St,Houston,TX,16181,US,www.unitedsolutionsltd.com,
667-16-9223,45-3458706,DL51871734,801-517-6235,503-304-7413,global.tech.corp@aol.com,1042 Oak St,Chicago,IL,64064,US,www.globaltechcorp.com,
380-32-9365,38-5947683,DL45305643,855-498-1093,751-984-2296,united.tech.corp@aol.com,7816 Maple St,Houston,TX,87676,US,www.unitedtechcorp.com,
221-15-6982,15-8757523,DL12198598,365-675-8168,812-654-1082,international.tech.corp@yahoo.com,190 Cedar St,Chicago,IL,30719,US,www.internationaltechcorp.com,
191-86-5275,35-9987653,DL31241716,675-325-8179,359-423-2223,united.tech.corp@gmail.com,8089 Pine St,Chicago,IL,82163,US,www.unitedtechcorp.com,
275-14-9794,46-5486129,DL61001757,495-346-7967,355-563-4709,national.tech.corp@yahoo.com,2742 Pine St,Chicago,IL,50353,US,www.nationaltechcorp.com,
227-56-5555,47-1813668,DL50360713,359-324-7249,299-221-8759,national.enterprises.llc@yahoo.com,9354 Oak St,Chicago,IL,67073,US,www.nationalenterprisesllc.com,
226-52-5793,55-4170243,DL46651909,305-800-9212,286-817-7751,american.tech.inc@aol.com,6922 Washington St,Phoenix,AZ,53481,US,www.americantechinc.com,
366-47-3954,29-6458359,DL32725146,685-882-7305,603-139-8509,national.services.corp@aol.com,1012 Main St,Houston,TX,86122,US,www.nationalservicescorp.com,
139-37-8822,51-8296422,DL12112994,851-539-2068,304-461-9914,american.solutions.inc@aol.com,2090 Elm St,Chicago,IL,52061,US,www.americansolutionsinc.com,
949-41-5284,88-6859179,DL26383056,941-535-6016,625-462-9056,international.tech.ltd@yahoo.com,3541 Washington St,Houston,TX,48119,US,www.internationaltechltd.com,
108-78-7290,79-3297185,DL32433040,642-413-8098,870-807-7595,national.enterprises.corp@outlook.com,3850 Cedar St,Los Angeles,CA,86831,US,www.nationalenterprisescorp.com,
803-16-7430,40-7600390,DL49180265,626-981-1588,907-339-5329,american.systems.llc@yahoo.com,8904 Jefferson St,Phoenix,AZ,95877,US,www.americansystemsllc.com,
452-79-1010,35-5448408,DL25131793,510-538-7313,718-508-3942,international.solutions.llc@hotmail.com,6769 Pine St,New York,NY,65207,US,www.internationalsolutionsllc.com,
156-84-7040,85-8259667,DL72166704,933-969-9735,761-254-9842,international.services.inc@outlook.com,3238 Oak St,New York,NY,59870,US,www.internationalservicesinc.com,
586-53-6804,44-4053950,DL36972822,448-448-7769,260-364-6245,global.systems.llc@yahoo.com,9036 Cedar St,New York,NY,58607,US,www.globalsystemsllc.com,
852-39-5712,39-5481600,DL94129813,890-393-1800,838-509-7261,national.systems.llc@yahoo.com,7993 Main St,New York,NY,68289,US,www.nationalsystemsllc.com,
591-66-1979,32-8164310,DL96581750,391-627-2727,906-708-7112,national.solutions.ltd@hotmail.com,8278 Maple St,Houston,TX,72195,US,www.nationalsolutionsltd.com,
265-41-6264,31-4131411,DL87801968,713-512-9548,530-667-2251,national.systems.ltd@outlook.com,7246 Elm St,New York,NY,71374,US,www.nationalsystemsltd.com,
465-16-3021,90-1949829,DL60492442,837-289-7630,412-439-1006,united.services.corp@aol.com,5347 Cedar St,Los Angeles,CA,59229,US,www.unitedservicescorp.com,
610-21-2982,49-2026320,DL71698715,407-341-5410,251-624-9478,united.enterprises.ltd@hotmail.com,4641 Washington St,Chicago,IL,97542,US,www.unitedenterprisesltd.com,
108-62-1671,68-3301473,DL48046005,977-544-6088,509-329-6903,global.systems.corp@hotmail.com,5144 Washington St,Los Angeles,CA,90345,US,www.globalsystemscorp.com,
820-94-1667,58-6549260,DL10481878,446-785-2430,701-140-5471,united.systems.inc@aol.com,5800 Pine St,Phoenix,AZ,71707,US,www.unitedsystemsinc.com,
974-97-8970,34-8649424,DL91773668,818-559-7260,764-634-7635,global.services.inc@outlook.com,802 Washington St,Chicago,IL,35475,US,www.globalservicesinc.com,
543-47-3538,19-4280271,DL89474223,386-317-3075,524-589-3759,global.tech.ltd@yahoo.com,7141 Elm St,Chicago,IL,26627,US,www.globaltechltd.com,
490-19-4133,25-5365435,DL91041583,996-901-2251,474-386-7982,global.enterprises.corp@yahoo.com,5148 Elm St,Los Angeles,CA,32590,US,www.globalenterprisescorp.com,
327-64-9308,69-6419639,DL16588898,560-708-6661,378-528-6077,united.services.corp@hotmail.com,2326 Lincoln St,Phoenix,AZ,80035,US,www.unitedservicescorp.com,
374-86-5380,72-2793100,DL31242381,876-290-8436,404-695-2326,global.solutions.llc@yahoo.com,3963 Elm St,Los Angeles,CA,42318,US,www.globalsolutionsllc.com,
510-67-5184,42-7454558,DL16457011,784-295-6879,337-736-8108,american.solutions.inc@hotmail.com,1686 Jefferson St,Los Angeles,CA,62460,US,www.americansolutionsinc.com,
417-21-4304,29-3648661,DL97398810,578-559-7888,798-975-4566,american.services.llc@hotmail.com,3066 Main St,Los Angeles,CA,75553,US,www.americanservicesllc.com,
830-30-5197,21-7615559,DL25211587,616-969-7164,834-936-5691,international.enterprises.llc@aol.com,8947 Main St,Los Angeles,CA,74261,US,www.internationalenterprisesllc.com,
894-72-3449,76-5208312,DL93214405,913-424-7422,201-474-7530,global.systems.inc@gmail.com,3801 Maple St,New York,NY,65957,US,www.globalsystemsinc.com,
205-49-6416,12-2657033,DL14764329,207-126-8426,657-958-8279,global.tech.corp@aol.com,3506 Maple St,Phoenix,AZ,32698,US,www.globaltechcorp.com,
686-14-6550,63-1494878,DL56854402,400-948-6851,922-645-2478,national.solutions.inc@aol.com,1488 Jefferson St,Phoenix,AZ,13292,US,www.nationalsolutionsinc.com,
534-71-3024,68-8110955,DL55253619,606-862-1159,487-710-3639,united.tech.inc@gmail.com,4711 Maple St,Houston,TX,93143,US,www.unitedtechinc.com,
275-85-3530,26-2719786,DL35891809,725-198-2579,784-123-3957,international.systems.corp@outlook.com,3907 Cedar St,New York,NY,45454,US,www.internationalsystemscorp.com,
922-12-3517,62-2904249,DL66393728,797-810-2971,924-262-6818,american.services.llc@yahoo.com,4175 Lincoln St,New York,NY,59372,US,www.americanservicesllc.com,
205-47-5766,93-2264782,DL60834762,681-850-9092,815-782-4130,global.enterprises.ltd@gmail.com,1655 Lincoln St,Chicago,IL,37346,US,www.globalenterprisesltd.com,
866-19-3371,55-2595410,DL43524655,338-792-7181,978-778-9247,international.systems.llc@aol.com,8837 Washington St,Phoenix,AZ,49385,US,www.internationalsystemsllc.com,
372-86-8074,63-6372656,DL35086943,667-402-3629,267-476-4681,american.systems.ltd@aol.com,6927 Jefferson St,New York,NY,15645,US,www.americansystemsltd.com,
356-79-3668,64-3674390,DL60896806,807-793-2623,848-698-5805,global.solutions.llc@outlook.com,1261 Cedar St,Phoenix,AZ,16238,US,www.globalsolutionsllc.com,
205-26-6299,80-1553493,DL64773114,965-478-1679,761-278-1873,american.enterprises.ltd@yahoo.com,2224 Cedar St,New York,NY,97693,US,www.americanenterprisesltd.com,
416-73-9772,81-5609110,DL34123780,667-977-5844,400-225-1154,united.tech.inc@yahoo.com,6235 Elm St,Houston,TX,95733,US,www.unitedtechinc.com,
806-13-8510,52-9229920,DL59632584,328-723-8422,413-140-5414,global.enterprises.corp@yahoo.com,7222 Elm St,New York,NY,48130,US,www.globalenterprisescorp.com,
161-61-4421,69-8295033,DL14700799,997-826-4267,932-911-2317,united.solutions.inc@gmail.com,4370 Oak St,Chicago,IL,91466,US,www.unitedsolutionsinc.com,
699-34-8680,65-1593712,DL40324656,937-153-3892,743-142-8802,international.services.ltd@outlook.com,866 Maple St,New York,NY,37015,US,www.internationalservicesltd.com,
456-12-7473,84-4785915,DL79755904,552-722-6735,824-480-8136,global.services.ltd@hotmail.com,8447 Washington St,Houston,TX,65777,US,www.globalservicesltd.com,
887-11-6360,80-8943919,DL45510878,404-546-1178,880-921-6967,international.systems.inc@outlook.com,4520 Washington St,Phoenix,AZ,58769,US,www.internationalsystemsinc.com,
994-76-6089,67-6731154,DL88832217,310-369-5380,288-795-9104,national.tech.ltd@outlook.com,1479 Jefferson St,Chicago,IL,59421,US,www.nationaltechltd.com,
602-49-8944,46-1143483,DL31999883,709-314-9680,766-108-2204,global.tech.ltd@aol.com,1725 Jefferson St,Houston,TX,56804,US,www.globaltechltd.com,
310-32-9413,13-9998249,DL30596378,874-752-4910,451-776-1276,international.solutions.corp@yahoo.com,6168 Oak St,Chicago,IL,62618,US,www.internationalsolutionscorp.com,
128-42-7912,27-7220181,DL78803491,450-531-6271,644-766-2699,national.tech.llc@gmail.com,6684 Lincoln St,Los Angeles,CA,87656,US,www.nationaltechllc.com,
688-13-6840,57-6562836,DL97601624,734-487-6472,370-857-3488,american.systems.corp@yahoo.com,3375 Oak St,Phoenix,AZ,77673,US,www.americansystemscorp.com,
735-85-4345,49-1489699,DL42109681,632-767-5090,474-260-6051,global.tech.ltd@gmail.com,6785 Cedar St,Phoenix,AZ,51315,US,www.globaltechltd.com,
424-36-4395,15-9608393,DL75985402,368-942-8632,486-722-6516,international.tech.corp@outlook.com,5987 Main St,Chicago,IL,76614,US,www.internationaltechcorp.com,
592-51-1644,39-3176021,DL60498440,959-204-4331,536-340-2528,american.systems.corp@aol.com,6208 Washington St,New York,NY,50736,US,www.americansystemscorp.com,
169-75-8046,74-4942248,DL14271080,787-404-3863,698-381-6761,global.tech.ltd@gmail.com,8018 Maple St,Chicago,IL,68766,US,www.globaltechltd.com,
226-40-9537,94-3387729,DL49514972,804-203-2301,508-198-3438,united.services.ltd@gmail.com,6793 Elm St,New York,NY,29821,US,www.unitedservicesltd.com,
430-83-9781,30-9828955,DL92453053,876-747-5384,836-945-8827,national.systems.llc@aol.com,2529 Cedar St,Houston,TX,94361,US,www.nationalsystemsllc.com,
438-20-2420,85-5371782,DL36148500,638-269-7149,797-253-8333,united.tech.llc@outlook.com,7049 Main St,Phoenix,AZ,64965,US,www.unitedtechllc.com,
193-98-3151,88-6460658,DL90268907,680-710-2366,757-383-4072,national.solutions.inc@yahoo.com,4812 Cedar St,Chicago,IL,49263,US,www.nationalsolutionsinc.com,
974-97-6439,49-4814159,DL70940847,474-830-5922,700-983-2761,american.solutions.llc@outlook.com,7131 Elm St,Chicago,IL,91984,US,www.americansolutionsllc.com,
570-75-9445,35-4463661,DL30148244,402-524-2273,770-121-9639,international.systems.corp@gmail.com,8448 Pine St,New York,NY,62497,US,www.internationalsystemscorp.com,
776-73-2679,47-9259700,DL10921952,480-877-8447,908-707-2392,national.services.inc@outlook.com,9212 Washington St,Phoenix,AZ,55512,US,www.nationalservicesinc.com,
820-23-4478,74-7057137,DL73685664,294-942-4214,338-615-1984,international.enterprises.ltd@outlook.com,9421 Washington St,Houston,TX,82737,US,www.internationalenterprisesltd.com,
249-63-6771,25-4210425,DL74449380,445-633-1228,374-664-8777,american.services.llc@yahoo.com,7796 Main St,Houston,TX,34203,US,www.americanservicesllc.com,
106-75-6317,50-4160091,DL66803094,497-800-2232,619-853-8301,american.systems.llc@hotmail.com,495 Washington St,Phoenix,AZ,79122,US,www.americansystemsllc.com,
340-35-8105,52-6728510,DL42565117,891-569-1846,595-827-6959,national.services.inc@aol.com,4492 Pine St,New York,NY,41726,US,www.nationalservicesinc.com,
620-72-6469,30-5424937,DL21236448,915-593-3049,662-591-2090,global.services.ltd@yahoo.com,4879 Main St,New York,NY,81117,US,www.globalservicesltd.com,
485-10-2265,38-1875210,DL52835595,763-259-7926,428-219-7340,global.tech.ltd@outlook.com,508 Pine St,New York,NY,87981,US,www.globaltechltd.com,
126-53-1131,74-8435455,DL89632271,950-635-6861,773-825-8212,american.systems.inc@aol.com,9103 Cedar St,Houston,TX,82632,US,www.americansystemsinc.com,
997-72-3936,71-3796733,DL69262861,965-488-8757,925-649-8036,international.solutions.llc@gmail.com,1538 Maple St,Chicago,IL,54016,US,www.internationalsolutionsllc.com,
127-49-3635,18-9627494,DL64212858,209-500-8511,545-301-5026,global.solutions.llc@hotmail.com,2004 Jefferson St,Houston,TX,89724,US,www.globalsolutionsllc.com,
630-39-3321,97-3440542,DL84268131,962-720-8672,275-281-3877,american.systems.inc@hotmail.com,4682 Oak St,Los Angeles,CA,13800,US,www.americansystemsinc.com,
910-66-4969,29-4605365,DL52048133,549-492-6278,946-382-4526,united.enterprises.inc@outlook.com,2125 Lincoln St,Phoenix,AZ,58078,US,www.unitedenterprisesinc.com,
799-32-8703,79-7109310,DL31666866,531-249-1147,783-591-7604,united.tech.ltd@hotmail.com,4555 Maple St,Los Angeles,CA,59079,US,www.unitedtechltd.com,
497-89-2700,48-5624337,DL24503292,807-514-1438,808-734-9253,united.services.llc@outlook.com,242 Washington St,Houston,TX,22828,US,www.unitedservicesllc.com,
531-85-5645,88-4628836,DL56094276,733-663-1618,452-109-6354,global.enterprises.corp@gmail.com,5819 Cedar St,Chicago,IL,35966,US,www.globalenterprisescorp.com,
437-27-2379,31-1745340,DL22763183,810-693-4152,578-142-6851,american.tech.llc@aol.com,367 Oak St,New York,NY,34334,US,www.americantechllc.com,
545-46-6211,75-6401298,DL15611071,930-610-7399,232-401-7455,united.tech.corp@outlook.com,930 Pine St,Houston,TX,94626,US,www.unitedtechcorp.com,
934-91-3800,82-7549600,DL15062339,784-729-1383,994-425-7651,global.systems.inc@outlook.com,2949 Pine St,New York,NY,61118,US,www.globalsystemsinc.com,
385-32-5211,79-7025642,DL63078449,616-825-2713,509-623-7647,international.enterprises.llc@yahoo.com,5675 Pine St,Phoenix,AZ,10409,US,www.internationalenterprisesllc.com,
985-44-7537,86-2590805,DL31426081,649-766-5573,453-698-8230,global.tech.llc@outlook.com,9829 Main St,Los Angeles,CA,39824,US,www.globaltechllc.com,
867-11-9517,97-3099928,DL49037136,229-591-9418,405-372-4682,national.enterprises.inc@hotmail.com,8188 Main St,Houston,TX,36246,US,www.nationalenterprisesinc.com,
343-82-6854,46-6007417,DL32396160,901-689-1512,962-188-5331,national.services.corp@outlook.com,5444 Oak St,Chicago,IL,45040,US,www.nationalservicescorp.com,
695-66-9569,82-8143386,DL30741104,429-883-6563,880-171-7205,united.systems.llc@gmail.com,1977 Maple St,New York,NY,51172,US,www.unitedsystemsllc.com,
371-80-9793,47-5415144,DL19055142,827-931-3563,548-188-3516,american.services.llc@outlook.com,7677 Cedar St,Phoenix,AZ,32893,US,www.americanservicesllc.com,
555-66-4515,39-1780402,DL23060762,468-798-5158,772-383-9315,united.solutions.inc@gmail.com,3027 Pine St,Phoenix,AZ,16636,US,www.unitedsolutionsinc.com,
105-69-5223,84-8448565,DL53757259,701-888-3103,585-198-8883,united.solutions.llc@aol.com,593 Washington St,Los Angeles,CA,51039,US,www.unitedsolutionsllc.com,
109-51-5896,31-3641955,DL91790397,496-710-4813,235-219-9679,global.systems.inc@outlook.com,4948 Maple St,Phoenix,AZ,65687,US,www.globalsystemsinc.com,
903-60-1001,73-9437677,DL12018190,468-625-2116,374-866-8698,international.systems.llc@outlook.com,4825 Elm St,Chicago,IL,98903,US,www.internationalsystemsllc.com,
448-74-4267,44-9518971,DL36025947,201-389-5819,751-491-9136,national.services.llc@aol.com,9111 Jefferson St,Los Angeles,CA,80176,US,www.nationalservicesllc.com,
392-55-5720,80-9492138,DL89529236,856-334-8839,243-758-9362,american.solutions.llc@hotmail.com,4247 Cedar St,Los Angeles,CA,84475,US,www.americansolutionsllc.com,
474-27-5937,57-2033823,DL13538486,416-541-4306,516-705-5717,global.tech.llc@gmail.com,8082 Elm St,Los Angeles,CA,37696,US,www.globaltechllc.com,
548-60-6032,29-7280642,DL64179927,727-855-3813,232-234-2923,united.systems.corp@yahoo.com,6379 Lincoln St,Phoenix,AZ,57526,US,www.unitedsystemscorp.com,
975-72-3816,38-3003619,DL50077099,228-230-5775,311-934-6574,international.tech.inc@yahoo.com,9944 Main St,Chicago,IL,12036,US,www.internationaltechinc.com,
909-67-5711,90-9102275,DL43227370,444-559-2994,577-531-5019,american.enterprises.ltd@aol.com,4411 Maple St,Chicago,IL,99614,US,www.americanenterprisesltd.com,
410-57-8985,70-5937741,DL18227190,240-316-4584,756-621-3299,united.services.corp@gmail.com,8538 Lincoln St,Phoenix,AZ,75931,US,www.unitedservicescorp.com,
213-33-1027,81-2848660,DL23634077,278-537-3340,481-288-6558,united.enterprises.llc@yahoo.com,3286 Maple St,Phoenix,AZ,60919,US,www.unitedenterprisesllc.com,
378-40-7757,67-8373602,DL49974011,563-525-1069,575-347-7518,national.tech.corp@gmail.com,8577 Main St,Chicago,IL,43630,US,www.nationaltechcorp.com,
641-11-7335,10-1680480,DL27352440,868-326-9174,818-786-3507,global.tech.inc@gmail.com,5416 Cedar St,Phoenix,AZ,83458,US,www.globaltechinc.com,
807-28-7069,78-9723544,DL32722262,507-382-6791,698-228-2642,american.systems.llc@gmail.com,1080 Pine St,Chicago,IL,16984,US,www.americansystemsllc.com,
846-98-6328,31-8681435,DL96019604,594-605-9394,841-653-6068,international.services.corp@gmail.com,5925 Pine St,Los Angeles,CA,55140,US,www.internationalservicescorp.com,
874-12-2576,29-8236639,DL49834843,399-539-6393,400-382-4585,national.tech.ltd@gmail.com,8710 Cedar St,Houston,TX,82484,US,www.nationaltechltd.com,
209-19-1409,96-3035707,DL43764792,516-351-5013,938-731-4880,global.systems.corp@yahoo.com,3191 Lincoln St,Los Angeles,CA,55751,US,www.globalsystemscorp.com,
748-34-8117,97-2428440,DL13517648,921-501-7734,859-359-5159,national.tech.inc@yahoo.com,8114 Main St,Chicago,IL,72117,US,www.nationaltechinc.com,
823-27-3675,16-1125201,DL15295590,568-285-1024,233-864-5884,international.systems.corp@hotmail.com,1634 Jefferson St,Los Angeles,CA,28029,US,www.internationalsystemscorp.com,
255-88-1709,69-3399491,DL63702288,461-627-1408,739-234-4559,global.solutions.ltd@yahoo.com,2789 Maple St,New York,NY,41587,US,www.globalsolutionsltd.com,
545-16-6656,61-4013016,DL86762166,974-796-6623,416-755-1885,international.enterprises.inc@hotmail.com,2672 Pine St,Phoenix,AZ,35334,US,www.internationalenterprisesinc.com,
108-77-2114,46-8322006,DL11548539,829-707-3351,458-203-1111,united.systems.corp@aol.com,5602 Maple St,New York,NY,26221,US,www.unitedsystemscorp.com,
292-60-5291,69-1146639,DL90589641,842-753-8227,657-727-4968,international.tech.llc@outlook.com,3680 Washington St,Los Angeles,CA,20008,US,www.internationaltechllc.com,
608-56-1001,55-7677575,DL66663635,733-980-3419,318-873-9787,global.enterprises.ltd@outlook.com,518 Pine St,Los Angeles,CA,88490,US,www.globalenterprisesltd.com,
420-67-4525,93-1993838,DL63069915,325-609-4028,665-966-5572,national.services.inc@hotmail.com,9046 Jefferson St,Los Angeles,CA,17669,US,www.nationalservicesinc.com,
649-95-2797,98-7796323,DL70238749,419-802-5229,331-506-1383,american.tech.ltd@outlook.com,3923 Washington St,Chicago,IL,41343,US,www.americantechltd.com,
573-11-7698,76-5663102,DL96679573,322-225-6033,311-420-7631,global.systems.llc@outlook.com,3638 Lincoln St,New York,NY,93892,US,www.globalsystemsllc.com,
910-24-6752,78-1873459,DL63182289,547-287-2860,240-901-5490,national.solutions.ltd@outlook.com,3017 Lincoln St,Los Angeles,CA,91415,US,www.nationalsolutionsltd.com,
973-51-9259,19-1587151,DL22749425,699-164-3130,579-811-5225,international.systems.corp@hotmail.com,2551 Maple St,Chicago,IL,15815,US,www.internationalsystemscorp.com,
702-97-8148,75-7818843,DL68485370,827-532-2591,923-547-2429,international.tech.ltd@gmail.com,8196 Washington St,New York,NY,28450,US,www.internationaltechltd.com,
319-22-1823,62-5216910,DL40972381,246-312-4307,915-459-7177,national.enterprises.llc@outlook.com,2676 Jefferson St,Phoenix,AZ,82985,US,www.nationalenterprisesllc.com,
732-96-6724,11-8109343,DL75381114,691-821-1244,649-489-3290,international.tech.corp@gmail.com,8340 Maple St,Houston,TX,16487,US,www.internationaltechcorp.com,
638-35-5296,57-7665293,DL64734889,343-130-9936,867-505-2001,american.systems.ltd@gmail.com,4249 Oak St,New York,NY,86502,US,www.americansystemsltd.com,
756-69-2172,44-3122089,DL14030911,206-715-2249,444-252-4025,american.tech.llc@outlook.com,3226 Main St,Phoenix,AZ,88075,US,www.americantechllc.com,
566-62-1812,88-4678763,DL79219102,324-750-7979,821-452-5476,american.tech.inc@gmail.com,9041 Main St,Chicago,IL,60816,US,www.americantechinc.com,
157-40-9567,50-2920139,DL63175634,758-847-6490,249-515-9840,national.tech.llc@hotmail.com,8012 Oak St,Los Angeles,CA,72989,US,www.nationaltechllc.com,
619-44-3844,31-2574508,DL21305979,772-169-7326,787-847-6573,national.solutions.ltd@hotmail.com,2464 Oak St,Houston,TX,89118,US,www.nationalsolutionsltd.com,
697-75-7882,23-9443644,DL92962699,430-686-5923,439-327-6492,international.services.inc@gmail.com,1970 Cedar St,Phoenix,AZ,22646,US,www.internationalservicesinc.com,
592-98-4977,32-8915510,DL94828857,509-856-3959,261-924-3380,national.tech.llc@gmail.com,7881 Lincoln St,Los Angeles,CA,49485,US,www.nationaltechllc.com,
448-10-4169,68-4704241,DL83155183,303-113-8358,307-934-6667,american.enterprises.ltd@outlook.com,4903 Cedar St,Los Angeles,CA,54647,US,www.americanenterprisesltd.com,
430-68-8312,95-5709611,DL26550926,783-913-7269,325-463-6366,united.tech.inc@aol.com,2275 Cedar St,Houston,TX,64447,US,www.unitedtechinc.com,
316-84-7775,57-1253590,DL51763169,428-555-1065,363-590-4539,american.tech.llc@yahoo.com,6354 Lincoln St,Los Angeles,CA,75502,US,www.americantechllc.com,
533-83-8653,42-8615495,DL37668849,488-679-3756,371-348-4892,global.solutions.corp@hotmail.com,6855 Jefferson St,Chicago,IL,59320,US,www.globalsolutionscorp.com,
909-34-1870,49-9152036,DL64113317,221-449-5078,390-516-4372,american.services.llc@yahoo.com,8683 Jefferson St,Houston,TX,18587,US,www.americanservicesllc.com,
134-50-5837,23-2671584,DL62757418,374-505-6173,723-250-2000,international.solutions.llc@aol.com,3731 Pine St,Los Angeles,CA,14870,US,www.internationalsolutionsllc.com,
308-31-6869,54-7225776,DL63156681,693-985-1708,777-594-1533,international.solutions.inc@yahoo.com,8443 Cedar St,New York,NY,11124,US,www.internationalsolutionsinc.com,
202-74-6429,12-5896236,DL47517723,921-429-5216,946-467-9766,global.solutions.ltd@aol.com,195 Cedar St,Los Angeles,CA,82738,US,www.globalsolutionsltd.com,
777-14-3748,62-6650964,DL42613772,335-855-2916,911-848-3554,american.solutions.inc@gmail.com,1232 Cedar St,Chicago,IL,36221,US,www.americansolutionsinc.com,
801-27-9284,73-7255425,DL27173273,403-725-8262,535-282-5246,american.enterprises.llc@yahoo.com,1469 Oak St,New York,NY,80574,US,www.americanenterprisesllc.com,
105-20-2091,89-3539098,DL57949885,469-889-9832,605-276-4636,global.services.inc@gmail.com,8326 Main St,Chicago,IL,21981,US,www.globalservicesinc.com,
232-20-1174,16-7280295,DL40190162,603-975-9717,590-329-1172,international.enterprises.corp@yahoo.com,5396 Washington St,Houston,TX,32908,US,www.internationalenterprisescorp.com,
196-76-4370,77-1712373,DL39517127,211-534-2949,799-967-9776,united.systems.corp@outlook.com,3114 Maple St,New York,NY,89016,US,www.unitedsystemscorp.com,
451-90-9409,89-5085656,DL36587263,977-787-3746,757-442-2780,united.solutions.inc@aol.com,6296 Cedar St,New York,NY,12033,US,www.unitedsolutionsinc.com,
645-77-6868,50-5741012,DL82004656,357-687-4382,651-314-8330,united.enterprises.ltd@yahoo.com,8102 Main St,Chicago,IL,30184,US,www.unitedenterprisesltd.com,
694-19-8950,95-3053157,DL98902136,941-940-2931,572-512-6867,global.tech.ltd@outlook.com,5208 Lincoln St,Houston,TX,18126,US,www.globaltechltd.com,
809-78-1586,96-9966012,DL85739531,380-425-5614,242-605-1315,american.solutions.corp@outlook.com,2458 Jefferson St,Chicago,IL,38213,US,www.americansolutionscorp.com,
728-52-2331,89-8540488,DL96681149,719-308-7425,500-110-6432,national.tech.inc@aol.com,8048 Main St,Los Angeles,CA,99666,US,www.nationaltechinc.com,
937-19-3136,49-8764158,DL66481012,597-890-3071,953-533-1061,american.tech.llc@hotmail.com,763 Elm St,Houston,TX,74046,US,www.americantechllc.com,
842-82-8816,18-8496749,DL77655510,321-128-9793,623-379-3738,national.enterprises.ltd@yahoo.com,2139 Washington St,Chicago,IL,86236,US,www.nationalenterprisesltd.com,
475-83-1976,18-6045603,DL36281407,210-760-4073,725-383-5171,american.systems.inc@outlook.com,5167 Washington St,Los Angeles,CA,79956,US,www.americansystemsinc.com,
954-25-9127,15-3460589,DL75269012,294-304-2091,499-206-9154,global.services.inc@outlook.com,420 Pine St,Chicago,IL,77338,US,www.globalservicesinc.com,
241-42-7355,96-8727399,DL98452354,803-526-9902,563-997-8005,global.tech.llc@yahoo.com,966 Cedar St,Houston,TX,85884,US,www.globaltechllc.com,
662-90-5340,22-7684857,DL22401104,829-450-3975,494-765-7361,international.enterprises.ltd@outlook.com,5240 Pine St,Houston,TX,55503,US,www.internationalenterprisesltd.com,
510-68-8454,79-5270554,DL35581127,906-371-2132,909-558-9990,united.solutions.llc@aol.com,9665 Elm St,Houston,TX,43661,US,www.unitedsolutionsllc.com,
434-18-7073,72-5735773,DL25130785,200-637-2867,634-266-6422,global.solutions.ltd@aol.com,4034 Lincoln St,Houston,TX,28678,US,www.globalsolutionsltd.com,
972-16-6158,41-9853452,DL85687178,630-242-8991,750-780-5292,national.systems.ltd@aol.com,4744 Elm St,Los Angeles,CA,54227,US,www.nationalsystemsltd.com,
984-86-7770,95-7226520,DL94273193,575-879-7402,365-954-1033,global.services.llc@gmail.com,339 Maple St,Phoenix,AZ,77059,US,www.globalservicesllc.com,
535-29-4142,91-4160335,DL69471013,755-975-9676,475-316-4618,american.tech.llc@aol.com,3725 Elm St,Phoenix,AZ,27221,US,www.americantechllc.com,
193-59-7456,66-7800330,DL62524566,867-141-7374,301-780-6411,national.services.ltd@outlook.com,8853 Jefferson St,Phoenix,AZ,59682,US,www.nationalservicesltd.com,
900-79-2571,71-8796830,DL45716352,253-423-4556,863-745-1288,global.solutions.llc@hotmail.com,9365 Cedar St,Los Angeles,CA,60647,US,www.globalsolutionsllc.com,
716-37-1281,35-8424281,DL14319683,722-271-2686,962-515-3624,american.enterprises.llc@outlook.com,4821 Washington St,Houston,TX,10429,US,www.americanenterprisesllc.com,
409-17-7186,23-4943058,DL69045971,523-474-6525,789-187-9467,international.enterprises.ltd@aol.com,2386 Washington St,Chicago,IL,66447,US,www.internationalenterprisesltd.com,
567-69-4525,72-4686140,DL77930801,835-348-2351,395-531-4820,global.services.corp@outlook.com,4091 Jefferson St,Chicago,IL,19655,US,www.globalservicescorp.com,
233-58-6542,89-3164053,DL21201077,380-221-4487,214-885-9080,american.tech.ltd@outlook.com,9139 Pine St,Phoenix,AZ,80990,US,www.americantechltd.com,
712-64-2108,23-4253367,DL36933427,654-619-9430,475-890-3033,international.tech.inc@outlook.com,9308 Elm St,Chicago,IL,44990,US,www.internationaltechinc.com,
299-89-6820,15-4467774,DL15817677,725-258-1982,325-803-3897,international.services.llc@gmail.com,9986 Cedar St,Houston,TX,37702,US,www.internationalservicesllc.com,
427-63-3043,92-3089585,DL76999768,243-466-5549,701-222-9127,united.systems.ltd@gmail.com,8638 Pine St,Chicago,IL,97793,US,www.unitedsystemsltd.com,
757-62-3614,40-1726135,DL14823987,986-664-5016,261-156-8141,american.tech.llc@gmail.com,1188 Washington St,Chicago,IL,65160,US,www.americantechllc.com,
754-27-6626,24-6924213,DL94643165,615-699-1430,903-932-8207,national.solutions.llc@gmail.com,9091 Lincoln St,Chicago,IL,40807,US,www.nationalsolutionsllc.com,
663-15-1861,48-9237449,DL56279188,526-801-4938,466-244-3267,international.tech.ltd@aol.com,3318 Lincoln St,Houston,TX,48116,US,www.internationaltechltd.com,
486-57-4650,96-8293239,DL22594605,226-139-4990,995-255-9540,international.services.ltd@gmail.com,9898 Jefferson St,Houston,TX,36312,US,www.internationalservicesltd.com,
912-95-2109,74-7277119,DL20895311,220-489-1092,690-569-5629,united.tech.corp@hotmail.com,8966 Main St,Chicago,IL,56027,US,www.unitedtechcorp.com,
651-78-5509,66-9140138,DL99487687,811-419-8588,941-267-7213,international.systems.inc@gmail.com,1555 Washington St,Chicago,IL,91552,US,www.internationalsystemsinc.com,
798-45-1712,95-6852933,DL84903194,841-582-5161,209-199-6769,international.services.corp@outlook.com,2436 Oak St,Los Angeles,CA,42351,US,www.internationalservicescorp.com,
150-23-6524,25-7593032,DL49816325,480-814-5485,554-963-1562,united.tech.ltd@gmail.com,7552 Main St,Los Angeles,CA,80144,US,www.unitedtechltd.com,
343-85-8242,76-6349490,DL57002547,293-541-7919,216-899-5159,united.solutions.llc@gmail.com,2849 Maple St,Houston,TX,12934,US,www.unitedsolutionsllc.com,
869-74-2597,86-4206533,DL13959621,720-171-4482,241-845-2244,national.tech.llc@yahoo.com,5995 Pine St,Los Angeles,CA,37269,US,www.nationaltechllc.com,
573-19-8195,37-4246499,DL52203011,213-841-5183,450-135-3282,international.tech.llc@aol.com,2879 Lincoln St,New York,NY,12461,US,www.internationaltechllc.com,
194-96-9323,16-5946085,DL19527526,200-212-9664,225-768-1600,american.enterprises.ltd@yahoo.com,3068 Pine St,Phoenix,AZ,93014,US,www.americanenterprisesltd.com,
541-34-4520,11-8703039,DL62820587,462-765-1464,379-106-1165,united.systems.corp@gmail.com,7169 Cedar St,Houston,TX,69223,US,www.unitedsystemscorp.com,
728-16-2916,95-9164346,DL20042646,933-481-5270,682-556-3390,american.solutions.corp@aol.com,9462 Elm St,New York,NY,62302,US,www.americansolutionscorp.com,
698-18-9938,94-6610125,DL14948566,949-107-6870,443-170-5212,american.solutions.inc@yahoo.com,8985 Washington St,Phoenix,AZ,11905,US,www.americansolutionsinc.com,
813-17-1259,79-7102919,DL71564128,932-276-1610,525-961-4099,united.enterprises.ltd@yahoo.com,5741 Washington St,Chicago,IL,15820,US,www.unitedenterprisesltd.com,
134-72-5437,16-8933277,DL36558630,417-305-4492,482-627-3080,international.systems.inc@yahoo.com,5288 Main St,Houston,TX,52883,US,www.internationalsystemsinc.com,
240-70-1953,98-5748483,DL25939848,367-258-4884,921-649-5855,global.enterprises.corp@yahoo.com,3640 Oak St,Houston,TX,96190,US,www.globalenterprisescorp.com,
896-66-7901,28-1163143,DL99491108,610-429-3290,249-765-5505,united.services.inc@hotmail.com,2366 Main St,Chicago,IL,67164,US,www.unitedservicesinc.com,
960-80-3542,65-9440335,DL33115841,527-334-4781,607-605-4911,united.solutions.inc@yahoo.com,6948 Elm St,Chicago,IL,26300,US,www.unitedsolutionsinc.com,
769-43-9954,20-7559992,DL89639705,668-549-3530,609-102-5251,national.services.inc@gmail.com,6473 Maple St,Houston,TX,47249,US,www.nationalservicesinc.com,
562-51-6590,84-2843706,DL66489137,933-384-8190,270-895-5644,global.services.llc@hotmail.com,8153 Main St,Houston,TX,59442,US,www.globalservicesllc.com,
657-22-1703,28-6440049,DL15691146,730-173-3613,443-995-5937,international.systems.ltd@outlook.com,7870 Lincoln St,New York,NY,65217,US,www.internationalsystemsltd.com,
216-25-1571,72-9944800,DL53584813,217-953-1397,821-203-8955,national.services.corp@outlook.com,372 Cedar St,Houston,TX,51535,US,www.nationalservicescorp.com,
566-67-9642,61-8220222,DL36064178,843-632-5240,793-379-7381,international.systems.corp@yahoo.com,9805 Pine St,Houston,TX,14622,US,www.internationalsystemscorp.com,
684-12-2886,65-5619256,DL47399737,728-565-6648,955-979-8939,international.services.ltd@aol.com,79 Washington St,New York,NY,44141,US,www.internationalservicesltd.com,
862-29-4648,41-9176588,DL21310490,519-535-8216,796-807-3212,american.systems.corp@aol.com,7664 Elm St,Phoenix,AZ,17636,US,www.americansystemscorp.com,
750-82-7142,41-4628222,DL53396424,499-831-8403,317-975-9049,united.tech.inc@hotmail.com,2271 Jefferson St,Houston,TX,90649,US,www.unitedtechinc.com,
659-69-9946,92-9797452,DL20619858,495-773-8962,743-546-1633,global.services.corp@aol.com,4325 Washington St,New York,NY,57596,US,www.globalservicescorp.com,
637-79-3023,87-1556751,DL15809461,402-219-5040,814-938-9465,international.tech.corp@gmail.com,6449 Maple St,New York,NY,84440,US,www.internationaltechcorp.com,
444-56-3123,20-5665751,DL61823726,745-152-9910,853-983-6953,united.services.ltd@gmail.com,3096 Pine St,Phoenix,AZ,22407,US,www.unitedservicesltd.com,
125-96-7675,55-2188676,DL81063445,456-575-8600,386-190-6777,american.services.ltd@aol.com,1371 Washington St,Phoenix,AZ,97025,US,www.americanservicesltd.com,
540-12-7089,65-5895895,DL94743888,562-557-9453,971-184-9105,united.enterprises.ltd@gmail.com,7709 Washington St,New York,NY,46325,US,www.unitedenterprisesltd.com,
365-70-2796,96-5754501,DL51423211,788-674-7262,300-286-2503,united.solutions.inc@hotmail.com,1765 Jefferson St,Chicago,IL,54762,US,www.unitedsolutionsinc.com,
751-83-3781,84-4353660,DL17033273,840-554-6139,324-230-1736,united.enterprises.inc@outlook.com,1549 Maple St,Phoenix,AZ,61569,US,www.unitedenterprisesinc.com,
791-65-4851,99-6832339,DL31517848,353-638-5076,791-401-4022,international.tech.llc@aol.com,849 Main St,Los Angeles,CA,94488,US,www.internationaltechllc.com,
186-37-4458,54-3465876,DL64537513,723-582-7347,746-798-2854,american.solutions.ltd@hotmail.com,9963 Cedar St,Los Angeles,CA,26685,US,www.americansolutionsltd.com,
704-13-1646,69-1065297,DL99846691,497-937-9494,624-799-7384,united.systems.corp@outlook.com,9659 Oak St,Houston,TX,43562,US,www.unitedsystemscorp.com,
850-96-1323,16-7611787,DL22365155,614-509-8333,779-629-9892,international.enterprises.ltd@yahoo.com,7267 Cedar St,Phoenix,AZ,69265,US,www.internationalenterprisesltd.com,
634-22-4964,51-1647237,DL66636386,531-121-3621,344-240-7776,global.solutions.ltd@yahoo.com,955 Jefferson St,Chicago,IL,29351,US,www.globalsolutionsltd.com,
317-37-8877,80-4869657,DL79573082,808-652-5688,484-486-1111,american.systems.llc@hotmail.com,4888 Elm St,Phoenix,AZ,97663,US,www.americansystemsllc.com,
822-24-1543,68-4233771,DL87122604,457-861-9691,687-124-6510,united.solutions.ltd@aol.com,2588 Pine St,Phoenix,AZ,86868,US,www.unitedsolutionsltd.com,
698-35-8479,92-4917724,DL18001529,865-310-5065,508-866-1562,national.systems.inc@outlook.com,7582 Main St,Houston,TX,50044,US,www.nationalsystemsinc.com,
905-25-9152,68-9999153,DL27888862,562-389-9253,498-309-9736,american.tech.inc@gmail.com,366 Maple St,Los Angeles,CA,82268,US,www.americantechinc.com,
297-18-8711,40-1689255,DL50402245,265-267-5792,485-638-5406,american.solutions.inc@outlook.com,6600 Pine St,Los Angeles,CA,75404,US,www.americansolutionsinc.com,
187-28-9742,21-5168282,DL79631657,500-360-8543,203-333-2304,global.enterprises.ltd@gmail.com,3364 Oak St,New York,NY,91665,US,www.globalenterprisesltd.com,
132-41-3266,21-2252825,DL79904847,758-804-5229,496-624-4238,international.tech.inc@outlook.com,783 Main St,Phoenix,AZ,57320,US,www.internationaltechinc.com,
656-63-3818,84-4812666,DL48045613,272-170-9689,800-657-7972,american.tech.corp@aol.com,2360 Maple St,Phoenix,AZ,11552,US,www.americantechcorp.com,
721-50-8107,19-4436114,DL50369091,577-570-7135,419-691-2673,united.services.ltd@aol.com,2306 Pine St,New York,NY,46863,US,www.unitedservicesltd.com,
739-85-5960,53-1321214,DL26665397,201-328-3894,242-512-4451,american.solutions.ltd@gmail.com,9996 Oak St,Houston,TX,34936,US,www.americansolutionsltd.com,
754-50-2230,81-1163223,DL80594179,994-947-1070,708-186-7974,national.services.corp@outlook.com,5389 Jefferson St,Los Angeles,CA,25614,US,www.nationalservicescorp.com,
496-78-7316,94-3386261,DL66732458,645-469-9926,348-734-8644,united.systems.corp@outlook.com,421 Lincoln St,Houston,TX,24840,US,www.unitedsystemscorp.com,
454-26-3972,95-3743179,DL33857649,309-664-4719,581-828-6442,united.tech.ltd@aol.com,4785 Cedar St,Houston,TX,85973,US,www.unitedtechltd.com,
364-29-8905,61-2535085,DL79642124,745-965-7938,423-179-8254,american.solutions.llc@outlook.com,4421 Lincoln St,Los Angeles,CA,46503,US,www.americansolutionsllc.com,
549-60-3969,69-5191610,DL81720931,828-922-6527,735-967-6704,american.enterprises.llc@hotmail.com,3890 Pine St,Houston,TX,38850,US,www.americanenterprisesllc.com,
959-24-6796,17-5600417,DL61875720,721-819-9726,653-550-9226,international.tech.llc@yahoo.com,487 Oak St,New York,NY,94538,US,www.internationaltechllc.com,
308-65-3272,71-3322627,DL16244554,822-342-6465,224-201-3333,united.tech.llc@yahoo.com,3647 Main St,Chicago,IL,34795,US,www.unitedtechllc.com,
108-67-3204,93-5336342,DL33902843,666-989-3572,476-992-8079,united.solutions.corp@yahoo.com,1824 Elm St,New York,NY,72440,US,www.unitedsolutionscorp.com,
369-85-5482,56-5176222,DL39567064,487-157-8349,984-830-5173,united.tech.corp@yahoo.com,7776 Main St,Los Angeles,CA,55899,US,www.unitedtechcorp.com,
435-90-6874,88-2190806,DL19091898,435-484-6134,928-821-4598,international.enterprises.llc@yahoo.com,4455 Maple St,Los Angeles,CA,64341,US,www.internationalenterprisesllc.com,
975-59-4822,78-3536487,DL10120795,881-442-3123,748-280-2070,national.solutions.inc@outlook.com,242 Pine St,Los Angeles,CA,18542,US,www.nationalsolutionsinc.com,
916-61-5126,26-5375983,DL83769607,841-841-5200,322-435-7506,american.tech.ltd@yahoo.com,5626 Washington St,Los Angeles,CA,19845,US,www.americantechltd.com,
546-88-8775,58-2936758,DL72775591,205-314-9740,361-568-1158,united.services.inc@hotmail.com,5757 Jefferson St,Chicago,IL,95374,US,www.unitedservicesinc.com,
858-15-7331,68-4190996,DL12324103,757-721-6315,257-492-6469,global.solutions.llc@outlook.com,5961 Washington St,Los Angeles,CA,56171,US,www.globalsolutionsllc.com,
755-64-8632,35-3977205,DL66570934,869-204-5439,601-627-3154,international.solutions.inc@hotmail.com,4365 Jefferson St,Phoenix,AZ,10979,US,www.internationalsolutionsinc.com,
762-29-6813,73-1287995,DL57742475,204-471-1970,227-749-1850,united.solutions.corp@yahoo.com,1742 Oak St,Chicago,IL,10579,US,www.unitedsolutionscorp.com,
878-18-9203,59-6016069,DL24060781,879-413-8946,509-548-3533,global.systems.inc@hotmail.com,1635 Washington St,New York,NY,94055,US,www.globalsystemsinc.com,
230-38-1373,53-4300251,DL25859162,311-458-4929,912-144-1317,national.solutions.corp@hotmail.com,794 Oak St,New York,NY,88002,US,www.nationalsolutionscorp.com,
328-55-3990,34-4756547,DL36195425,692-107-2727,888-726-6776,international.solutions.corp@aol.com,903 Maple St,Houston,TX,20102,US,www.internationalsolutionscorp.com,
420-10-7661,96-4195569,DL26311885,537-767-2354,989-921-6007,united.services.inc@outlook.com,1540 Maple St,Chicago,IL,32393,US,www.unitedservicesinc.com,
239-63-1658,19-4509772,DL34937831,692-348-8651,479-996-3815,american.services.inc@yahoo.com,845 Elm St,Phoenix,AZ,39900,US,www.americanservicesinc.com,
480-49-3645,29-3733780,DL74794615,470-895-5723,264-543-2286,american.systems.llc@aol.com,5335 Maple St,Houston,TX,55661,US,www.americansystemsllc.com,
985-54-2166,97-7468907,DL15777994,516-993-4377,211-123-2206,global.systems.ltd@outlook.com,4451 Elm St,Phoenix,AZ,86648,US,www.globalsystemsltd.com,
728-68-5646,58-8958090,DL98682813,354-859-1736,863-405-7103,american.solutions.llc@yahoo.com,3308 Oak St,New York,NY,55122,US,www.americansolutionsllc.com,
216-26-5541,10-8106220,DL36215677,726-652-9059,701-124-4533,national.services.inc@aol.com,9523 Washington St,Phoenix,AZ,14228,US,www.nationalservicesinc.com,
725-93-3269,72-6781280,DL90597952,446-857-8818,535-343-4030,american.services.corp@outlook.com,647 Main St,Los Angeles,CA,77664,US,www.americanservicescorp.com,
491-57-9858,26-6535216,DL97081518,402-669-4926,218-632-5421,international.systems.corp@outlook.com,8821 Jefferson St,Chicago,IL,30885,US,www.internationalsystemscorp.com,
981-22-5302,68-5839360,DL34797312,297-847-5737,906-132-9967,international.enterprises.corp@gmail.com,1137 Maple St,Chicago,IL,79718,US,www.internationalenterprisescorp.com,
835-12-2599,24-3936452,DL41373397,404-600-6704,732-250-7645,american.services.llc@gmail.com,9033 Pine St,Los Angeles,CA,80302,US,www.americanservicesllc.com,
231-42-4797,59-6146267,DL18816164,877-532-9095,252-912-3084,national.solutions.llc@aol.com,4200 Lincoln St,Los Angeles,CA,21489,US,www.nationalsolutionsllc.com,
729-41-7974,15-1177783,DL21172107,405-787-7939,267-478-1412,global.systems.corp@gmail.com,7493 Jefferson St,New York,NY,39700,US,www.globalsystemscorp.com,
826-95-3214,31-2906705,DL59976511,749-690-3605,874-277-6352,global.systems.inc@gmail.com,9316 Oak St,Los Angeles,CA,96803,US,www.globalsystemsinc.com,
704-21-4723,21-5728703,DL51442217,911-734-9896,396-206-7793,national.enterprises.ltd@hotmail.com,6430 Jefferson St,New York,NY,86710,US,www.nationalenterprisesltd.com,
549-91-1745,20-7340206,DL40486778,362-899-5110,242-860-8692,international.systems.ltd@outlook.com,9009 Main St,New York,NY,34676,US,www.internationalsystemsltd.com,
873-83-1085,51-5772847,DL51996462,618-371-2256,746-479-6672,national.solutions.corp@outlook.com,5942 Maple St,Los Angeles,CA,50641,US,www.nationalsolutionscorp.com,
348-76-7715,76-2607979,DL70287536,641-692-8657,651-188-3477,united.solutions.inc@hotmail.com,6674 Washington St,New York,NY,43692,US,www.unitedsolutionsinc.com,
283-61-3475,90-9574001,DL60584703,907-969-7682,243-249-8684,united.services.inc@aol.com,3995 Jefferson St,Phoenix,AZ,32710,US,www.unitedservicesinc.com,
630-28-8639,98-5152864,DL39254434,649-615-3942,377-807-9551,global.tech.ltd@outlook.com,114 Lincoln St,Los Angeles,CA,94554,US,www.globaltechltd.com,
584-38-7341,39-8935252,DL48761111,693-246-7351,807-395-1244,national.services.inc@hotmail.com,670 Lincoln St,New York,NY,45450,US,www.nationalservicesinc.com,
187-11-4563,66-4449459,DL78581312,461-617-6941,546-541-8328,united.tech.inc@hotmail.com,5760 Oak St,Houston,TX,18731,US,www.unitedtechinc.com,
140-97-6801,27-9116959,DL34688765,739-423-8177,711-183-8615,international.tech.llc@gmail.com,1832 Main St,Los Angeles,CA,26235,US,www.internationaltechllc.com,
471-37-9407,57-8828692,DL75930864,601-788-9297,462-187-3151,international.tech.corp@hotmail.com,2836 Cedar St,New York,NY,65139,US,www.internationaltechcorp.com,
125-37-9066,78-9614793,DL57886381,818-484-8333,559-552-9065,international.enterprises.corp@outlook.com,957 Main St,Los Angeles,CA,57672,US,www.internationalenterprisescorp.com,
972-92-3625,27-1781088,DL68672792,719-984-6768,822-385-2854,united.services.llc@aol.com,8653 Maple St,Los Angeles,CA,57116,US,www.unitedservicesllc.com,
856-47-4450,86-3621390,DL95544054,580-197-6794,840-758-1319,united.systems.ltd@aol.com,6543 Washington St,Chicago,IL,79064,US,www.unitedsystemsltd.com,
153-20-8660,58-1135870,DL27216597,974-847-3696,534-720-6401,international.tech.llc@aol.com,1705 Elm St,Chicago,IL,43833,US,www.internationaltechllc.com,
477-36-6254,96-6399585,DL40172447,822-867-5853,406-750-6637,global.tech.llc@outlook.com,4446 Main St,New York,NY,27403,US,www.globaltechllc.com,
675-30-3132,14-3838536,DL49489242,933-377-7284,515-280-4362,american.solutions.llc@gmail.com,7008 Oak St,Chicago,IL,74461,US,www.americansolutionsllc.com,
912-84-8652,22-3778261,DL25236965,983-711-7152,964-791-1637,national.services.inc@outlook.com,1903 Cedar St,New York,NY,98650,US,www.nationalservicesinc.com,
655-18-1394,66-3125329,DL14734321,825-292-2475,709-752-8272,global.tech.ltd@outlook.com,7475 Cedar St,Chicago,IL,53985,US,www.globaltechltd.com,
614-32-2315,65-9238860,DL64198761,809-127-7952,560-303-6914,american.enterprises.corp@yahoo.com,275 Lincoln St,New York,NY,55128,US,www.americanenterprisescorp.com,
872-91-6637,64-5390912,DL52709052,456-707-2279,826-927-4894,american.solutions.inc@aol.com,4462 Cedar St,New York,NY,84591,US,www.americansolutionsinc.com,
335-82-7061,81-8108548,DL33602364,600-772-5769,734-804-4759,american.services.inc@hotmail.com,8945 Washington St,Houston,TX,21527,US,www.americanservicesinc.com,
716-86-3383,10-4908475,DL86105560,618-606-3525,616-540-9769,international.enterprises.llc@yahoo.com,7891 Washington St,Chicago,IL,87273,US,www.internationalenterprisesllc.com,
621-10-7295,83-4611841,DL50212380,973-306-2403,605-527-8252,global.enterprises.corp@gmail.com,1371 Elm St,New York,NY,36425,US,www.globalenterprisescorp.com,
584-58-8473,28-5224121,DL81803904,293-299-4930,829-867-1330,american.enterprises.corp@outlook.com,9796 Oak St,Chicago,IL,22744,US,www.americanenterprisescorp.com,
121-62-8991,44-4504176,DL86290923,709-335-2590,565-492-7489,global.solutions.inc@hotmail.com,2939 Maple St,Chicago,IL,31689,US,www.globalsolutionsinc.com,
172-38-2224,60-7931048,DL71415814,853-305-6791,333-320-2226,national.solutions.inc@hotmail.com,6747 Pine St,Houston,TX,57224,US,www.nationalsolutionsinc.com,
759-67-5606,64-4723824,DL69660612,807-160-2484,709-448-8984,national.solutions.corp@aol.com,2702 Oak St,Los Angeles,CA,14007,US,www.nationalsolutionscorp.com,
542-86-1042,65-6633440,DL66792203,653-625-9128,632-639-4833,american.enterprises.inc@aol.com,271 Jefferson St,New York,NY,49601,US,www.americanenterprisesinc.com,
719-43-3789,77-5178149,DL85919388,335-813-8157,912-695-2625,united.enterprises.ltd@hotmail.com,680 Lincoln St,Los Angeles,CA,77454,US,www.unitedenterprisesltd.com,
157-63-7721,71-3019661,DL79936997,298-474-1561,588-500-4194,global.enterprises.llc@yahoo.com,8391 Jefferson St,New York,NY,85027,US,www.globalenterprisesllc.com,
707-94-5459,40-2805720,DL14069926,368-181-3120,296-813-7542,international.systems.llc@yahoo.com,7510 Main St,Phoenix,AZ,36444,US,www.internationalsystemsllc.com,
503-52-3731,26-3047530,DL17537315,354-488-3916,259-135-1682,united.systems.llc@outlook.com,3473 Pine St,Houston,TX,18336,US,www.unitedsystemsllc.com,
883-36-5304,50-1636590,DL73628867,975-575-3574,603-112-6882,international.tech.inc@yahoo.com,8666 Oak St,New York,NY,90985,US,www.internationaltechinc.com,
345-20-4181,50-6542231,DL14600471,500-709-4408,948-235-6189,united.solutions.corp@yahoo.com,3057 Lincoln St,Chicago,IL,26898,US,www.unitedsolutionscorp.com,
654-58-2577,27-6949901,DL94453729,412-172-8205,525-511-6719,united.solutions.inc@gmail.com,372 Pine St,New York,NY,59958,US,www.unitedsolutionsinc.com,
408-85-1067,55-4000577,DL90320277,775-538-3715,792-477-4186,united.enterprises.ltd@gmail.com,6529 Elm St,Los Angeles,CA,17663,US,www.unitedenterprisesltd.com,
734-33-5941,47-4486542,DL45762158,528-713-5472,452-133-7643,american.services.inc@yahoo.com,6736 Cedar St,Chicago,IL,10209,US,www.americanservicesinc.com,
633-52-8059,66-3973130,DL57285222,437-141-8213,865-515-9093,international.tech.corp@yahoo.com,7641 Elm St,Los Angeles,CA,86618,US,www.internationaltechcorp.com,
640-37-3189,84-6488129,DL70527730,617-729-7437,436-179-9350,national.solutions.llc@outlook.com,5449 Cedar St,Los Angeles,CA,75526,US,www.nationalsolutionsllc.com,
846-62-2766,70-8640607,DL57003063,750-546-7442,965-430-4292,global.tech.ltd@gmail.com,3039 Cedar St,Los Angeles,CA,49934,US,www.globaltechltd.com,
625-79-8175,22-8411558,DL66734581,680-736-6884,248-162-5660,national.services.llc@yahoo.com,4303 Pine St,Phoenix,AZ,79441,US,www.nationalservicesllc.com,
488-80-2175,18-7110036,DL93343021,390-678-4785,873-841-3533,national.enterprises.corp@gmail.com,9222 Maple St,Chicago,IL,56537,US,www.nationalenterprisescorp.com,
337-81-6772,87-7221343,DL19300885,571-764-8730,560-968-1666,global.tech.ltd@aol.com,7817 Lincoln St,New York,NY,65484,US,www.globaltechltd.com,
280-88-1905,14-9842868,DL20738573,785-860-6129,566-395-7442,national.systems.ltd@aol.com,6393 Lincoln St,Houston,TX,30511,US,www.nationalsystemsltd.com,
580-39-9388,17-5573031,DL39405544,661-166-7278,603-764-7646,international.systems.corp@hotmail.com,2989 Pine St,New York,NY,48124,US,www.internationalsystemscorp.com,
735-56-7125,55-7538615,DL78061721,346-855-7203,489-725-3127,national.services.inc@aol.com,6904 Cedar St,Phoenix,AZ,56700,US,www.nationalservicesinc.com,
974-42-4289,24-2297700,DL79901228,618-884-7676,772-576-7244,american.enterprises.ltd@hotmail.com,1313 Cedar St,Chicago,IL,74932,US,www.americanenterprisesltd.com,
586-59-2888,28-2500532,DL55919897,501-501-1313,881-314-3218,international.solutions.ltd@yahoo.com,564 Oak St,New York,NY,76552,US,www.internationalsolutionsltd.com,
935-48-2302,85-6576666,DL61970000,940-538-2638,411-269-4346,national.services.llc@outlook.com,2700 Oak St,New York,NY,79657,US,www.nationalservicesllc.com,
597-84-8804,70-8104353,DL81376679,868-123-7027,341-772-9055,international.solutions.inc@outlook.com,3962 Oak St,New York,NY,40401,US,www.internationalsolutionsinc.com,
374-24-7857,12-5675690,DL59176445,523-143-9002,754-920-7533,global.services.llc@outlook.com,7723 Main St,Houston,TX,83797,US,www.globalservicesllc.com,
837-53-6786,29-8128444,DL12390850,967-658-8593,873-856-4341,national.tech.ltd@yahoo.com,1505 Cedar St,Phoenix,AZ,96179,US,www.nationaltechltd.com,
785-65-1215,75-3354818,DL75115436,433-450-5616,262-200-2045,global.systems.inc@yahoo.com,3119 Elm St,Chicago,IL,42877,US,www.globalsystemsinc.com,
590-69-6017,81-8114475,DL12542686,877-947-7300,502-401-5033,american.enterprises.llc@gmail.com,5537 Maple St,Los Angeles,CA,82490,US,www.americanenterprisesllc.com,
524-88-6850,85-9702066,DL70246079,357-255-8162,305-855-6068,global.systems.corp@yahoo.com,22 Maple St,Los Angeles,CA,30338,US,www.globalsystemscorp.com,
901-67-8843,75-4036414,DL40901583,670-992-5395,817-143-8879,global.systems.corp@outlook.com,2055 Cedar St,Phoenix,AZ,95594,US,www.globalsystemscorp.com,
987-49-1250,46-2711679,DL95626380,340-972-3438,339-558-7204,united.enterprises.llc@yahoo.com,8261 Cedar St,Phoenix,AZ,55663,US,www.unitedenterprisesllc.com,
813-19-2463,53-2653092,DL56459684,759-212-6371,440-644-5474,american.solutions.corp@outlook.com,6726 Main St,Los Angeles,CA,12103,US,www.americansolutionscorp.com,
634-88-8610,64-8669433,DL32593785,913-427-6350,630-194-4065,american.systems.corp@aol.com,1607 Jefferson St,Chicago,IL,46004,US,www.americansystemscorp.com,
884-34-3006,86-3971419,DL84065287,871-639-4239,210-269-9976,global.tech.inc@hotmail.com,1834 Jefferson St,Los Angeles,CA,20011,US,www.globaltechinc.com,
619-83-2160,47-2515529,DL97488559,533-857-4357,214-196-6986,global.tech.ltd@yahoo.com,6508 Jefferson St,Chicago,IL,90239,US,www.globaltechltd.com,
703-97-7541,50-3141664,DL33968709,563-941-6369,625-274-3320,international.systems.inc@aol.com,331 Jefferson St,Chicago,IL,26231,US,www.internationalsystemsinc.com,
182-74-8253,48-1351614,DL66702527,794-244-6144,437-820-2329,global.tech.inc@aol.com,5823 Oak St,Phoenix,AZ,89142,US,www.globaltechinc.com,
284-31-3808,17-5346917,DL66585841,941-888-8601,773-509-9121,united.services.ltd@aol.com,9508 Oak St,Chicago,IL,59236,US,www.unitedservicesltd.com,
142-43-3917,79-5585513,DL53418624,442-345-7179,338-838-3265,united.enterprises.ltd@hotmail.com,9917 Oak St,Houston,TX,63270,US,www.unitedenterprisesltd.com,
285-25-9673,10-3278399,DL80945207,860-265-3157,380-123-8004,american.solutions.inc@yahoo.com,5448 Lincoln St,Phoenix,AZ,53647,US,www.americansolutionsinc.com,
856-11-3847,13-7784997,DL39853581,279-210-5186,628-715-4616,national.solutions.llc@aol.com,5870 Maple St,Houston,TX,82749,US,www.nationalsolutionsllc.com,
938-72-7681,69-3077339,DL63280324,362-745-7955,732-730-8185,american.enterprises.llc@gmail.com,4300 Jefferson St,Chicago,IL,52048,US,www.americanenterprisesllc.com,
533-52-8810,87-8220532,DL60505874,682-194-5263,698-892-3388,united.systems.ltd@hotmail.com,974 Maple St,Houston,TX,66196,US,www.unitedsystemsltd.com,
725-17-8745,79-1702639,DL49828355,349-506-9909,668-501-9553,national.systems.inc@outlook.com,2885 Lincoln St,Houston,TX,95149,US,www.nationalsystemsinc.com,
718-10-2346,18-5083559,DL40446610,573-953-9277,443-651-1342,global.systems.llc@yahoo.com,6623 Cedar St,Houston,TX,75245,US,www.globalsystemsllc.com,
974-40-7952,63-9225750,DL39713598,996-421-3017,948-368-3583,global.solutions.llc@aol.com,9601 Jefferson St,Houston,TX,25142,US,www.globalsolutionsllc.com,
665-16-4745,46-8064265,DL84472765,994-298-1858,610-250-3980,national.solutions.corp@gmail.com,8343 Lincoln St,Chicago,IL,79850,US,www.nationalsolutionscorp.com,
928-97-1605,86-3042112,DL21708328,448-897-4253,378-749-6975,american.enterprises.corp@aol.com,9943 Washington St,Los Angeles,CA,88500,US,www.americanenterprisescorp.com,
938-47-7271,63-1114662,DL34679408,644-505-2472,878-823-6857,united.enterprises.corp@yahoo.com,3241 Main St,Los Angeles,CA,98613,US,www.unitedenterprisescorp.com,
761-52-5629,87-7407650,DL10472216,236-344-8657,923-437-9501,united.systems.corp@yahoo.com,8979 Maple St,Houston,TX,33861,US,www.unitedsystemscorp.com,
520-31-4255,38-2665445,DL81326361,791-299-1472,526-644-6183,united.tech.corp@aol.com,8696 Cedar St,Phoenix,AZ,43085,US,www.unitedtechcorp.com,
313-61-2467,84-1078199,DL85799687,413-919-6323,299-551-4493,global.enterprises.corp@gmail.com,664 Cedar St,Phoenix,AZ,84012,US,www.globalenterprisescorp.com,
499-35-8921,82-1003972,DL57576789,718-207-1574,958-558-9719,global.tech.llc@aol.com,8509 Pine St,Phoenix,AZ,44420,US,www.globaltechllc.com,
298-18-6056,30-7995714,DL64496218,409-313-5510,613-768-7111,international.enterprises.inc@yahoo.com,7046 Cedar St,Chicago,IL,52535,US,www.internationalenterprisesinc.com,
208-74-3770,96-6257694,DL69807015,296-968-4981,729-684-5289,united.tech.corp@aol.com,1793 Jefferson St,Los Angeles,CA,64831,US,www.unitedtechcorp.com,
912-23-6141,31-2073344,DL77321972,826-671-8881,734-469-2707,american.systems.llc@outlook.com,3140 Oak St,Phoenix,AZ,82208,US,www.americansystemsllc.com,
322-71-4356,99-3174407,DL17682505,770-513-5065,549-735-8363,international.systems.inc@yahoo.com,7728 Oak St,Chicago,IL,58169,US,www.internationalsystemsinc.com,
258-30-4351,16-8039534,DL76764655,277-443-3085,339-621-6364,american.tech.corp@outlook.com,1763 Jefferson St,Houston,TX,48885,US,www.americantechcorp.com,
283-76-5772,87-8352885,DL27920194,899-933-1806,960-121-1340,national.services.llc@gmail.com,6440 Oak St,Los Angeles,CA,87515,US,www.nationalservicesllc.com,
448-76-7283,55-2641024,DL23595079,732-464-7317,206-137-7273,international.enterprises.corp@outlook.com,7677 Elm St,New York,NY,60494,US,www.internationalenterprisescorp.com,
327-20-9721,58-8937105,DL80296566,654-940-1016,706-280-3966,united.tech.llc@outlook.com,6288 Elm St,Los Angeles,CA,35950,US,www.unitedtechllc.com,
406-21-4113,44-5828941,DL57961765,714-439-9548,702-856-1432,united.services.ltd@hotmail.com,9359 Washington St,New York,NY,11522,US,www.unitedservicesltd.com,
357-80-3735,14-7994795,DL30396404,822-477-8662,253-222-6318,global.tech.llc@aol.com,9981 Maple St,New York,NY,14017,US,www.globaltechllc.com,
475-43-9854,26-3298494,DL30963401,798-357-5806,505-613-8362,international.enterprises.corp@hotmail.com,9462 Main St,Houston,TX,89491,US,www.internationalenterprisescorp.com,
427-18-4547,27-6406252,DL94824247,309-727-2020,550-463-8524,united.solutions.corp@yahoo.com,9796 Lincoln St,Chicago,IL,39735,US,www.unitedsolutionscorp.com,
810-36-8662,34-5555815,DL25791289,327-158-8783,447-369-7598,international.enterprises.inc@gmail.com,9677 Elm St,Los Angeles,CA,22060,US,www.internationalenterprisesinc.com,
583-38-4115,37-1572557,DL88166700,890-336-4624,640-778-9217,american.systems.corp@aol.com,6332 Maple St,Phoenix,AZ,44594,US,www.americansystemscorp.com,
435-19-6828,53-8679561,DL78727843,598-509-9927,776-978-9910,global.tech.llc@yahoo.com,6672 Jefferson St,Chicago,IL,66812,US,www.globaltechllc.com,
326-54-7782,68-7073914,DL44968855,631-993-5875,831-226-7165,international.solutions.corp@aol.com,9436 Washington St,Los Angeles,CA,16013,US,www.internationalsolutionscorp.com,
404-92-1274,60-1230148,DL23777354,960-385-7974,227-624-2993,united.solutions.inc@outlook.com,1273 Pine St,Phoenix,AZ,41614,US,www.unitedsolutionsinc.com,
415-18-9579,74-3600949,DL25680370,508-962-6835,342-830-1555,american.systems.inc@aol.com,2461 Cedar St,Chicago,IL,11092,US,www.americansystemsinc.com,
727-43-1009,91-6031950,DL51547188,417-710-4942,795-104-9370,global.enterprises.ltd@outlook.com,3738 Elm St,Phoenix,AZ,86477,US,www.globalenterprisesltd.com,
333-65-6853,95-7357280,DL79345256,850-293-5357,452-637-8837,national.services.llc@outlook.com,7769 Maple St,New York,NY,85643,US,www.nationalservicesllc.com,
759-80-7073,73-8113734,DL45152362,763-143-2675,525-516-9568,national.tech.inc@hotmail.com,5816 Washington St,Houston,TX,42929,US,www.nationaltechinc.com,
377-25-2846,97-2710115,DL62061541,428-224-4146,853-488-9923,international.systems.corp@yahoo.com,4789 Pine St,Phoenix,AZ,92524,US,www.internationalsystemscorp.com,
174-15-5601,13-8203665,DL20704895,914-734-4623,513-782-5067,global.tech.corp@aol.com,8093 Cedar St,Phoenix,AZ,35961,US,www.globaltechcorp.com,
291-18-7992,40-2313928,DL18579741,703-528-8976,858-430-8179,united.services.inc@yahoo.com,3078 Washington St,Houston,TX,87064,US,www.unitedservicesinc.com,
119-58-4399,45-4009890,DL90830859,844-737-6857,430-786-1425,national.services.ltd@aol.com,7305 Jefferson St,Chicago,IL,49768,US,www.nationalservicesltd.com,
118-71-1369,47-9572149,DL31186904,893-395-2565,219-367-9257,national.systems.llc@aol.com,5366 Jefferson St,New York,NY,43183,US,www.nationalsystemsllc.com,
220-68-9903,56-1062617,DL36085074,328-340-7488,709-375-9653,united.tech.inc@outlook.com,3886 Main St,Los Angeles,CA,82711,US,www.unitedtechinc.com,
529-19-4001,16-7214636,DL55697091,792-995-2165,605-778-6818,national.tech.corp@aol.com,9143 Cedar St,Houston,TX,32550,US,www.nationaltechcorp.com,
836-42-8027,12-6304261,DL56424919,588-426-9896,215-489-4125,american.tech.corp@hotmail.com,9130 Pine St,Chicago,IL,50425,US,www.americantechcorp.com,
554-73-7134,21-7265690,DL91936802,858-388-1723,662-274-2629,american.enterprises.inc@yahoo.com,5942 Lincoln St,New York,NY,20966,US,www.americanenterprisesinc.com,
701-92-7175,64-2618734,DL37472463,403-539-6170,665-133-4386,american.solutions.ltd@outlook.com,1791 Jefferson St,Chicago,IL,78181,US,www.americansolutionsltd.com,
298-21-5371,15-1941161,DL20029740,934-563-9972,406-432-3049,international.systems.inc@yahoo.com,5199 Jefferson St,Houston,TX,87634,US,www.internationalsystemsinc.com,
212-86-5483,37-8628062,DL95445096,237-221-9141,713-589-2058,international.services.llc@gmail.com,8188 Cedar St,Houston,TX,26863,US,www.internationalservicesllc.com,
251-86-9813,30-2546589,DL33615933,818-995-2267,857-705-2411,global.tech.llc@gmail.com,430 Maple St,Los Angeles,CA,12207,US,www.globaltechllc.com,
864-92-8120,17-8373753,DL77314281,685-846-2695,698-290-4725,international.tech.inc@gmail.com,3261 Maple St,Phoenix,AZ,75731,US,www.internationaltechinc.com,
398-85-4758,53-4117701,DL37967617,743-512-3040,548-352-3237,national.solutions.ltd@yahoo.com,5770 Main St,Houston,TX,50079,US,www.nationalsolutionsltd.com,
323-43-8194,30-7768202,DL32577454,270-707-4693,711-773-4655,united.tech.ltd@hotmail.com,4808 Jefferson St,New York,NY,93598,US,www.unitedtechltd.com,
857-61-1884,49-1356911,DL89306844,647-749-6398,791-157-5886,international.tech.ltd@hotmail.com,5890 Maple St,New York,NY,44055,US,www.internationaltechltd.com,
927-91-5787,12-7096610,DL94629965,358-874-3609,661-351-2560,united.systems.inc@outlook.com,3099 Oak St,Los Angeles,CA,76546,US,www.unitedsystemsinc.com,
732-43-8337,11-6904795,DL22109586,650-688-9670,955-101-9219,national.enterprises.ltd@yahoo.com,7256 Lincoln St,New York,NY,83139,US,www.nationalenterprisesltd.com,
579-34-4987,81-3991576,DL34400795,761-825-8638,877-837-5321,global.tech.llc@gmail.com,1491 Jefferson St,Los Angeles,CA,10544,US,www.globaltechllc.com,
693-54-4312,24-1017441,DL86890183,208-607-4557,554-803-8457,national.systems.corp@outlook.com,4584 Pine St,New York,NY,90257,US,www.nationalsystemscorp.com,
619-35-3648,42-5686976,DL28018871,801-434-3226,237-925-7069,national.systems.llc@gmail.com,8522 Maple St,Houston,TX,80026,US,www.nationalsystemsllc.com,
634-59-6980,81-6901745,DL77367641,546-913-6143,374-216-3787,national.enterprises.llc@aol.com,6001 Jefferson St,New York,NY,15414,US,www.nationalenterprisesllc.com,
568-89-4538,34-7007147,DL56718985,676-585-9349,288-498-6869,united.tech.inc@hotmail.com,8038 Maple St,Los Angeles,CA,56734,US,www.unitedtechinc.com,
462-33-4664,87-3726975,DL39145957,878-853-4843,516-396-8916,american.services.inc@hotmail.com,7139 Oak St,Houston,TX,36940,US,www.americanservicesinc.com,
969-68-3569,99-7500187,DL44303386,452-739-8101,625-187-2235,national.solutions.llc@hotmail.com,6903 Oak St,Houston,TX,79130,US,www.nationalsolutionsllc.com,
935-17-9224,94-5768950,DL95541846,379-715-2006,491-303-2291,united.systems.inc@gmail.com,8407 Lincoln St,Houston,TX,12647,US,www.unitedsystemsinc.com,
227-89-1052,17-3834383,DL19650899,852-394-4614,620-591-9433,united.enterprises.llc@aol.com,8508 Oak St,Phoenix,AZ,86430,US,www.unitedenterprisesllc.com,
951-54-8101,39-3867159,DL71273462,734-451-3862,632-800-2372,national.enterprises.llc@yahoo.com,1507 Main St,Chicago,IL,84252,US,www.nationalenterprisesllc.com,
414-48-4696,41-3346083,DL40498970,687-895-6714,716-645-9378,american.services.corp@gmail.com,4723 Elm St,Houston,TX,33970,US,www.americanservicescorp.com,
965-36-8961,24-6722749,DL34629545,557-267-5607,810-762-2589,global.solutions.llc@hotmail.com,691 Main St,Houston,TX,45379,US,www.globalsolutionsllc.com,
319-94-9373,48-1701482,DL10718893,246-801-9038,604-930-9054,global.systems.ltd@outlook.com,7572 Oak St,Chicago,IL,54388,US,www.globalsystemsltd.com,
622-91-3661,93-3608336,DL79464845,836-153-2026,431-887-1783,american.tech.llc@outlook.com,137 Oak St,Phoenix,AZ,37652,US,www.americantechllc.com,
700-54-4348,11-8633231,DL99903913,842-413-8296,303-980-1642,national.tech.inc@outlook.com,1008 Jefferson St,New York,NY,95931,US,www.nationaltechinc.com,
445-18-3439,40-7545091,DL65381298,255-368-6542,783-574-7442,global.solutions.ltd@aol.com,7792 Cedar St,Houston,TX,19578,US,www.globalsolutionsltd.com,
372-45-7334,33-1613577,DL12749275,941-872-2814,495-929-8337,united.solutions.inc@gmail.com,4910 Lincoln St,New York,NY,80293,US,www.unitedsolutionsinc.com,
316-17-4099,38-7857060,DL25071175,538-458-4607,722-162-4160,united.services.corp@gmail.com,3808 Washington St,New York,NY,88885,US,www.unitedservicescorp.com,
601-27-7830,19-2931717,DL94591432,654-874-4948,344-522-2427,international.solutions.ltd@hotmail.com,2162 Jefferson St,Los Angeles,CA,37140,US,www.internationalsolutionsltd.com,
707-93-9876,38-9156656,DL26102519,550-683-2447,301-200-9474,united.systems.inc@gmail.com,442 Main St,Los Angeles,CA,88297,US,www.unitedsystemsinc.com,
772-34-3214,61-2466333,DL94256909,614-627-3295,545-885-5963,united.solutions.corp@outlook.com,6043 Jefferson St,Houston,TX,62882,US,www.unitedsolutionscorp.com,
990-10-5731,44-3687793,DL98557633,819-502-6731,351-366-6422,international.solutions.llc@aol.com,493 Elm St,Los Angeles,CA,72586,US,www.internationalsolutionsllc.com,
225-17-4583,53-4561314,DL57447655,467-629-7362,473-989-5210,united.tech.inc@gmail.com,4066 Maple St,New York,NY,33608,US,www.unitedtechinc.com,
218-24-6073,21-1185734,DL44068647,621-279-1870,477-724-9241,american.tech.corp@outlook.com,5253 Jefferson St,Los Angeles,CA,37967,US,www.americantechcorp.com,
652-24-9586,96-1213580,DL87008536,252-491-6074,331-644-3002,global.enterprises.ltd@yahoo.com,8124 Washington St,Phoenix,AZ,44565,US,www.globalenterprisesltd.com,
795-80-2644,36-4598667,DL33507520,430-302-4710,897-636-7679,national.tech.corp@yahoo.com,9673 Cedar St,Chicago,IL,72640,US,www.nationaltechcorp.com,
547-60-4154,78-7846136,DL66900602,705-911-8391,841-340-8295,american.enterprises.llc@outlook.com,8271 Lincoln St,Los Angeles,CA,44131,US,www.americanenterprisesllc.com,
739-54-2155,38-6484034,DL69514455,479-449-2966,678-497-2379,international.tech.ltd@aol.com,7494 Pine St,Phoenix,AZ,13514,US,www.internationaltechltd.com,
498-71-6233,26-3955536,DL93923814,605-522-1089,851-337-6332,united.enterprises.inc@aol.com,906 Cedar St,Houston,TX,67644,US,www.unitedenterprisesinc.com,
570-93-9406,44-5566670,DL44241474,320-106-7387,232-914-9504,international.enterprises.ltd@outlook.com,1422 Maple St,New York,NY,22446,US,www.internationalenterprisesltd.com,
500-39-6002,85-5879324,DL52346769,297-882-3104,761-171-3199,national.enterprises.inc@aol.com,5506 Maple St,Houston,TX,22208,US,www.nationalenterprisesinc.com,
138-24-2560,37-8472151,DL27355174,894-377-7522,977-233-3942,international.services.inc@outlook.com,7574 Maple St,Phoenix,AZ,70112,US,www.internationalservicesinc.com,
165-73-8932,38-3969906,DL34265903,792-122-2978,687-523-6280,united.systems.llc@yahoo.com,5098 Pine St,Houston,TX,60236,US,www.unitedsystemsllc.com,
640-83-6851,71-2472491,DL43695223,849-325-2145,405-716-6826,american.systems.inc@aol.com,4240 Lincoln St,Houston,TX,24154,US,www.americansystemsinc.com,
266-52-7280,76-5776317,DL68736539,436-476-3887,261-395-3776,national.solutions.llc@outlook.com,6436 Oak St,Phoenix,AZ,60190,US,www.nationalsolutionsllc.com,
849-12-8006,96-6154332,DL41265948,374-670-7166,747-572-1759,international.enterprises.inc@gmail.com,7792 Cedar St,Los Angeles,CA,69983,US,www.internationalenterprisesinc.com,
145-94-3627,42-7281114,DL99048779,526-179-4679,254-568-4174,international.services.llc@gmail.com,2208 Pine St,Phoenix,AZ,92098,US,www.internationalservicesllc.com,
689-63-6995,68-4238465,DL37038208,769-347-7339,980-205-3524,national.enterprises.ltd@aol.com,1454 Oak St,Chicago,IL,24712,US,www.nationalenterprisesltd.com,
852-67-1691,69-7915415,DL27627659,658-150-2160,378-794-9771,international.services.ltd@aol.com,2665 Pine St,Phoenix,AZ,57770,US,www.internationalservicesltd.com,
525-39-5883,41-2844307,DL85682053,607-779-5795,532-669-5731,global.systems.ltd@outlook.com,5753 Main St,Chicago,IL,10527,US,www.globalsystemsltd.com,
667-35-7990,63-1288030,DL60689850,646-317-1635,379-112-1398,international.systems.llc@yahoo.com,8497 Pine St,Phoenix,AZ,61089,US,www.internationalsystemsllc.com,
329-66-7931,82-4021458,DL18492995,503-473-2442,563-894-4259,global.systems.ltd@gmail.com,7446 Elm St,Chicago,IL,25839,US,www.globalsystemsltd.com,
803-18-7866,22-1885903,DL56147673,574-400-7629,889-277-8341,american.services.llc@outlook.com,9244 Cedar St,Phoenix,AZ,45092,US,www.americanservicesllc.com,
397-61-2068,69-4048301,DL82855974,552-306-9445,710-770-2598,international.enterprises.ltd@aol.com,1357 Jefferson St,Houston,TX,88960,US,www.internationalenterprisesltd.com,
356-31-6629,42-2307656,DL53559626,699-704-7057,450-119-1064,american.services.llc@aol.com,8296 Pine St,Chicago,IL,27033,US,www.americanservicesllc.com,
954-27-3278,54-5770953,DL32186698,991-203-8879,564-868-4004,international.enterprises.ltd@yahoo.com,5643 Main St,Chicago,IL,21375,US,www.internationalenterprisesltd.com,
303-62-2693,20-1149621,DL16095935,553-426-4027,707-615-2564,united.systems.corp@hotmail.com,4336 Lincoln St,Houston,TX,57888,US,www.unitedsystemscorp.com,
512-76-7153,99-7550772,DL26655402,615-852-3832,318-891-2377,national.solutions.corp@hotmail.com,9508 Lincoln St,Chicago,IL,87004,US,www.nationalsolutionscorp.com,
946-20-9733,94-1179020,DL73799994,250-724-7555,843-308-1124,global.services.corp@gmail.com,3841 Cedar St,New York,NY,63929,US,www.globalservicescorp.com,
469-17-8113,32-3495675,DL69812892,859-234-2460,563-560-4633,international.systems.inc@hotmail.com,783 Elm St,New York,NY,25758,US,www.internationalsystemsinc.com,
208-98-7281,76-1534222,DL87414525,333-577-4406,420-402-6395,american.systems.llc@gmail.com,2687 Washington St,Los Angeles,CA,58305,US,www.americansystemsllc.com,
570-89-9097,53-3823998,DL57356837,821-670-7297,418-175-7720,global.tech.ltd@gmail.com,3635 Main St,Los Angeles,CA,47506,US,www.globaltechltd.com,
388-69-4611,14-6198697,DL57341692,675-919-9713,948-913-3048,national.enterprises.corp@aol.com,1777 Maple St,Houston,TX,71508,US,www.nationalenterprisescorp.com,
352-67-9850,67-5222594,DL18615345,921-337-7800,952-794-9890,global.tech.ltd@aol.com,3158 Jefferson St,Los Angeles,CA,52515,US,www.globaltechltd.com,
149-83-5356,17-7479536,DL28938232,456-964-8902,675-784-6533,national.systems.inc@outlook.com,7456 Elm St,Houston,TX,82101,US,www.nationalsystemsinc.com,
436-91-9797,12-4632052,DL84205289,231-159-7881,748-299-4359,international.services.inc@outlook.com,3817 Main St,Los Angeles,CA,12023,US,www.internationalservicesinc.com,
664-57-7166,78-2791679,DL61384113,751-834-6716,915-562-2573,global.tech.corp@gmail.com,7145 Oak St,Chicago,IL,18165,US,www.globaltechcorp.com,
343-70-1310,84-5726938,DL49410486,318-339-1185,934-793-2782,united.solutions.ltd@yahoo.com,601 Jefferson St,Phoenix,AZ,74519,US,www.unitedsolutionsltd.com,
946-22-7780,48-7687828,DL99833740,287-326-1742,691-223-1415,american.enterprises.inc@aol.com,3509 Maple St,Los Angeles,CA,79002,US,www.americanenterprisesinc.com,
523-98-2041,16-4409403,DL95050999,275-847-5367,569-583-3387,united.tech.llc@aol.com,4414 Main St,Los Angeles,CA,45264,US,www.unitedtechllc.com,
625-75-6067,32-6136463,DL63871890,328-882-2182,770-423-9055,global.systems.llc@aol.com,7501 Main St,Houston,TX,86940,US,www.globalsystemsllc.com,
210-16-9879,49-7195191,DL32418169,237-108-2891,819-628-1883,global.systems.ltd@aol.com,5436 Elm St,New York,NY,40654,US,www.globalsystemsltd.com,
597-87-2968,80-3803318,DL22887849,577-790-9936,567-311-9251,american.systems.ltd@outlook.com,160 Washington St,Phoenix,AZ,21092,US,www.americansystemsltd.com,
848-74-4636,92-8141387,DL71481896,286-232-4317,695-271-8783,international.tech.ltd@yahoo.com,6343 Main St,New York,NY,38440,US,www.internationaltechltd.com,
901-33-4310,22-9438510,DL44367938,877-723-8609,247-608-6839,international.enterprises.llc@aol.com,2437 Maple St,Phoenix,AZ,39758,US,www.internationalenterprisesllc.com,
941-57-9480,74-6184743,DL88796576,808-121-1566,530-620-4894,national.services.inc@hotmail.com,5089 Main St,Phoenix,AZ,41618,US,www.nationalservicesinc.com,
335-42-8403,50-4060159,DL36607680,271-810-8894,831-567-6499,international.enterprises.ltd@hotmail.com,9506 Lincoln St,Phoenix,AZ,93776,US,www.internationalenterprisesltd.com,
235-93-7384,17-4212205,DL54624915,922-909-1028,319-804-4096,united.services.corp@outlook.com,8427 Washington St,Phoenix,AZ,25227,US,www.unitedservicescorp.com,
